{"type":"FeatureCollection","features":[{"type":"Feature","properties":{"Title":"CS3 - East-West Cycle Superhighway","Direction":"TwoWay","Flow":null,"Protection":null,"Ownership":null,"YearBuilt":null,"Borough":"Barking and Dagenham","LengthInMetres":879,"stroke":"#1A73E8","stroke-width":4},"geometry":{"type":"LineString","coordinates":[[0.0808085,51.52757],[0.0815328,51.52778],[0.0832065,51.52819],[0.0849661,51.52855],[0.086747,51.52898],[0.0883349,51.52912],[0.089837,51.52929],[0.0911673,51.52941],[0.0921544,51.52961],[0.0929483,51.52966]]}},{"type":"Feature","properties":{"Title":"Fielders CrescentÂ ","Direction":"TwoWay","Flow":null,"Protection":null,"Ownership":null,"YearBuilt":null,"Borough":"Barking and Dagenham","LengthInMetres":889,"stroke":"#1A73E8","stroke-width":4},"geometry":{"type":"LineString","coordinates":[[0.1196151,51.52052],[0.1195293,51.52096],[0.1195937,51.52149],[0.1198512,51.52204],[0.1202267,51.52251],[0.1206237,51.52294],[0.1211386,51.52333],[0.1216644,51.52363],[0.1223403,51.52392],[0.1233059,51.52421],[0.1239603,51.52434],[0.124529,51.52442],[0.1245719,51.52452],[0.1242393,51.52499],[0.1239496,51.52536],[0.1235312,51.52595],[0.1234453,51.5262],[0.1235526,51.52654],[0.1236599,51.52675]]}},{"type":"Feature","properties":{"Title":"Mallards Road","Direction":"TwoWay","Flow":null,"Protection":null,"Ownership":null,"YearBuilt":null,"Borough":"Barking and Dagenham","LengthInMetres":347,"stroke":"#1A73E8","stroke-width":4},"geometry":{"type":"LineString","coordinates":[[0.1116788,51.51822],[0.1110244,51.51925],[0.1102734,51.52035],[0.1097155,51.52109]]}},{"type":"Feature","properties":{"Title":"Mallards Road","Direction":"TwoWay","Flow":null,"Protection":null,"Ownership":null,"YearBuilt":null,"Borough":"Barking and Dagenham","LengthInMetres":125,"stroke":"#1A73E8","stroke-width":4},"geometry":{"type":"LineString","coordinates":[[0.1097155,51.52109],[0.1115179,51.52114]]}},{"type":"Feature","properties":{"Title":"Mallards Road","Direction":"TwoWay","Flow":null,"Protection":null,"Ownership":null,"YearBuilt":null,"Borough":"Barking and Dagenham","LengthInMetres":690,"stroke":"#1A73E8","stroke-width":4},"geometry":{"type":"LineString","coordinates":[[0.1097155,51.52109],[0.1073337,51.52101],[0.1059282,51.52095],[0.1056707,51.52082],[0.1067328,51.52049],[0.1082134,51.52001],[0.1096618,51.51958],[0.1107347,51.51923],[0.1108742,51.51923]]}},{"type":"Feature","properties":{"Title":"Renwick Road","Direction":"TwoWay","Flow":null,"Protection":null,"Ownership":null,"YearBuilt":null,"Borough":"Barking and Dagenham","LengthInMetres":293,"stroke":"#1A73E8","stroke-width":4},"geometry":{"type":"LineString","coordinates":[[0.1168168,51.5274],[0.1167953,51.52651],[0.1167953,51.52579],[0.1166881,51.52477]]}},{"type":"Feature","properties":{"Title":"St Chad's Park","Direction":"TwoWay","Flow":null,"Protection":null,"Ownership":null,"YearBuilt":null,"Borough":"Barking and Dagenham","LengthInMetres":134,"stroke":"#1A73E8","stroke-width":4},"geometry":{"type":"LineString","coordinates":[[0.1293467,51.57423],[0.1295565,51.57387],[0.1298247,51.57353],[0.1301014,51.57312]]}}]}