{"type":"FeatureCollection","features":[{"type":"Feature","properties":{"Title":"Montrose Avenue Crossing","Direction":"TwoWay","Flow":null,"Protection":null,"Ownership":null,"YearBuilt":null,"Borough":"Barnet","LengthInMetres":6,"stroke":"#FF7043","stroke-width":4},"geometry":{"type":"LineString","coordinates":[[-0.2589712,51.59965],[-0.2589162,51.59961]]}},{"type":"Feature","properties":{"Title":"A1000 - Cycleway (LB Barnet)","Direction":"TwoWay","Flow":null,"Protection":null,"Ownership":null,"YearBuilt":null,"Borough":"Barnet","LengthInMetres":109,"stroke":"#FF7043","stroke-width":4},"geometry":{"type":"LineString","coordinates":[[-0.1632727,51.58555],[-0.163616,51.58584],[-0.1638091,51.58612],[-0.1639593,51.58642]]}},{"type":"Feature","properties":{"Title":"A1000 - Cycleway (LB Barnet)","Direction":"TwoWay","Flow":null,"Protection":null,"Ownership":null,"YearBuilt":null,"Borough":"Barnet","LengthInMetres":214,"stroke":"#FF7043","stroke-width":4},"geometry":{"type":"LineString","coordinates":[[-0.1641525,51.58736],[-0.1641739,51.58776],[-0.1641525,51.58824],[-0.1640666,51.58872],[-0.1639379,51.58927]]}},{"type":"Feature","properties":{"Title":"A1000 - Cycleway (LB Barnet)","Direction":"TwoWay","Flow":null,"Protection":null,"Ownership":null,"YearBuilt":null,"Borough":"Barnet","LengthInMetres":787,"stroke":"#FF7043","stroke-width":4},"geometry":{"type":"LineString","coordinates":[[-0.1674355,51.59332],[-0.1684011,51.59414],[-0.1693238,51.59491],[-0.1699675,51.59535],[-0.1706327,51.59583],[-0.1711262,51.59626],[-0.1713837,51.59652],[-0.1717485,51.59711],[-0.1723278,51.59811],[-0.1728214,51.59898],[-0.1730574,51.59937]]}},{"type":"Feature","properties":{"Title":"A1000 - Cycleway (LB Barnet)","Direction":"TwoWay","Flow":null,"Protection":null,"Ownership":null,"YearBuilt":null,"Borough":"Barnet","LengthInMetres":187,"stroke":"#FF7043","stroke-width":4},"geometry":{"type":"LineString","coordinates":[[-0.173272,51.6002],[-0.1733149,51.60069],[-0.1733363,51.60113],[-0.1736582,51.60185]]}},{"type":"Feature","properties":{"Title":"A1000 - Cycleway (LB Barnet)","Direction":"TwoWay","Flow":null,"Protection":null,"Ownership":null,"YearBuilt":null,"Borough":"Barnet","LengthInMetres":982,"stroke":"#FF7043","stroke-width":4},"geometry":{"type":"LineString","coordinates":[[-0.1743663,51.60308],[-0.1747526,51.60387],[-0.1748813,51.60448],[-0.1749242,51.60555],[-0.175053,51.60693],[-0.175053,51.60802],[-0.1752675,51.6095],[-0.175525,51.61096],[-0.1756538,51.61184]]}}]}