{"type":"FeatureCollection","features":[{"type":"Feature","properties":{"Title":"Q14 - (will become C14)","Direction":"TwoWay","Flow":null,"Protection":null,"Ownership":null,"YearBuilt":null,"Borough":"Bexley","LengthInMetres":361,"stroke":"#388E3C","stroke-width":4},"geometry":{"type":"LineString","coordinates":[[0.1248847,51.51286],[0.1232003,51.51228],[0.1214622,51.51175],[0.1202295,51.51142]]}},{"type":"Feature","properties":{"Title":"LCN 66","Direction":"TwoWay","Flow":null,"Protection":null,"Ownership":null,"YearBuilt":null,"Borough":"Bexley","LengthInMetres":5,"stroke":"#388E3C","stroke-width":4},"geometry":{"type":"LineString","coordinates":[[0.1208878,51.50618],[0.1208381,51.50615]]}},{"type":"Feature","properties":{"Title":"LCN 68","Direction":"TwoWay","Flow":null,"Protection":null,"Ownership":null,"YearBuilt":null,"Borough":"Bexley","LengthInMetres":19,"stroke":"#388E3C","stroke-width":4},"geometry":{"type":"LineString","coordinates":[[0.1210826,51.50092],[0.1209528,51.50107]]}},{"type":"Feature","properties":{"Title":"LCN 68","Direction":"TwoWay","Flow":null,"Protection":null,"Ownership":null,"YearBuilt":null,"Borough":"Bexley","LengthInMetres":53,"stroke":"#388E3C","stroke-width":4},"geometry":{"type":"LineString","coordinates":[[0.1209142,51.50192],[0.1209646,51.50207],[0.1209421,51.50239]]}},{"type":"Feature","properties":{"Title":"LCN 68","Direction":"TwoWay","Flow":null,"Protection":null,"Ownership":null,"YearBuilt":null,"Borough":"Bexley","LengthInMetres":353,"stroke":"#388E3C","stroke-width":4},"geometry":{"type":"LineString","coordinates":[[0.1209036,51.50332],[0.1209055,51.50351],[0.1208734,51.50508],[0.1211094,51.50532],[0.1212489,51.50542],[0.1211952,51.50559],[0.1211255,51.50579],[0.1208975,51.50617],[0.1208109,51.50638]]}},{"type":"Feature","properties":{"Title":"LCN 68","Direction":"TwoWay","Flow":null,"Protection":null,"Ownership":null,"YearBuilt":null,"Borough":"Bexley","LengthInMetres":179,"stroke":"#388E3C","stroke-width":4},"geometry":{"type":"LineString","coordinates":[[0.1207619,51.50683],[0.1207419,51.50841],[0.1207063,51.50843]]}},{"type":"Feature","properties":{"Title":"LCN 68","Direction":"TwoWay","Flow":null,"Protection":null,"Ownership":null,"YearBuilt":null,"Borough":"Bexley","LengthInMetres":123,"stroke":"#388E3C","stroke-width":4},"geometry":{"type":"LineString","coordinates":[[0.1206414,51.50929],[0.1206588,51.50954],[0.1206695,51.51012],[0.1206293,51.51022],[0.120565,51.51039]]}},{"type":"Feature","properties":{"Title":"Thamesmead Peabody Project","Direction":"TwoWay","Flow":null,"Protection":null,"Ownership":null,"YearBuilt":null,"Borough":"Bexley","LengthInMetres":46,"stroke":"#388E3C","stroke-width":4},"geometry":{"type":"LineString","coordinates":[[0.121236,51.49261],[0.1212047,51.49302]]}},{"type":"Feature","properties":{"Title":"Thamesmead Peabody Project","Direction":"TwoWay","Flow":null,"Protection":null,"Ownership":null,"YearBuilt":null,"Borough":"Bexley","LengthInMetres":270,"stroke":"#388E3C","stroke-width":4},"geometry":{"type":"LineString","coordinates":[[0.1211574,51.4953],[0.1211824,51.49582],[0.1210965,51.49627],[0.1211395,51.49676],[0.1211502,51.49772]]}},{"type":"Feature","properties":{"Title":"Black Prince Roundabout","Direction":"OneWay","Flow":null,"Protection":null,"Ownership":null,"YearBuilt":null,"Borough":"Bexley","LengthInMetres":84,"stroke":"#388E3C","stroke-width":2},"geometry":{"type":"LineString","coordinates":[[0.1524285,51.44512],[0.1528094,51.44565],[0.1530723,51.4457]]}},{"type":"Feature","properties":{"Title":"National Cycle Network 1","Direction":"OneWay","Flow":null,"Protection":null,"Ownership":null,"YearBuilt":null,"Borough":"Bexley","LengthInMetres":63,"stroke":"#388E3C","stroke-width":2},"geometry":{"type":"LineString","coordinates":[[0.1811896,51.4809],[0.1812755,51.48107],[0.1812325,51.48125],[0.1810716,51.48143]]}},{"type":"Feature","properties":{"Title":"Albion Road","Direction":"TwoWay","Flow":null,"Protection":null,"Ownership":null,"YearBuilt":null,"Borough":"Bexley","LengthInMetres":962,"stroke":"#388E3C","stroke-width":4},"geometry":{"type":"LineString","coordinates":[[0.1387952,51.45667],[0.1393102,51.45638],[0.1413058,51.45609],[0.1424645,51.45573],[0.1435803,51.4555],[0.1443957,51.45541],[0.1462625,51.4551],[0.1489018,51.45478],[0.1519984,51.45433]]}},{"type":"Feature","properties":{"Title":"Gravel Hill Roundabout","Direction":"OneWay","Flow":null,"Protection":null,"Ownership":null,"YearBuilt":null,"Borough":"Bexley","LengthInMetres":72,"stroke":"#388E3C","stroke-width":2},"geometry":{"type":"LineString","coordinates":[[0.1567455,51.44791],[0.1566569,51.44798],[0.1565926,51.44806],[0.1565416,51.44816],[0.1565014,51.44824],[0.1565899,51.44833],[0.1566355,51.44838],[0.1567079,51.44844],[0.1567347,51.44848]]}},{"type":"Feature","properties":{"Title":"Gravel Hill Roundabout","Direction":"OneWay","Flow":null,"Protection":null,"Ownership":null,"YearBuilt":null,"Borough":"Bexley","LengthInMetres":9,"stroke":"#388E3C","stroke-width":2},"geometry":{"type":"LineString","coordinates":[[0.1567347,51.44848],[0.1568662,51.44849]]}},{"type":"Feature","properties":{"Title":"Gravel Hill Roundabout","Direction":"OneWay","Flow":null,"Protection":null,"Ownership":null,"YearBuilt":null,"Borough":"Bexley","LengthInMetres":6,"stroke":"#388E3C","stroke-width":2},"geometry":{"type":"LineString","coordinates":[[0.1567347,51.44848],[0.1567374,51.44853]]}},{"type":"Feature","properties":{"Title":"Gravel Hill","Direction":"TwoWay","Flow":null,"Protection":null,"Ownership":null,"YearBuilt":null,"Borough":"Bexley","LengthInMetres":59,"stroke":"#388E3C","stroke-width":4},"geometry":{"type":"LineString","coordinates":[[0.1521133,51.45353],[0.1522635,51.45405]]}},{"type":"Feature","properties":{"Title":"Gravel Hill","Direction":"TwoWay","Flow":null,"Protection":null,"Ownership":null,"YearBuilt":null,"Borough":"Bexley","LengthInMetres":66,"stroke":"#388E3C","stroke-width":4},"geometry":{"type":"LineString","coordinates":[[0.1524352,51.45449],[0.1528107,51.45503]]}},{"type":"Feature","properties":{"Title":"Lyndon Avenue","Direction":"TwoWay","Flow":null,"Protection":null,"Ownership":null,"YearBuilt":null,"Borough":"Bexley","LengthInMetres":4,"stroke":"#388E3C","stroke-width":4},"geometry":{"type":"LineString","coordinates":[[0.09914,51.45245],[0.099188,51.45244]]}}]}