{"type":"FeatureCollection","features":[{"type":"Feature","properties":{"Title":"Point Place","Direction":"OneWay","Flow":null,"Protection":null,"Ownership":null,"YearBuilt":null,"Borough":"Brent","LengthInMetres":123,"stroke":"#FFA54F","stroke-width":2},"geometry":{"type":"LineString","coordinates":[[-0.2756571,51.54439],[-0.2742194,51.54503]]}},{"type":"Feature","properties":{"Title":"Kingsbury Road","Direction":"TwoWay","Flow":null,"Protection":null,"Ownership":null,"YearBuilt":null,"Borough":"Brent","LengthInMetres":518,"stroke":"#FFA54F","stroke-width":4},"geometry":{"type":"LineString","coordinates":[[-0.2810287,51.58482],[-0.2800845,51.58482],[-0.279355,51.5849],[-0.2788239,51.58499],[-0.2783679,51.58513],[-0.2777778,51.58538],[-0.2771609,51.58565],[-0.2765655,51.58581],[-0.2759968,51.58592],[-0.275337,51.586],[-0.2746987,51.58601],[-0.274189,51.58599],[-0.2740013,51.58596]]}},{"type":"Feature","properties":{"Title":"Barnhill Road","Direction":"TwoWay","Flow":null,"Protection":null,"Ownership":null,"YearBuilt":null,"Borough":"Brent","LengthInMetres":7,"stroke":"#FFA54F","stroke-width":4},"geometry":{"type":"LineString","coordinates":[[-0.263214,51.564],[-0.26316,51.56405]]}},{"type":"Feature","properties":{"Title":"Chatsworth Road","Direction":"TwoWay","Flow":null,"Protection":null,"Ownership":null,"YearBuilt":null,"Borough":"Brent","LengthInMetres":20,"stroke":"#FFA54F","stroke-width":4},"geometry":{"type":"LineString","coordinates":[[-0.220783,51.54834],[-0.220506,51.54828]]}},{"type":"Feature","properties":{"Title":"Carlton Vale","Direction":"TwoWay","Flow":null,"Protection":null,"Ownership":null,"YearBuilt":null,"Borough":"Brent","LengthInMetres":410,"stroke":"#FFA54F","stroke-width":4},"geometry":{"type":"LineString","coordinates":[[-0.1929663,51.53211],[-0.1932157,51.53213],[-0.193728,51.53216],[-0.1939399,51.53217],[-0.1941733,51.53218],[-0.1947446,51.53221],[-0.1953427,51.53225],[-0.1959784,51.53229],[-0.196995,51.53235],[-0.1975851,51.53238],[-0.1988457,51.53246]]}},{"type":"Feature","properties":{"Title":"Carlton Vale","Direction":"TwoWay","Flow":null,"Protection":null,"Ownership":null,"YearBuilt":null,"Borough":"Brent","LengthInMetres":97,"stroke":"#FFA54F","stroke-width":4},"geometry":{"type":"LineString","coordinates":[[-0.199417,51.5325],[-0.1998288,51.53251],[-0.199979,51.53252],[-0.2008158,51.53257]]}},{"type":"Feature","properties":{"Title":"Carlton Vale","Direction":"TwoWay","Flow":null,"Protection":null,"Ownership":null,"YearBuilt":null,"Borough":"Brent","LengthInMetres":23,"stroke":"#FFA54F","stroke-width":4},"geometry":{"type":"LineString","coordinates":[[-0.2013227,51.53259],[-0.2016151,51.5326],[-0.2016599,51.5326]]}},{"type":"Feature","properties":{"Title":"Carlton Vale","Direction":"OneWay","Flow":null,"Protection":null,"Ownership":null,"YearBuilt":null,"Borough":"Brent","LengthInMetres":54,"stroke":"#FFA54F","stroke-width":2},"geometry":{"type":"LineString","coordinates":[[-0.2034107,51.5331],[-0.20361,51.53323],[-0.2036905,51.53328],[-0.2038461,51.5334],[-0.2039319,51.53346]]}},{"type":"Feature","properties":{"Title":"North Circular Road","Direction":"TwoWay","Flow":null,"Protection":null,"Ownership":null,"YearBuilt":null,"Borough":"Brent","LengthInMetres":278,"stroke":"#FFA54F","stroke-width":4},"geometry":{"type":"LineString","coordinates":[[-0.2767654,51.54167],[-0.2766444,51.54181],[-0.2766256,51.54183],[-0.2764365,51.54205],[-0.2762836,51.54223],[-0.2762367,51.54229],[-0.2761871,51.54234],[-0.2760449,51.54246],[-0.2759175,51.54257],[-0.2756868,51.54276],[-0.2754468,51.54296],[-0.2752845,51.5431],[-0.2752201,51.54317],[-0.2751812,51.54321],[-0.2750431,51.54337],[-0.2748205,51.54357],[-0.2747347,51.54365],[-0.2747052,51.54369],[-0.2747038,51.54371],[-0.2747159,51.54373],[-0.27474,51.54375],[-0.2747829,51.54376]]}},{"type":"Feature","properties":{"Title":"Coronation RoadÂ ","Direction":"TwoWay","Flow":null,"Protection":null,"Ownership":null,"YearBuilt":null,"Borough":"Brent","LengthInMetres":56,"stroke":"#FFA54F","stroke-width":4},"geometry":{"type":"LineString","coordinates":[[-0.281916,51.52893],[-0.2817945,51.5289],[-0.2816604,51.52889],[-0.2815102,51.5289],[-0.2813707,51.52893],[-0.2812795,51.52897],[-0.2812151,51.52901],[-0.2811883,51.52903]]}},{"type":"Feature","properties":{"Title":"Rainsford Road","Direction":"TwoWay","Flow":null,"Protection":null,"Ownership":null,"YearBuilt":null,"Borough":"Brent","LengthInMetres":308,"stroke":"#FFA54F","stroke-width":4},"geometry":{"type":"LineString","coordinates":[[-0.2809335,51.52904],[-0.2807699,51.52899],[-0.2805607,51.52896],[-0.2803005,51.52891],[-0.2801396,51.52888],[-0.279933,51.52887],[-0.2797802,51.52888],[-0.2796246,51.52889],[-0.2793564,51.52896],[-0.2792303,51.52901],[-0.2790908,51.52908],[-0.2789514,51.52918],[-0.2788628,51.52928],[-0.278769,51.52945],[-0.2787421,51.52955],[-0.2787314,51.52974],[-0.2787368,51.52998],[-0.2787502,51.53019],[-0.2787904,51.53025],[-0.278836,51.53031],[-0.2789058,51.53037],[-0.2789889,51.53041],[-0.2790345,51.53046],[-0.2790586,51.5305]]}},{"type":"Feature","properties":{"Title":"Chamberlayne Road","Direction":"OneWay","Flow":null,"Protection":null,"Ownership":null,"YearBuilt":null,"Borough":"Brent","LengthInMetres":138,"stroke":"#FFA54F","stroke-width":2},"geometry":{"type":"LineString","coordinates":[[-0.2185718,51.5335],[-0.2188266,51.53383],[-0.2189567,51.53403],[-0.2190901,51.53423],[-0.2192665,51.53448],[-0.2193416,51.53458],[-0.2193979,51.53463]]}},{"type":"Feature","properties":{"Title":"Bathurst Gardens","Direction":"OneWay","Flow":null,"Protection":null,"Ownership":null,"YearBuilt":null,"Borough":"Brent","LengthInMetres":11,"stroke":"#FFA54F","stroke-width":2},"geometry":{"type":"LineString","coordinates":[[-0.2257818,51.53375],[-0.2259414,51.53374]]}},{"type":"Feature","properties":{"Title":"Bathurst Gardens","Direction":"OneWay","Flow":null,"Protection":null,"Ownership":null,"YearBuilt":null,"Borough":"Brent","LengthInMetres":7,"stroke":"#FFA54F","stroke-width":2},"geometry":{"type":"LineString","coordinates":[[-0.2335974,51.53341],[-0.233694,51.53342]]}},{"type":"Feature","properties":{"Title":"Glendale Gardens","Direction":"TwoWay","Flow":null,"Protection":null,"Ownership":null,"YearBuilt":null,"Borough":"Brent","LengthInMetres":12,"stroke":"#FFA54F","stroke-width":4},"geometry":{"type":"LineString","coordinates":[[-0.296442,51.57086],[-0.29627,51.57086]]}},{"type":"Feature","properties":{"Title":"Thirlmere Gardens","Direction":"TwoWay","Flow":null,"Protection":null,"Ownership":null,"YearBuilt":null,"Borough":"Brent","LengthInMetres":24,"stroke":"#FFA54F","stroke-width":4},"geometry":{"type":"LineString","coordinates":[[-0.308066,51.57175],[-0.307748,51.57183]]}}]}