{"type":"FeatureCollection","features":[{"type":"Feature","properties":{"Title":"Westwood Hill","Direction":"TwoWay","Flow":null,"Protection":null,"Ownership":null,"YearBuilt":null,"Borough":"Bromley","LengthInMetres":10,"stroke":"#9C27B0","stroke-width":4},"geometry":{"type":"LineString","coordinates":[[-0.0747471,51.42588],[-0.0746669,51.42581]]}},{"type":"Feature","properties":{"Title":"Westwood Hill","Direction":"TwoWay","Flow":null,"Protection":null,"Ownership":null,"YearBuilt":null,"Borough":"Bromley","LengthInMetres":12,"stroke":"#9C27B0","stroke-width":4},"geometry":{"type":"LineString","coordinates":[[-0.0746669,51.42581],[-0.0747916,51.42574]]}},{"type":"Feature","properties":{"Title":"Westwood Hill","Direction":"TwoWay","Flow":null,"Protection":null,"Ownership":null,"YearBuilt":null,"Borough":"Bromley","LengthInMetres":16,"stroke":"#9C27B0","stroke-width":4},"geometry":{"type":"LineString","coordinates":[[-0.0746669,51.42581],[-0.0744818,51.4259]]}},{"type":"Feature","properties":{"Title":"Westwood Hill","Direction":"TwoWay","Flow":null,"Protection":null,"Ownership":null,"YearBuilt":null,"Borough":"Bromley","LengthInMetres":21,"stroke":"#9C27B0","stroke-width":4},"geometry":{"type":"LineString","coordinates":[[-0.0744818,51.4259],[-0.0742163,51.42599]]}},{"type":"Feature","properties":{"Title":"Westwood Hill","Direction":"TwoWay","Flow":null,"Protection":null,"Ownership":null,"YearBuilt":null,"Borough":"Bromley","LengthInMetres":25,"stroke":"#9C27B0","stroke-width":4},"geometry":{"type":"LineString","coordinates":[[-0.0742163,51.42599],[-0.0739159,51.42611]]}},{"type":"Feature","properties":{"Title":"Westwood Hill","Direction":"TwoWay","Flow":null,"Protection":null,"Ownership":null,"YearBuilt":null,"Borough":"Bromley","LengthInMetres":16,"stroke":"#9C27B0","stroke-width":4},"geometry":{"type":"LineString","coordinates":[[-0.0739159,51.42611],[-0.0736906,51.42614]]}},{"type":"Feature","properties":{"Title":"Elmstead Lane","Direction":"OneWay","Flow":null,"Protection":null,"Ownership":null,"YearBuilt":null,"Borough":"Bromley","LengthInMetres":135,"stroke":"#9C27B0","stroke-width":2},"geometry":{"type":"LineString","coordinates":[[0.0529765,51.42606],[0.0528263,51.42593],[0.0525366,51.42572],[0.0521933,51.42542],[0.0519465,51.42519],[0.0518607,51.42507]]}},{"type":"Feature","properties":{"Title":"Cray Avenue","Direction":"TwoWay","Flow":null,"Protection":null,"Ownership":null,"YearBuilt":null,"Borough":"Bromley","LengthInMetres":238,"stroke":"#9C27B0","stroke-width":4},"geometry":{"type":"LineString","coordinates":[[0.1079832,51.38563],[0.1091419,51.38764]]}},{"type":"Feature","properties":{"Title":"Bromley Common/Crown Lane Spur Safe Junction","Direction":"TwoWay","Flow":null,"Protection":null,"Ownership":null,"YearBuilt":null,"Borough":"Bromley","LengthInMetres":26,"stroke":"#9C27B0","stroke-width":4},"geometry":{"type":"LineString","coordinates":[[0.0358187,51.38845],[0.0357677,51.3885],[0.0357221,51.38858],[0.0356738,51.38866]]}},{"type":"Feature","properties":{"Title":"Bromley Common/Crown Lane Spur Safe Junction","Direction":"TwoWay","Flow":null,"Protection":null,"Ownership":null,"YearBuilt":null,"Borough":"Bromley","LengthInMetres":11,"stroke":"#9C27B0","stroke-width":4},"geometry":{"type":"LineString","coordinates":[[0.0356738,51.38866],[0.0356148,51.38875]]}},{"type":"Feature","properties":{"Title":"Bromley Common/Crown Lane Spur Safe Junction","Direction":"TwoWay","Flow":null,"Protection":null,"Ownership":null,"YearBuilt":null,"Borough":"Bromley","LengthInMetres":39,"stroke":"#9C27B0","stroke-width":4},"geometry":{"type":"LineString","coordinates":[[0.0356738,51.38866],[0.035698,51.38862],[0.0357463,51.38867],[0.0357999,51.38872],[0.0358723,51.38875],[0.0360708,51.38879]]}},{"type":"Feature","properties":{"Title":"Bromley Common/Crown Lane Spur Safe Junction","Direction":"TwoWay","Flow":null,"Protection":null,"Ownership":null,"YearBuilt":null,"Borough":"Bromley","LengthInMetres":12,"stroke":"#9C27B0","stroke-width":4},"geometry":{"type":"LineString","coordinates":[[0.0360708,51.38879],[0.0358991,51.3888]]}},{"type":"Feature","properties":{"Title":"Bromley Common/Crown Lane Spur Safe Junction","Direction":"TwoWay","Flow":null,"Protection":null,"Ownership":null,"YearBuilt":null,"Borough":"Bromley","LengthInMetres":10,"stroke":"#9C27B0","stroke-width":4},"geometry":{"type":"LineString","coordinates":[[0.0360708,51.38879],[0.0361969,51.38875]]}},{"type":"Feature","properties":{"Title":"Bromley Common/Crown Lane Spur Safe Junction","Direction":"TwoWay","Flow":null,"Protection":null,"Ownership":null,"YearBuilt":null,"Borough":"Bromley","LengthInMetres":29,"stroke":"#9C27B0","stroke-width":4},"geometry":{"type":"LineString","coordinates":[[0.0360708,51.38879],[0.0361137,51.38874],[0.0361513,51.38866],[0.0361647,51.3886],[0.036154,51.38854]]}},{"type":"Feature","properties":{"Title":"Bromley Common/Crown Lane Spur Safe Junction","Direction":"TwoWay","Flow":null,"Protection":null,"Ownership":null,"YearBuilt":null,"Borough":"Bromley","LengthInMetres":5,"stroke":"#9C27B0","stroke-width":4},"geometry":{"type":"LineString","coordinates":[[0.036154,51.38854],[0.0361325,51.3885],[0.0361346,51.3885]]}},{"type":"Feature","properties":{"Title":"Bromley Common/Crown Lane Spur Safe Junction","Direction":"TwoWay","Flow":null,"Protection":null,"Ownership":null,"YearBuilt":null,"Borough":"Bromley","LengthInMetres":39,"stroke":"#9C27B0","stroke-width":4},"geometry":{"type":"LineString","coordinates":[[0.0361346,51.3885],[0.0363337,51.38862],[0.0361335,51.3885]]}},{"type":"Feature","properties":{"Title":"Bromley Common/Crown Lane Spur Safe Junction","Direction":"TwoWay","Flow":null,"Protection":null,"Ownership":null,"YearBuilt":null,"Borough":"Bromley","LengthInMetres":20,"stroke":"#9C27B0","stroke-width":4},"geometry":{"type":"LineString","coordinates":[[0.0361335,51.3885],[0.0361325,51.3885],[0.0360762,51.38842],[0.0361325,51.3885],[0.0361335,51.3885]]}},{"type":"Feature","properties":{"Title":"Bromley Common/Crown Lane Spur Safe Junction","Direction":"TwoWay","Flow":null,"Protection":null,"Ownership":null,"YearBuilt":null,"Borough":"Bromley","LengthInMetres":0,"stroke":"#9C27B0","stroke-width":4},"geometry":{"type":"LineString","coordinates":[[0.0361335,51.3885],[0.0361346,51.3885]]}},{"type":"Feature","properties":{"Title":"Bromley Common/Crown Lane Spur Safe Junction","Direction":"TwoWay","Flow":null,"Protection":null,"Ownership":null,"YearBuilt":null,"Borough":"Bromley","LengthInMetres":5,"stroke":"#9C27B0","stroke-width":4},"geometry":{"type":"LineString","coordinates":[[0.0361346,51.3885],[0.036154,51.38854]]}},{"type":"Feature","properties":{"Title":"Bromley Common/Crown Lane Spur Safe Junction","Direction":"TwoWay","Flow":null,"Protection":null,"Ownership":null,"YearBuilt":null,"Borough":"Bromley","LengthInMetres":40,"stroke":"#9C27B0","stroke-width":4},"geometry":{"type":"LineString","coordinates":[[0.036154,51.38854],[0.0360896,51.38852],[0.0359769,51.38851],[0.0358777,51.38851],[0.0357972,51.38854],[0.0357543,51.3886],[0.0357275,51.38865]]}},{"type":"Feature","properties":{"Title":"Cray Avenue/Lower Road Junction","Direction":"OneWay","Flow":null,"Protection":null,"Ownership":null,"YearBuilt":null,"Borough":"Bromley","LengthInMetres":47,"stroke":"#9C27B0","stroke-width":2},"geometry":{"type":"LineString","coordinates":[[0.1081088,51.38274],[0.1080766,51.38266],[0.1080002,51.38254],[0.107968,51.38247],[0.1080082,51.38236],[0.1079774,51.38234]]}},{"type":"Feature","properties":{"Title":"Cray Avenue/Lower Road Junction","Direction":"OneWay","Flow":null,"Protection":null,"Ownership":null,"YearBuilt":null,"Borough":"Bromley","LengthInMetres":67,"stroke":"#9C27B0","stroke-width":2},"geometry":{"type":"LineString","coordinates":[[0.1074839,51.38225],[0.1075777,51.38238],[0.1076032,51.38248],[0.1075697,51.38261],[0.1079197,51.38267]]}},{"type":"Feature","properties":{"Title":"Sevenoaks Way","Direction":"TwoWay","Flow":null,"Protection":null,"Ownership":null,"YearBuilt":null,"Borough":"Bromley","LengthInMetres":412,"stroke":"#9C27B0","stroke-width":4},"geometry":{"type":"LineString","coordinates":[[0.1131057,51.4061],[0.1129447,51.40634],[0.1127731,51.40713],[0.1126658,51.40785],[0.1126014,51.40846],[0.1126121,51.40977]]}},{"type":"Feature","properties":{"Title":"Sevenoaks Way","Direction":"TwoWay","Flow":null,"Protection":null,"Ownership":null,"YearBuilt":null,"Borough":"Bromley","LengthInMetres":400,"stroke":"#9C27B0","stroke-width":4},"geometry":{"type":"LineString","coordinates":[[0.1126566,51.40965],[0.1126274,51.40947],[0.112606,51.40933],[0.1125899,51.40918],[0.1125952,51.40904],[0.1126113,51.40867],[0.1126274,51.40835],[0.1126542,51.40808],[0.1126757,51.4078],[0.1127615,51.40721],[0.1128205,51.4069],[0.1128474,51.40672],[0.1129654,51.40631],[0.1130029,51.40618],[0.1130566,51.40613],[0.1131057,51.4061]]}},{"type":"Feature","properties":{"Title":"Crofton Road Cycleway","Direction":"TwoWay","Flow":null,"Protection":null,"Ownership":null,"YearBuilt":null,"Borough":"Bromley","LengthInMetres":326,"stroke":"#9C27B0","stroke-width":4},"geometry":{"type":"LineString","coordinates":[[0.0882667,51.3728],[0.0880253,51.37279],[0.0876766,51.3728],[0.0868291,51.37278],[0.0865233,51.37276],[0.0862336,51.37272],[0.0855416,51.37262],[0.0854263,51.3726],[0.0853217,51.3726],[0.0845921,51.37268],[0.0836265,51.37269]]}},{"type":"Feature","properties":{"Title":"Lennard Road","Direction":"TwoWay","Flow":null,"Protection":null,"Ownership":null,"YearBuilt":null,"Borough":"Bromley","LengthInMetres":71,"stroke":"#9C27B0","stroke-width":4},"geometry":{"type":"LineString","coordinates":[[-0.0393778,51.41642],[-0.039874,51.41647],[-0.0403863,51.41654]]}},{"type":"Feature","properties":{"Title":"Lennard Road","Direction":"OneWay","Flow":null,"Protection":null,"Ownership":null,"YearBuilt":null,"Borough":"Bromley","LengthInMetres":9,"stroke":"#9C27B0","stroke-width":2},"geometry":{"type":"LineString","coordinates":[[-0.0392591,51.4164],[-0.0393778,51.41642]]}},{"type":"Feature","properties":{"Title":"Lennard Road","Direction":"TwoWay","Flow":null,"Protection":null,"Ownership":null,"YearBuilt":null,"Borough":"Bromley","LengthInMetres":9,"stroke":"#9C27B0","stroke-width":4},"geometry":{"type":"LineString","coordinates":[[-0.0405948,51.41657],[-0.0407236,51.41659]]}},{"type":"Feature","properties":{"Title":"Lennard Road","Direction":"OneWay","Flow":null,"Protection":null,"Ownership":null,"YearBuilt":null,"Borough":"Bromley","LengthInMetres":5,"stroke":"#9C27B0","stroke-width":2},"geometry":{"type":"LineString","coordinates":[[-0.0407236,51.41659],[-0.0407906,51.4166]]}},{"type":"Feature","properties":{"Title":"Crofton Road Cycleway","Direction":"OneWay","Flow":null,"Protection":null,"Ownership":null,"YearBuilt":null,"Borough":"Bromley","LengthInMetres":89,"stroke":"#9C27B0","stroke-width":2},"geometry":{"type":"LineString","coordinates":[[0.0836265,51.37269],[0.0833666,51.3727],[0.082358,51.37279]]}},{"type":"Feature","properties":{"Title":"Crofton Road Cycleway","Direction":"OneWay","Flow":null,"Protection":null,"Ownership":null,"YearBuilt":null,"Borough":"Bromley","LengthInMetres":52,"stroke":"#9C27B0","stroke-width":2},"geometry":{"type":"LineString","coordinates":[[0.0783975,51.37321],[0.0788068,51.37313],[0.0791287,51.37312]]}},{"type":"Feature","properties":{"Title":"Crofton Road Cycleway","Direction":"OneWay","Flow":null,"Protection":null,"Ownership":null,"YearBuilt":null,"Borough":"Bromley","LengthInMetres":48,"stroke":"#9C27B0","stroke-width":2},"geometry":{"type":"LineString","coordinates":[[0.0802069,51.37299],[0.080561,51.37299],[0.0808775,51.37291]]}},{"type":"Feature","properties":{"Title":"Albemarle Road - LB Bromley","Direction":"OneWay","Flow":null,"Protection":null,"Ownership":null,"YearBuilt":null,"Borough":"Bromley","LengthInMetres":381,"stroke":"#9C27B0","stroke-width":2},"geometry":{"type":"LineString","coordinates":[[-0.0222403,51.41011],[-0.021217,51.41001],[-0.0203198,51.4099],[-0.018862,51.40975],[-0.0178327,51.40962],[-0.0168437,51.40952]]}},{"type":"Feature","properties":{"Title":"Crystal Palace Park Road - LB Bromley","Direction":"OneWay","Flow":null,"Protection":null,"Ownership":null,"YearBuilt":null,"Borough":"Bromley","LengthInMetres":491,"stroke":"#9C27B0","stroke-width":2},"geometry":{"type":"LineString","coordinates":[[-0.0613986,51.41874],[-0.0615005,51.41968],[-0.0615649,51.42044],[-0.06164,51.42077],[-0.0617741,51.42111],[-0.0619833,51.42152],[-0.0623159,51.42197],[-0.0625627,51.42228],[-0.0629167,51.42266],[-0.0632172,51.42291]]}},{"type":"Feature","properties":{"Title":"Bromley Road - LB Bromley","Direction":"TwoWay","Flow":null,"Protection":null,"Ownership":null,"YearBuilt":null,"Borough":"Bromley","LengthInMetres":281,"stroke":"#9C27B0","stroke-width":4},"geometry":{"type":"LineString","coordinates":[[0.0000995,51.40648],[-0.0009251,51.40665],[-0.0013435,51.40674],[-0.0016439,51.40678],[-0.0019712,51.40686],[-0.0021858,51.40694],[-0.0024111,51.40704],[-0.0027383,51.40728],[-0.0030602,51.40743],[-0.0033176,51.40751],[-0.0034786,51.4075]]}}]}