{"type":"FeatureCollection","features":[{"type":"Feature","properties":{"Title":"C6 - North-South Cycle Superhighway","Direction":"OneWay","Flow":null,"Protection":null,"Ownership":null,"YearBuilt":null,"Borough":"Camden","LengthInMetres":35,"stroke":"#F44336","stroke-width":2},"geometry":{"type":"LineString","coordinates":[[-0.1057023,51.51975],[-0.1060848,51.51964],[-0.1061652,51.51963]]}},{"type":"Feature","properties":{"Title":"C6 - North-South Cycle Superhighway","Direction":"TwoWay","Flow":null,"Protection":null,"Ownership":null,"YearBuilt":null,"Borough":"Camden","LengthInMetres":51,"stroke":"#F44336","stroke-width":4},"geometry":{"type":"LineString","coordinates":[[-0.1162894,51.52777],[-0.1164208,51.52774],[-0.1165362,51.52771],[-0.1166274,51.52767],[-0.1166917,51.52766],[-0.1167937,51.52766],[-0.1168956,51.52763],[-0.1169439,51.52759]]}},{"type":"Feature","properties":{"Title":"C6 - North-South Cycle Superhighway","Direction":"TwoWay","Flow":null,"Protection":null,"Ownership":null,"YearBuilt":null,"Borough":"Camden","LengthInMetres":20,"stroke":"#F44336","stroke-width":4},"geometry":{"type":"LineString","coordinates":[[-0.1142482,51.52551],[-0.1142717,51.52552],[-0.1143307,51.5256],[-0.114381,51.52567]]}},{"type":"Feature","properties":{"Title":"C6 - North-South Cycle Superhighway","Direction":"TwoWay","Flow":null,"Protection":null,"Ownership":null,"YearBuilt":null,"Borough":"Camden","LengthInMetres":15,"stroke":"#F44336","stroke-width":4},"geometry":{"type":"LineString","coordinates":[[-0.114381,51.52567],[-0.1141792,51.52572]]}},{"type":"Feature","properties":{"Title":"C6 - North-South Cycle Superhighway","Direction":"TwoWay","Flow":null,"Protection":null,"Ownership":null,"YearBuilt":null,"Borough":"Camden","LengthInMetres":10,"stroke":"#F44336","stroke-width":4},"geometry":{"type":"LineString","coordinates":[[-0.1141792,51.52572],[-0.1140478,51.52575]]}},{"type":"Feature","properties":{"Title":"C6 - North-South Cycle Superhighway","Direction":"TwoWay","Flow":null,"Protection":null,"Ownership":null,"YearBuilt":null,"Borough":"Camden","LengthInMetres":2,"stroke":"#F44336","stroke-width":4},"geometry":{"type":"LineString","coordinates":[[-0.1140478,51.52575],[-0.1140187,51.52576]]}},{"type":"Feature","properties":{"Title":"C6 - North-South Cycle Superhighway","Direction":"TwoWay","Flow":null,"Protection":null,"Ownership":null,"YearBuilt":null,"Borough":"Camden","LengthInMetres":6,"stroke":"#F44336","stroke-width":4},"geometry":{"type":"LineString","coordinates":[[-0.1140187,51.52576],[-0.1139366,51.52576]]}},{"type":"Feature","properties":{"Title":"C6 - North-South Cycle Superhighway","Direction":"TwoWay","Flow":null,"Protection":null,"Ownership":null,"YearBuilt":null,"Borough":"Camden","LengthInMetres":6,"stroke":"#F44336","stroke-width":4},"geometry":{"type":"LineString","coordinates":[[-0.114381,51.52567],[-0.1144186,51.52572]]}},{"type":"Feature","properties":{"Title":"C6 - North-South Cycle Superhighway","Direction":"OneWay","Flow":null,"Protection":null,"Ownership":null,"YearBuilt":null,"Borough":"Camden","LengthInMetres":26,"stroke":"#F44336","stroke-width":2},"geometry":{"type":"LineString","coordinates":[[-0.1188414,51.52713],[-0.1184816,51.52719]]}},{"type":"Feature","properties":{"Title":"C6 - North-South Cycle Superhighway","Direction":"TwoWay","Flow":null,"Protection":null,"Ownership":null,"YearBuilt":null,"Borough":"Camden","LengthInMetres":22,"stroke":"#F44336","stroke-width":4},"geometry":{"type":"LineString","coordinates":[[-0.1181865,51.52726],[-0.1183743,51.52721],[-0.1184816,51.52719]]}},{"type":"Feature","properties":{"Title":"C6 - North-South Cycle Superhighway","Direction":"TwoWay","Flow":null,"Protection":null,"Ownership":null,"YearBuilt":null,"Borough":"Camden","LengthInMetres":534,"stroke":"#F44336","stroke-width":4},"geometry":{"type":"LineString","coordinates":[[-0.1259898,51.52896],[-0.1260838,51.52907],[-0.1261281,51.52911],[-0.1262059,51.52915],[-0.1262582,51.52919],[-0.1263561,51.52928],[-0.1264204,51.52937],[-0.1264473,51.52945],[-0.1265706,51.52994],[-0.1266565,51.53026],[-0.1267879,51.53059],[-0.1268174,51.53064],[-0.1268496,51.53068],[-0.127091,51.53112],[-0.1273699,51.53163],[-0.1276221,51.53208],[-0.1278018,51.53241],[-0.1278501,51.5325],[-0.1279198,51.5326],[-0.128019,51.53271],[-0.1282122,51.53295],[-0.1283355,51.5331],[-0.1283999,51.5332],[-0.128534,51.53334],[-0.1286199,51.53342]]}},{"type":"Feature","properties":{"Title":"C6 - North-South Cycle Superhighway","Direction":"OneWay","Flow":null,"Protection":null,"Ownership":null,"YearBuilt":null,"Borough":"Camden","LengthInMetres":41,"stroke":"#F44336","stroke-width":2},"geometry":{"type":"LineString","coordinates":[[-0.1292555,51.53393],[-0.1295027,51.53414],[-0.1296341,51.53421]]}},{"type":"Feature","properties":{"Title":"C6 - North-South Cycle Superhighway","Direction":"TwoWay","Flow":null,"Protection":null,"Ownership":null,"YearBuilt":null,"Borough":"Camden","LengthInMetres":211,"stroke":"#F44336","stroke-width":4},"geometry":{"type":"LineString","coordinates":[[-0.1298675,51.53434],[-0.1300043,51.53441],[-0.1306265,51.53468],[-0.1310476,51.53485],[-0.1317236,51.53513],[-0.1321742,51.53532],[-0.1323244,51.53538],[-0.1323834,51.53541]]}},{"type":"Feature","properties":{"Title":"C6 - North-South Cycle Superhighway","Direction":"TwoWay","Flow":null,"Protection":null,"Ownership":null,"YearBuilt":null,"Borough":"Camden","LengthInMetres":16,"stroke":"#F44336","stroke-width":4},"geometry":{"type":"LineString","coordinates":[[-0.1316197,51.53509],[-0.1316948,51.53502],[-0.1317189,51.53499],[-0.1317364,51.53497]]}},{"type":"Feature","properties":{"Title":"C6 - North-South Cycle Superhighway","Direction":"OneWay","Flow":null,"Protection":null,"Ownership":null,"YearBuilt":null,"Borough":"Camden","LengthInMetres":25,"stroke":"#F44336","stroke-width":2},"geometry":{"type":"LineString","coordinates":[[-0.132716,51.53551],[-0.1328796,51.53553],[-0.1330727,51.53553]]}},{"type":"Feature","properties":{"Title":"C6 - North-South Cycle Superhighway","Direction":"TwoWay","Flow":null,"Protection":null,"Ownership":null,"YearBuilt":null,"Borough":"Camden","LengthInMetres":1038,"stroke":"#F44336","stroke-width":4},"geometry":{"type":"LineString","coordinates":[[-0.1330727,51.53553],[-0.1331317,51.53554],[-0.1331961,51.53558],[-0.1333221,51.5357],[-0.1335475,51.53597],[-0.1338666,51.53635],[-0.1343789,51.537],[-0.1345586,51.53721],[-0.1351112,51.53786],[-0.1352936,51.5381],[-0.1355001,51.53835],[-0.1355806,51.53845],[-0.135602,51.53849],[-0.1358568,51.53881],[-0.1359185,51.53887],[-0.1361197,51.5391],[-0.1361251,51.53913],[-0.1361358,51.53916],[-0.1363772,51.53946],[-0.1366803,51.53983],[-0.1367151,51.53987],[-0.1367607,51.53991],[-0.1370397,51.54025],[-0.1372301,51.54049],[-0.1373374,51.54062],[-0.1375547,51.54088],[-0.1378739,51.54126],[-0.1379087,51.54131],[-0.1379972,51.5414],[-0.1381126,51.54152],[-0.138236,51.54165],[-0.1383835,51.5418],[-0.1385256,51.54196],[-0.1387617,51.54224],[-0.1390513,51.54258],[-0.1391855,51.54274],[-0.1392498,51.54281],[-0.1394912,51.54308],[-0.1397273,51.54334],[-0.1398077,51.54341],[-0.1401216,51.54373]]}},{"type":"Feature","properties":{"Title":"C6 - North-South Cycle Superhighway","Direction":"OneWay","Flow":null,"Protection":null,"Ownership":null,"YearBuilt":null,"Borough":"Camden","LengthInMetres":28,"stroke":"#F44336","stroke-width":2},"geometry":{"type":"LineString","coordinates":[[-0.1401216,51.54373],[-0.1402194,51.54382],[-0.1402811,51.54387],[-0.1403186,51.5439],[-0.1403535,51.54394]]}},{"type":"Feature","properties":{"Title":"C6 - North-South Cycle Superhighway","Direction":"OneWay","Flow":null,"Protection":null,"Ownership":null,"YearBuilt":null,"Borough":"Camden","LengthInMetres":10,"stroke":"#F44336","stroke-width":2},"geometry":{"type":"LineString","coordinates":[[-0.1404635,51.54404],[-0.1405399,51.5441],[-0.1405594,51.54411]]}},{"type":"Feature","properties":{"Title":"C6 - North-South Cycle Superhighway","Direction":"TwoWay","Flow":null,"Protection":null,"Ownership":null,"YearBuilt":null,"Borough":"Camden","LengthInMetres":123,"stroke":"#F44336","stroke-width":4},"geometry":{"type":"LineString","coordinates":[[-0.1405594,51.54411],[-0.1405969,51.54414],[-0.1406767,51.54421],[-0.1408001,51.54435],[-0.1409865,51.54459],[-0.1411381,51.54479],[-0.141177,51.54485],[-0.1412212,51.54494],[-0.1412547,51.54499],[-0.141295,51.54502],[-0.14135,51.54505],[-0.1414009,51.54506]]}},{"type":"Feature","properties":{"Title":"C6 - Trial extension","Direction":"TwoWay","Flow":null,"Protection":null,"Ownership":null,"YearBuilt":null,"Borough":"Camden","LengthInMetres":2,"stroke":"#F44336","stroke-width":4},"geometry":{"type":"LineString","coordinates":[[-0.149654,51.55084],[-0.14963,51.55084]]}},{"type":"Feature","properties":{"Title":"Q1 - (will become C10)","Direction":"TwoWay","Flow":null,"Protection":null,"Ownership":null,"YearBuilt":null,"Borough":"Camden","LengthInMetres":324,"stroke":"#F44336","stroke-width":4},"geometry":{"type":"LineString","coordinates":[[-0.1247235,51.51879],[-0.1237633,51.5179],[-0.1231678,51.51729],[-0.1218159,51.51743],[-0.1217086,51.51717]]}},{"type":"Feature","properties":{"Title":"C27","Direction":"OneWay","Flow":null,"Protection":null,"Ownership":null,"YearBuilt":null,"Borough":"Camden","LengthInMetres":357,"stroke":"#F44336","stroke-width":2},"geometry":{"type":"LineString","coordinates":[[-0.1351903,51.52147],[-0.1358367,51.52215],[-0.135901,51.52217],[-0.1360082,51.52216],[-0.1361315,51.52212],[-0.1376577,51.52144],[-0.139039,51.52084]]}},{"type":"Feature","properties":{"Title":"C27","Direction":"TwoWay","Flow":null,"Protection":null,"Ownership":null,"YearBuilt":null,"Borough":"Camden","LengthInMetres":39,"stroke":"#F44336","stroke-width":4},"geometry":{"type":"LineString","coordinates":[[-0.1346941,51.52163],[-0.1351762,51.52145]]}},{"type":"Feature","properties":{"Title":"C27","Direction":"OneWay","Flow":null,"Protection":null,"Ownership":null,"YearBuilt":null,"Borough":"Camden","LengthInMetres":62,"stroke":"#F44336","stroke-width":2},"geometry":{"type":"LineString","coordinates":[[-0.1339294,51.52192],[-0.1346941,51.52163]]}},{"type":"Feature","properties":{"Title":"C27","Direction":"OneWay","Flow":null,"Protection":null,"Ownership":null,"YearBuilt":null,"Borough":"Camden","LengthInMetres":387,"stroke":"#F44336","stroke-width":2},"geometry":{"type":"LineString","coordinates":[[-0.1398786,51.52162],[-0.1383591,51.52228],[-0.1367215,51.52299],[-0.135249,51.52355]]}},{"type":"Feature","properties":{"Title":"C27","Direction":"TwoWay","Flow":null,"Protection":null,"Ownership":null,"YearBuilt":null,"Borough":"Camden","LengthInMetres":860,"stroke":"#F44336","stroke-width":4},"geometry":{"type":"LineString","coordinates":[[-0.1237259,51.52612],[-0.1255689,51.5257],[-0.130952,51.52337],[-0.1309863,51.52333],[-0.1310124,51.52327],[-0.1310326,51.52318],[-0.1310527,51.52314],[-0.1310943,51.52308],[-0.1311666,51.52304],[-0.1326312,51.52245],[-0.1339294,51.52192]]}},{"type":"Feature","properties":{"Title":"C50","Direction":"TwoWay","Flow":null,"Protection":null,"Ownership":null,"YearBuilt":null,"Borough":"Camden","LengthInMetres":109,"stroke":"#F44336","stroke-width":4},"geometry":{"type":"LineString","coordinates":[[-0.1377975,51.54133],[-0.1373107,51.54149],[-0.13708,51.54157],[-0.1368379,51.54165],[-0.1364135,51.5418]]}},{"type":"Feature","properties":{"Title":"C50","Direction":"TwoWay","Flow":null,"Protection":null,"Ownership":null,"YearBuilt":null,"Borough":"Camden","LengthInMetres":35,"stroke":"#F44336","stroke-width":4},"geometry":{"type":"LineString","coordinates":[[-0.1363464,51.54183],[-0.1360098,51.54196],[-0.1359146,51.54199]]}},{"type":"Feature","properties":{"Title":"C50","Direction":"OneWay","Flow":null,"Protection":null,"Ownership":null,"YearBuilt":null,"Borough":"Camden","LengthInMetres":58,"stroke":"#F44336","stroke-width":2},"geometry":{"type":"LineString","coordinates":[[-0.1357979,51.54202],[-0.1357376,51.54203],[-0.1356021,51.54207],[-0.1352869,51.54217],[-0.1351019,51.54224],[-0.1350536,51.54225]]}},{"type":"Feature","properties":{"Title":"C50","Direction":"TwoWay","Flow":null,"Protection":null,"Ownership":null,"YearBuilt":null,"Borough":"Camden","LengthInMetres":35,"stroke":"#F44336","stroke-width":4},"geometry":{"type":"LineString","coordinates":[[-0.1347545,51.54239],[-0.1347372,51.54246],[-0.1347093,51.54251],[-0.1346576,51.54257],[-0.1345336,51.54266]]}},{"type":"Feature","properties":{"Title":"C50","Direction":"OneWay","Flow":null,"Protection":null,"Ownership":null,"YearBuilt":null,"Borough":"Camden","LengthInMetres":43,"stroke":"#F44336","stroke-width":2},"geometry":{"type":"LineString","coordinates":[[-0.1291075,51.54718],[-0.1290252,51.54724],[-0.1287061,51.54747]]}},{"type":"Feature","properties":{"Title":"C50","Direction":"OneWay","Flow":null,"Protection":null,"Ownership":null,"YearBuilt":null,"Borough":"Camden","LengthInMetres":46,"stroke":"#F44336","stroke-width":2},"geometry":{"type":"LineString","coordinates":[[-0.1283327,51.54774],[-0.1279031,51.54806]]}},{"type":"Feature","properties":{"Title":"Cycleway Link (Bloomsbury - Holborn)","Direction":"TwoWay","Flow":null,"Protection":null,"Ownership":null,"YearBuilt":null,"Borough":"Camden","LengthInMetres":23,"stroke":"#F44336","stroke-width":4},"geometry":{"type":"LineString","coordinates":[[-0.117156,51.51945],[-0.1172552,51.51965]]}},{"type":"Feature","properties":{"Title":"Cycleway Link (Bloomsbury - Holborn)","Direction":"TwoWay","Flow":null,"Protection":null,"Ownership":null,"YearBuilt":null,"Borough":"Camden","LengthInMetres":70,"stroke":"#F44336","stroke-width":4},"geometry":{"type":"LineString","coordinates":[[-0.11844,51.52184],[-0.118378,51.52173],[-0.118284,51.52157],[-0.118185,51.52141],[-0.118135,51.52133],[-0.118112,51.52129],[-0.118099,51.52125]]}},{"type":"Feature","properties":{"Title":"Cycleway Link (Bloomsbury - Holborn)","Direction":"TwoWay","Flow":null,"Protection":null,"Ownership":null,"YearBuilt":null,"Borough":"Camden","LengthInMetres":65,"stroke":"#F44336","stroke-width":4},"geometry":{"type":"LineString","coordinates":[[-0.1222138,51.52374],[-0.1217363,51.52385],[-0.1213286,51.52394]]}},{"type":"Feature","properties":{"Title":"Gower Street","Direction":"TwoWay","Flow":null,"Protection":null,"Ownership":null,"YearBuilt":null,"Borough":"Camden","LengthInMetres":496,"stroke":"#F44336","stroke-width":4},"geometry":{"type":"LineString","coordinates":[[-0.1296094,51.51969],[-0.129266,51.51936],[-0.1281073,51.51832],[-0.1277533,51.51801],[-0.1274555,51.5176],[-0.1269862,51.51701],[-0.1263477,51.51629],[-0.1264765,51.51606],[-0.1265516,51.51593],[-0.1266388,51.51584]]}},{"type":"Feature","properties":{"Title":"Goods Way","Direction":"TwoWay","Flow":null,"Protection":null,"Ownership":null,"YearBuilt":null,"Borough":"Camden","LengthInMetres":462,"stroke":"#F44336","stroke-width":4},"geometry":{"type":"LineString","coordinates":[[-0.1285915,51.53354],[-0.1260797,51.53432],[-0.1257216,51.53443],[-0.1254735,51.5345],[-0.1245843,51.53475],[-0.1237367,51.53494],[-0.1235088,51.53499],[-0.1232728,51.53502],[-0.1228637,51.53502],[-0.1224466,51.53501]]}},{"type":"Feature","properties":{"Title":"St Pancras Way - LCN 6","Direction":"TwoWay","Flow":null,"Protection":null,"Ownership":null,"YearBuilt":null,"Borough":"Camden","LengthInMetres":206,"stroke":"#F44336","stroke-width":4},"geometry":{"type":"LineString","coordinates":[[-0.13569,51.54021],[-0.1353681,51.5414],[-0.1354754,51.54162],[-0.1358617,51.54196]]}},{"type":"Feature","properties":{"Title":"St Pancras Way","Direction":"OneWay","Flow":null,"Protection":null,"Ownership":null,"YearBuilt":null,"Borough":"Camden","LengthInMetres":92,"stroke":"#F44336","stroke-width":2},"geometry":{"type":"LineString","coordinates":[[-0.1391669,51.54361],[-0.1403524,51.54399]]}},{"type":"Feature","properties":{"Title":"King's Cross","Direction":"TwoWay","Flow":null,"Protection":null,"Ownership":null,"YearBuilt":null,"Borough":"Camden","LengthInMetres":30,"stroke":"#F44336","stroke-width":4},"geometry":{"type":"LineString","coordinates":[[-0.1218951,51.53057],[-0.1221177,51.53057],[-0.1223309,51.53058]]}},{"type":"Feature","properties":{"Title":"King's Cross","Direction":"TwoWay","Flow":null,"Protection":null,"Ownership":null,"YearBuilt":null,"Borough":"Camden","LengthInMetres":8,"stroke":"#F44336","stroke-width":4},"geometry":{"type":"LineString","coordinates":[[-0.1223309,51.53058],[-0.1223886,51.53064]]}},{"type":"Feature","properties":{"Title":"King's Cross","Direction":"TwoWay","Flow":null,"Protection":null,"Ownership":null,"YearBuilt":null,"Borough":"Camden","LengthInMetres":12,"stroke":"#F44336","stroke-width":4},"geometry":{"type":"LineString","coordinates":[[-0.1223886,51.53064],[-0.1224601,51.53074]]}},{"type":"Feature","properties":{"Title":"King's Cross","Direction":"TwoWay","Flow":null,"Protection":null,"Ownership":null,"YearBuilt":null,"Borough":"Camden","LengthInMetres":11,"stroke":"#F44336","stroke-width":4},"geometry":{"type":"LineString","coordinates":[[-0.1223309,51.53058],[-0.1224288,51.53057],[-0.1224852,51.53055]]}},{"type":"Feature","properties":{"Title":"Goldington Crescent link","Direction":"TwoWay","Flow":null,"Protection":null,"Ownership":null,"YearBuilt":null,"Borough":"Camden","LengthInMetres":32,"stroke":"#F44336","stroke-width":4},"geometry":{"type":"LineString","coordinates":[[-0.1332774,51.53562],[-0.1332353,51.53533]]}},{"type":"Feature","properties":{"Title":"Camden Park Road","Direction":"TwoWay","Flow":null,"Protection":null,"Ownership":null,"YearBuilt":null,"Borough":"Camden","LengthInMetres":85,"stroke":"#F44336","stroke-width":4},"geometry":{"type":"LineString","coordinates":[[-0.127048,51.54594],[-0.1280136,51.54641]]}},{"type":"Feature","properties":{"Title":"St Augustine's Road","Direction":"TwoWay","Flow":null,"Protection":null,"Ownership":null,"YearBuilt":null,"Borough":"Camden","LengthInMetres":22,"stroke":"#F44336","stroke-width":4},"geometry":{"type":"LineString","coordinates":[[-0.1274021,51.54607],[-0.1275952,51.54591]]}},{"type":"Feature","properties":{"Title":"Mabledon Place","Direction":"OneWay","Flow":null,"Protection":null,"Ownership":null,"YearBuilt":null,"Borough":"Camden","LengthInMetres":51,"stroke":"#F44336","stroke-width":2},"geometry":{"type":"LineString","coordinates":[[-0.127763,51.52839],[-0.1276074,51.52818],[-0.127425,51.52798]]}},{"type":"Feature","properties":{"Title":"Prince of Wales Road","Direction":"TwoWay","Flow":null,"Protection":null,"Ownership":null,"YearBuilt":null,"Borough":"Camden","LengthInMetres":613,"stroke":"#F44336","stroke-width":4},"geometry":{"type":"LineString","coordinates":[[-0.1470544,51.5463],[-0.1474165,51.54622],[-0.1479931,51.54609],[-0.1482238,51.54604],[-0.1486046,51.54601],[-0.1505144,51.54595],[-0.1530813,51.54586],[-0.1537431,51.54584],[-0.1545659,51.54581],[-0.1552599,51.54579],[-0.1555184,51.54578],[-0.1556154,51.54577],[-0.1557796,51.54572]]}},{"type":"Feature","properties":{"Title":"Bayley Street","Direction":"TwoWay","Flow":null,"Protection":null,"Ownership":null,"YearBuilt":null,"Borough":"Camden","LengthInMetres":31,"stroke":"#F44336","stroke-width":4},"geometry":{"type":"LineString","coordinates":[[-0.1317945,51.51875],[-0.1321539,51.51859]]}},{"type":"Feature","properties":{"Title":"Prince of Wales Road","Direction":"TwoWay","Flow":null,"Protection":null,"Ownership":null,"YearBuilt":null,"Borough":"Camden","LengthInMetres":156,"stroke":"#F44336","stroke-width":4},"geometry":{"type":"LineString","coordinates":[[-0.1464898,51.54642],[-0.1454169,51.54657],[-0.1446659,51.54662],[-0.1442689,51.54664]]}},{"type":"Feature","properties":{"Title":"Boundary Road","Direction":"TwoWay","Flow":null,"Protection":null,"Ownership":null,"YearBuilt":null,"Borough":"Camden","LengthInMetres":11,"stroke":"#F44336","stroke-width":4},"geometry":{"type":"LineString","coordinates":[[-0.1756262,51.5396],[-0.1754684,51.53959]]}},{"type":"Feature","properties":{"Title":"LCN 6","Direction":"TwoWay","Flow":null,"Protection":null,"Ownership":null,"YearBuilt":null,"Borough":"Camden","LengthInMetres":13,"stroke":"#F44336","stroke-width":4},"geometry":{"type":"LineString","coordinates":[[-0.1279031,51.54806],[-0.1277744,51.54815]]}},{"type":"Feature","properties":{"Title":"Regent's Park Road","Direction":"TwoWay","Flow":null,"Protection":null,"Ownership":null,"YearBuilt":null,"Borough":"Camden","LengthInMetres":74,"stroke":"#F44336","stroke-width":4},"geometry":{"type":"LineString","coordinates":[[-0.1551643,51.54269],[-0.1550355,51.54278],[-0.1548102,51.54331]]}},{"type":"Feature","properties":{"Title":"Purchese Street","Direction":"TwoWay","Flow":null,"Protection":null,"Ownership":null,"YearBuilt":null,"Borough":"Camden","LengthInMetres":230,"stroke":"#F44336","stroke-width":4},"geometry":{"type":"LineString","coordinates":[[-0.1309445,51.53394],[-0.1307728,51.53368],[-0.1305905,51.53337],[-0.1304456,51.53316],[-0.1302793,51.53284],[-0.1301935,51.53268],[-0.1304081,51.53259],[-0.1307514,51.53245],[-0.1311698,51.53229]]}},{"type":"Feature","properties":{"Title":"LCN 36","Direction":"TwoWay","Flow":null,"Protection":null,"Ownership":null,"YearBuilt":null,"Borough":"Camden","LengthInMetres":159,"stroke":"#F44336","stroke-width":4},"geometry":{"type":"LineString","coordinates":[[-0.1317222,51.54297],[-0.1316418,51.54264],[-0.131733,51.54211],[-0.1318402,51.54166],[-0.1318134,51.5416],[-0.1317598,51.54157]]}},{"type":"Feature","properties":{"Title":"Chalk Farm Road","Direction":"TwoWay","Flow":null,"Protection":null,"Ownership":null,"YearBuilt":null,"Borough":"Camden","LengthInMetres":246,"stroke":"#F44336","stroke-width":4},"geometry":{"type":"LineString","coordinates":[[-0.1558212,51.54567],[-0.1548476,51.54498],[-0.1541824,51.54461],[-0.1533027,51.54412]]}},{"type":"Feature","properties":{"Title":"Crogsland Road","Direction":"TwoWay","Flow":null,"Protection":null,"Ownership":null,"YearBuilt":null,"Borough":"Camden","LengthInMetres":32,"stroke":"#F44336","stroke-width":4},"geometry":{"type":"LineString","coordinates":[[-0.1527984,51.54376],[-0.1526268,51.54387],[-0.1525034,51.54398]]}},{"type":"Feature","properties":{"Title":"Cressy Road","Direction":"OneWay","Flow":null,"Protection":null,"Ownership":null,"YearBuilt":null,"Borough":"Camden","LengthInMetres":32,"stroke":"#F44336","stroke-width":2},"geometry":{"type":"LineString","coordinates":[[-0.161065,51.55438],[-0.1612474,51.55412]]}},{"type":"Feature","properties":{"Title":"Fleet Road","Direction":"OneWay","Flow":null,"Protection":null,"Ownership":null,"YearBuilt":null,"Borough":"Camden","LengthInMetres":28,"stroke":"#F44336","stroke-width":2},"geometry":{"type":"LineString","coordinates":[[-0.1616173,51.55357],[-0.1614027,51.55351],[-0.1612525,51.55346]]}},{"type":"Feature","properties":{"Title":"Constantine Road","Direction":"TwoWay","Flow":null,"Protection":null,"Ownership":null,"YearBuilt":null,"Borough":"Camden","LengthInMetres":19,"stroke":"#F44336","stroke-width":4},"geometry":{"type":"LineString","coordinates":[[-0.1584618,51.55562],[-0.1587312,51.55561]]}},{"type":"Feature","properties":{"Title":"Hawley Street","Direction":"OneWay","Flow":null,"Protection":null,"Ownership":null,"YearBuilt":null,"Borough":"Camden","LengthInMetres":53,"stroke":"#F44336","stroke-width":2},"geometry":{"type":"LineString","coordinates":[[-0.1423269,51.54283],[-0.1419299,51.5428],[-0.1417153,51.54279],[-0.1415758,51.54281]]}},{"type":"Feature","properties":{"Title":"Gower Street","Direction":"TwoWay","Flow":null,"Protection":null,"Ownership":null,"YearBuilt":null,"Borough":"Camden","LengthInMetres":483,"stroke":"#F44336","stroke-width":4},"geometry":{"type":"LineString","coordinates":[[-0.1303427,51.52038],[-0.1319092,51.52186],[-0.134248,51.52397]]}},{"type":"Feature","properties":{"Title":"Southampton Road","Direction":"OneWay","Flow":null,"Protection":null,"Ownership":null,"YearBuilt":null,"Borough":"Camden","LengthInMetres":25,"stroke":"#F44336","stroke-width":2},"geometry":{"type":"LineString","coordinates":[[-0.1569643,51.5514],[-0.1568731,51.55131],[-0.1568141,51.5512]]}},{"type":"Feature","properties":{"Title":"Southampton Road","Direction":"OneWay","Flow":null,"Protection":null,"Ownership":null,"YearBuilt":null,"Borough":"Camden","LengthInMetres":8,"stroke":"#F44336","stroke-width":2},"geometry":{"type":"LineString","coordinates":[[-0.1566327,51.55104],[-0.1565335,51.551]]}},{"type":"Feature","properties":{"Title":"Southampton Road","Direction":"OneWay","Flow":null,"Protection":null,"Ownership":null,"YearBuilt":null,"Borough":"Camden","LengthInMetres":8,"stroke":"#F44336","stroke-width":2},"geometry":{"type":"LineString","coordinates":[[-0.1565335,51.551],[-0.1564436,51.55096]]}},{"type":"Feature","properties":{"Title":"Southampton Road","Direction":"OneWay","Flow":null,"Protection":null,"Ownership":null,"YearBuilt":null,"Borough":"Camden","LengthInMetres":12,"stroke":"#F44336","stroke-width":2},"geometry":{"type":"LineString","coordinates":[[-0.1565335,51.551],[-0.1565482,51.55094],[-0.1565831,51.5509]]}},{"type":"Feature","properties":{"Title":"Fortess Road","Direction":"OneWay","Flow":null,"Protection":null,"Ownership":null,"YearBuilt":null,"Borough":"Camden","LengthInMetres":50,"stroke":"#F44336","stroke-width":2},"geometry":{"type":"LineString","coordinates":[[-0.1410161,51.55215],[-0.141043,51.5517]]}},{"type":"Feature","properties":{"Title":"Mansfield Road Crossing","Direction":"TwoWay","Flow":null,"Protection":null,"Ownership":null,"YearBuilt":null,"Borough":"Camden","LengthInMetres":18,"stroke":"#F44336","stroke-width":4},"geometry":{"type":"LineString","coordinates":[[-0.1543723,51.55385],[-0.154391,51.55401]]}},{"type":"Feature","properties":{"Title":"Store Street","Direction":"OneWay","Flow":null,"Protection":null,"Ownership":null,"YearBuilt":null,"Borough":"Camden","LengthInMetres":23,"stroke":"#F44336","stroke-width":2},"geometry":{"type":"LineString","coordinates":[[-0.1325509,51.51939],[-0.1328244,51.51927]]}},{"type":"Feature","properties":{"Title":"Bedford Avenue","Direction":"TwoWay","Flow":null,"Protection":null,"Ownership":null,"YearBuilt":null,"Borough":"Camden","LengthInMetres":32,"stroke":"#F44336","stroke-width":4},"geometry":{"type":"LineString","coordinates":[[-0.1306727,51.51763],[-0.1310589,51.51747]]}},{"type":"Feature","properties":{"Title":"Mansfield Road Crossing","Direction":"TwoWay","Flow":null,"Protection":null,"Ownership":null,"YearBuilt":null,"Borough":"Camden","LengthInMetres":21,"stroke":"#F44336","stroke-width":4},"geometry":{"type":"LineString","coordinates":[[-0.1557039,51.54575],[-0.155736,51.54582],[-0.1557253,51.54594]]}},{"type":"Feature","properties":{"Title":"Eyre Street Hill","Direction":"TwoWay","Flow":null,"Protection":null,"Ownership":null,"YearBuilt":null,"Borough":"Camden","LengthInMetres":19,"stroke":"#F44336","stroke-width":4},"geometry":{"type":"LineString","coordinates":[[-0.1102563,51.52207],[-0.110267,51.52224]]}},{"type":"Feature","properties":{"Title":"Laystall Street","Direction":"TwoWay","Flow":null,"Protection":null,"Ownership":null,"YearBuilt":null,"Borough":"Camden","LengthInMetres":19,"stroke":"#F44336","stroke-width":4},"geometry":{"type":"LineString","coordinates":[[-0.11193,51.52243],[-0.1121794,51.52251]]}},{"type":"Feature","properties":{"Title":"Regent Square","Direction":"TwoWay","Flow":null,"Protection":null,"Ownership":null,"YearBuilt":null,"Borough":"Camden","LengthInMetres":49,"stroke":"#F44336","stroke-width":4},"geometry":{"type":"LineString","coordinates":[[-0.1225728,51.5273],[-0.1226024,51.52719],[-0.122538,51.52702],[-0.1225031,51.527],[-0.1224602,51.52699],[-0.1223636,51.52701],[-0.1223127,51.527]]}},{"type":"Feature","properties":{"Title":"Lissenden Gardens","Direction":"TwoWay","Flow":null,"Protection":null,"Ownership":null,"YearBuilt":null,"Borough":"Camden","LengthInMetres":9,"stroke":"#F44336","stroke-width":4},"geometry":{"type":"LineString","coordinates":[[-0.149392,51.5562],[-0.149341,51.55613]]}},{"type":"Feature","properties":{"Title":"West Central Street","Direction":"TwoWay","Flow":null,"Protection":null,"Ownership":null,"YearBuilt":null,"Borough":"Camden","LengthInMetres":9,"stroke":"#F44336","stroke-width":4},"geometry":{"type":"LineString","coordinates":[[-0.1258428,51.51702],[-0.1258542,51.51706],[-0.125879,51.5171]]}},{"type":"Feature","properties":{"Title":"Castle Place/Farrier Street","Direction":"TwoWay","Flow":null,"Protection":null,"Ownership":null,"YearBuilt":null,"Borough":"Camden","LengthInMetres":7,"stroke":"#F44336","stroke-width":4},"geometry":{"type":"LineString","coordinates":[[-0.141949,51.54382],[-0.141949,51.5438],[-0.141945,51.54378],[-0.141933,51.54376]]}},{"type":"Feature","properties":{"Title":"Cubitt Street","Direction":"TwoWay","Flow":null,"Protection":null,"Ownership":null,"YearBuilt":null,"Borough":"Camden","LengthInMetres":19,"stroke":"#F44336","stroke-width":4},"geometry":{"type":"LineString","coordinates":[[-0.114504,51.5268],[-0.114294,51.52691]]}},{"type":"Feature","properties":{"Title":"Frederick Street","Direction":"TwoWay","Flow":null,"Protection":null,"Ownership":null,"YearBuilt":null,"Borough":"Camden","LengthInMetres":39,"stroke":"#F44336","stroke-width":4},"geometry":{"type":"LineString","coordinates":[[-0.116255,51.52826],[-0.116218,51.52828],[-0.115749,51.52842]]}},{"type":"Feature","properties":{"Title":"Chenies Street","Direction":"OneWay","Flow":null,"Protection":null,"Ownership":null,"YearBuilt":null,"Borough":"Camden","LengthInMetres":19,"stroke":"#F44336","stroke-width":2},"geometry":{"type":"LineString","coordinates":[[-0.1314428,51.52142],[-0.1316721,51.52132]]}},{"type":"Feature","properties":{"Title":"Frederick Street","Direction":"TwoWay","Flow":null,"Protection":null,"Ownership":null,"YearBuilt":null,"Borough":"Camden","LengthInMetres":24,"stroke":"#F44336","stroke-width":4},"geometry":{"type":"LineString","coordinates":[[-0.1157958,51.52841],[-0.1161042,51.52831]]}},{"type":"Feature","properties":{"Title":"Gough Street","Direction":"TwoWay","Flow":null,"Protection":null,"Ownership":null,"YearBuilt":null,"Borough":"Camden","LengthInMetres":11,"stroke":"#F44336","stroke-width":4},"geometry":{"type":"LineString","coordinates":[[-0.1130919,51.52301],[-0.113167,51.5231]]}},{"type":"Feature","properties":{"Title":"Brill Place","Direction":"TwoWay","Flow":null,"Protection":null,"Ownership":null,"YearBuilt":null,"Borough":"Camden","LengthInMetres":9,"stroke":"#F44336","stroke-width":4},"geometry":{"type":"LineString","coordinates":[[-0.130312,51.53144],[-0.130202,51.53149]]}},{"type":"Feature","properties":{"Title":"Rochester Road","Direction":"TwoWay","Flow":null,"Protection":null,"Ownership":null,"YearBuilt":null,"Borough":"Camden","LengthInMetres":7,"stroke":"#F44336","stroke-width":4},"geometry":{"type":"LineString","coordinates":[[-0.141454,51.5454],[-0.141557,51.54539]]}},{"type":"Feature","properties":{"Title":"Georgiana Street","Direction":"OneWay","Flow":null,"Protection":null,"Ownership":null,"YearBuilt":null,"Borough":"Camden","LengthInMetres":18,"stroke":"#F44336","stroke-width":2},"geometry":{"type":"LineString","coordinates":[[-0.1367304,51.53988],[-0.1369586,51.53981]]}},{"type":"Feature","properties":{"Title":"Lyme Street","Direction":"OneWay","Flow":null,"Protection":null,"Ownership":null,"YearBuilt":null,"Borough":"Camden","LengthInMetres":32,"stroke":"#F44336","stroke-width":2},"geometry":{"type":"LineString","coordinates":[[-0.1365583,51.53966],[-0.1369586,51.53981]]}},{"type":"Feature","properties":{"Title":"Back Hill","Direction":"TwoWay","Flow":null,"Protection":null,"Ownership":null,"YearBuilt":null,"Borough":"Camden","LengthInMetres":9,"stroke":"#F44336","stroke-width":4},"geometry":{"type":"LineString","coordinates":[[-0.1092892,51.52291],[-0.109327,51.52283]]}},{"type":"Feature","properties":{"Title":"Sandall Road","Direction":"TwoWay","Flow":null,"Protection":null,"Ownership":null,"YearBuilt":null,"Borough":"Camden","LengthInMetres":43,"stroke":"#F44336","stroke-width":4},"geometry":{"type":"LineString","coordinates":[[-0.134128,51.5461],[-0.134029,51.54597],[-0.133927,51.54586],[-0.133803,51.54577]]}},{"type":"Feature","properties":{"Title":"Grays Inn Road","Direction":"TwoWay","Flow":null,"Protection":null,"Ownership":null,"YearBuilt":null,"Borough":"Camden","LengthInMetres":189,"stroke":"#F44336","stroke-width":4},"geometry":{"type":"LineString","coordinates":[[-0.1189339,51.52807],[-0.1186335,51.52766],[-0.1182687,51.52696],[-0.1179254,51.5265]]}},{"type":"Feature","properties":{"Title":"Grays Inn Road","Direction":"TwoWay","Flow":null,"Protection":null,"Ownership":null,"YearBuilt":null,"Borough":"Camden","LengthInMetres":281,"stroke":"#F44336","stroke-width":4},"geometry":{"type":"LineString","coordinates":[[-0.1169466,51.52532],[-0.115171,51.52374],[-0.1148599,51.52345],[-0.1146668,51.52323]]}},{"type":"Feature","properties":{"Title":"Grays Inn Road","Direction":"TwoWay","Flow":null,"Protection":null,"Ownership":null,"YearBuilt":null,"Borough":"Camden","LengthInMetres":108,"stroke":"#F44336","stroke-width":4},"geometry":{"type":"LineString","coordinates":[[-0.1177679,51.5263],[-0.1171547,51.52552],[-0.1170635,51.52544]]}},{"type":"Feature","properties":{"Title":"Grays Inn Road","Direction":"TwoWay","Flow":null,"Protection":null,"Ownership":null,"YearBuilt":null,"Borough":"Camden","LengthInMetres":76,"stroke":"#F44336","stroke-width":4},"geometry":{"type":"LineString","coordinates":[[-0.1139587,51.52238],[-0.113492,51.52176]]}},{"type":"Feature","properties":{"Title":"Grays Inn Road","Direction":"TwoWay","Flow":null,"Protection":null,"Ownership":null,"YearBuilt":null,"Borough":"Camden","LengthInMetres":64,"stroke":"#F44336","stroke-width":4},"geometry":{"type":"LineString","coordinates":[[-0.1145219,51.52306],[-0.1140981,51.52255]]}},{"type":"Feature","properties":{"Title":"Grays Inn Road","Direction":"TwoWay","Flow":null,"Protection":null,"Ownership":null,"YearBuilt":null,"Borough":"Camden","LengthInMetres":296,"stroke":"#F44336","stroke-width":4},"geometry":{"type":"LineString","coordinates":[[-0.1132023,51.52134],[-0.1122045,51.51985],[-0.1116573,51.51886]]}},{"type":"Feature","properties":{"Title":"Southampton Row","Direction":"OneWay","Flow":null,"Protection":null,"Ownership":null,"YearBuilt":null,"Borough":"Camden","LengthInMetres":117,"stroke":"#F44336","stroke-width":2},"geometry":{"type":"LineString","coordinates":[[-0.1209179,51.51838],[-0.1210976,51.51881],[-0.1211379,51.51888],[-0.121229,51.51899],[-0.1214195,51.51915],[-0.1215013,51.51925],[-0.121579,51.51933]]}},{"type":"Feature","properties":{"Title":"High Holborn","Direction":"TwoWay","Flow":null,"Protection":null,"Ownership":null,"YearBuilt":null,"Borough":"Camden","LengthInMetres":5,"stroke":"#F44336","stroke-width":4},"geometry":{"type":"LineString","coordinates":[[-0.1262455,51.51578],[-0.1262442,51.5158],[-0.1262348,51.51582]]}},{"type":"Feature","properties":{"Title":"Kings Cross Station-C6 link","Direction":"OneWay","Flow":null,"Protection":null,"Ownership":null,"YearBuilt":null,"Borough":"Camden","LengthInMetres":13,"stroke":"#F44336","stroke-width":2},"geometry":{"type":"LineString","coordinates":[[-0.124286,51.52977],[-0.1243692,51.52985],[-0.1243812,51.52987],[-0.1243812,51.52987]]}},{"type":"Feature","properties":{"Title":"Streatham Street","Direction":"TwoWay","Flow":null,"Protection":null,"Ownership":null,"YearBuilt":null,"Borough":"Camden","LengthInMetres":30,"stroke":"#F44336","stroke-width":4},"geometry":{"type":"LineString","coordinates":[[-0.127198,51.51734],[-0.126807,51.51746]]}},{"type":"Feature","properties":{"Title":"Museum Street","Direction":"TwoWay","Flow":null,"Protection":null,"Ownership":null,"YearBuilt":null,"Borough":"Camden","LengthInMetres":19,"stroke":"#F44336","stroke-width":4},"geometry":{"type":"LineString","coordinates":[[-0.125756,51.51792],[-0.125719,51.51788],[-0.125676,51.51784],[-0.125607,51.51778]]}},{"type":"Feature","properties":{"Title":"Cliff Road","Direction":"OneWay","Flow":null,"Protection":null,"Ownership":null,"YearBuilt":null,"Borough":"Camden","LengthInMetres":8,"stroke":"#F44336","stroke-width":2},"geometry":{"type":"LineString","coordinates":[[-0.1291748,51.54714],[-0.1291601,51.54714],[-0.1290914,51.54719]]}},{"type":"Feature","properties":{"Title":"Southampton Row","Direction":"OneWay","Flow":null,"Protection":null,"Ownership":null,"YearBuilt":null,"Borough":"Camden","LengthInMetres":55,"stroke":"#F44336","stroke-width":2},"geometry":{"type":"LineString","coordinates":[[-0.1216609,51.51951],[-0.1214979,51.51938],[-0.1214262,51.51933],[-0.1213678,51.5193],[-0.1212666,51.51926],[-0.1210949,51.51917]]}},{"type":"Feature","properties":{"Title":"Anglers Lane","Direction":"TwoWay","Flow":null,"Protection":null,"Ownership":null,"YearBuilt":null,"Borough":"Camden","LengthInMetres":41,"stroke":"#F44336","stroke-width":4},"geometry":{"type":"LineString","coordinates":[[-0.1420091,51.54761],[-0.1419178,51.54767],[-0.141838,51.54771],[-0.1417127,51.54776],[-0.1416382,51.54779],[-0.1415759,51.5478],[-0.1415249,51.5478]]}},{"type":"Feature","properties":{"Title":"Granary Square Bridge","Direction":"TwoWay","Flow":null,"Protection":null,"Ownership":null,"YearBuilt":null,"Borough":"Camden","LengthInMetres":5,"stroke":"#F44336","stroke-width":4},"geometry":{"type":"LineString","coordinates":[[-0.124616,51.5348],[-0.124594,51.53476]]}},{"type":"Feature","properties":{"Title":"Marquis Road to Agar Grove","Direction":"TwoWay","Flow":null,"Protection":null,"Ownership":null,"YearBuilt":null,"Borough":"Camden","LengthInMetres":36,"stroke":"#F44336","stroke-width":4},"geometry":{"type":"LineString","coordinates":[[-0.1269929,51.54369],[-0.1268627,51.54357],[-0.1268151,51.54352],[-0.1267729,51.54346],[-0.1267524,51.54341]]}},{"type":"Feature","properties":{"Title":"Goods Way cycle zebra","Direction":"TwoWay","Flow":null,"Protection":null,"Ownership":null,"YearBuilt":null,"Borough":"Camden","LengthInMetres":16,"stroke":"#F44336","stroke-width":4},"geometry":{"type":"LineString","coordinates":[[-0.12461,51.53478],[-0.124666,51.53477],[-0.124617,51.5347],[-0.124566,51.53471]]}},{"type":"Feature","properties":{"Title":"Churchway","Direction":"TwoWay","Flow":null,"Protection":null,"Ownership":null,"YearBuilt":null,"Borough":"Camden","LengthInMetres":20,"stroke":"#F44336","stroke-width":4},"geometry":{"type":"LineString","coordinates":[[-0.130851,51.52943],[-0.130812,51.52942],[-0.130775,51.52941],[-0.130739,51.52938],[-0.130719,51.52934],[-0.1306937,51.52929]]}},{"type":"Feature","properties":{"Title":"Windmill Street","Direction":"TwoWay","Flow":null,"Protection":null,"Ownership":null,"YearBuilt":null,"Borough":"Camden","LengthInMetres":6,"stroke":"#F44336","stroke-width":4},"geometry":{"type":"LineString","coordinates":[[-0.1336242,51.51893],[-0.13355,51.51895]]}},{"type":"Feature","properties":{"Title":"Camley Street","Direction":"OneWay","Flow":null,"Protection":null,"Ownership":null,"YearBuilt":null,"Borough":"Camden","LengthInMetres":82,"stroke":"#F44336","stroke-width":2},"geometry":{"type":"LineString","coordinates":[[-0.1318496,51.54084],[-0.131871,51.54092],[-0.1318496,51.54104],[-0.1317598,51.54157]]}},{"type":"Feature","properties":{"Title":"Barker Drive","Direction":"TwoWay","Flow":null,"Protection":null,"Ownership":null,"YearBuilt":null,"Borough":"Camden","LengthInMetres":11,"stroke":"#F44336","stroke-width":4},"geometry":{"type":"LineString","coordinates":[[-0.131905,51.54044],[-0.131743,51.54043]]}},{"type":"Feature","properties":{"Title":"Wilmot Place","Direction":"OneWay","Flow":null,"Protection":null,"Ownership":null,"YearBuilt":null,"Borough":"Camden","LengthInMetres":9,"stroke":"#F44336","stroke-width":2},"geometry":{"type":"LineString","coordinates":[[-0.1393146,51.54355],[-0.1391964,51.54359]]}},{"type":"Feature","properties":{"Title":"Meckleburgh Square","Direction":"TwoWay","Flow":null,"Protection":null,"Ownership":null,"YearBuilt":null,"Borough":"Camden","LengthInMetres":15,"stroke":"#F44336","stroke-width":4},"geometry":{"type":"LineString","coordinates":[[-0.118499,51.52643],[-0.118421,51.5263]]}},{"type":"Feature","properties":{"Title":"Agar Grove","Direction":"OneWay","Flow":null,"Protection":null,"Ownership":null,"YearBuilt":null,"Borough":"Camden","LengthInMetres":61,"stroke":"#F44336","stroke-width":2},"geometry":{"type":"LineString","coordinates":[[-0.1339463,51.54256],[-0.1343528,51.54244],[-0.1347438,51.54234]]}},{"type":"Feature","properties":{"Title":"Lidlington Place - LB Camden","Direction":"OneWay","Flow":null,"Protection":null,"Ownership":null,"YearBuilt":null,"Borough":"Camden","LengthInMetres":518,"stroke":"#F44336","stroke-width":2},"geometry":{"type":"LineString","coordinates":[[-0.1353847,51.5352],[-0.1354275,51.53448],[-0.1358996,51.53383],[-0.1361034,51.5336],[-0.1364629,51.5334],[-0.1368062,51.53323],[-0.1371281,51.53304],[-0.1380293,51.53264],[-0.1389923,51.53251],[-0.1391519,51.53235],[-0.1391022,51.5322],[-0.138909,51.53175]]}},{"type":"Feature","properties":{"Title":"Hampstead Road - TfL","Direction":"TwoWay","Flow":null,"Protection":null,"Ownership":null,"YearBuilt":null,"Borough":"Camden","LengthInMetres":144,"stroke":"#F44336","stroke-width":4},"geometry":{"type":"LineString","coordinates":[[-0.1385986,51.52895],[-0.1386415,51.52766]]}},{"type":"Feature","properties":{"Title":"York Way (LB Camden/Islington)","Direction":"TwoWay","Flow":null,"Protection":null,"Ownership":null,"YearBuilt":null,"Borough":"Camden","LengthInMetres":152,"stroke":"#F44336","stroke-width":4},"geometry":{"type":"LineString","coordinates":[[-0.1277266,51.54808],[-0.1271473,51.54753],[-0.1268898,51.54697],[-0.1268563,51.54685]]}},{"type":"Feature","properties":{"Title":"York Way (LB Camden/Islington)","Direction":"TwoWay","Flow":null,"Protection":null,"Ownership":null,"YearBuilt":null,"Borough":"Camden","LengthInMetres":54,"stroke":"#F44336","stroke-width":4},"geometry":{"type":"LineString","coordinates":[[-0.1253409,51.54155],[-0.1250768,51.54109]]}},{"type":"Feature","properties":{"Title":"York Way (LB Camden/Islington)","Direction":"TwoWay","Flow":null,"Protection":null,"Ownership":null,"YearBuilt":null,"Borough":"Camden","LengthInMetres":82,"stroke":"#F44336","stroke-width":4},"geometry":{"type":"LineString","coordinates":[[-0.1223648,51.53646],[-0.1224787,51.53719]]}},{"type":"Feature","properties":{"Title":"York Way (LB Camden/Islington)","Direction":"TwoWay","Flow":null,"Protection":null,"Ownership":null,"YearBuilt":null,"Borough":"Camden","LengthInMetres":137,"stroke":"#F44336","stroke-width":4},"geometry":{"type":"LineString","coordinates":[[-0.1230579,51.53847],[-0.1234565,51.53876],[-0.1240787,51.5391],[-0.1244435,51.53934]]}},{"type":"Feature","properties":{"Title":"York Road (LB Camden/Islington)","Direction":"TwoWay","Flow":null,"Protection":null,"Ownership":null,"YearBuilt":null,"Borough":"Camden","LengthInMetres":134,"stroke":"#F44336","stroke-width":4},"geometry":{"type":"LineString","coordinates":[[-0.1247547,51.53962],[-0.1248512,51.53981],[-0.1249585,51.54021],[-0.1249692,51.54059],[-0.1249859,51.54081]]}},{"type":"Feature","properties":{"Title":"St Pancras Way (LB Camden)","Direction":"OneWay","Flow":null,"Protection":null,"Ownership":null,"YearBuilt":null,"Borough":"Camden","LengthInMetres":586,"stroke":"#F44336","stroke-width":2},"geometry":{"type":"LineString","coordinates":[[-0.13569,51.54021],[-0.1354442,51.53982],[-0.1348541,51.53945],[-0.1342425,51.53909],[-0.133631,51.53861],[-0.1332662,51.53824],[-0.1330516,51.53792],[-0.1329014,51.5376],[-0.1327834,51.53711],[-0.132719,51.53657],[-0.1326225,51.53604],[-0.13258,51.53554]]}},{"type":"Feature","properties":{"Title":"St Pancras Way (LB Camden)","Direction":"OneWay","Flow":null,"Protection":null,"Ownership":null,"YearBuilt":null,"Borough":"Camden","LengthInMetres":294,"stroke":"#F44336","stroke-width":2},"geometry":{"type":"LineString","coordinates":[[-0.1391669,51.54361],[-0.1374719,51.54283],[-0.1363132,51.54226],[-0.1358617,51.54196]]}},{"type":"Feature","properties":{"Title":"Chalk Farm Road","Direction":"OneWay","Flow":null,"Protection":null,"Ownership":null,"YearBuilt":null,"Borough":"Camden","LengthInMetres":84,"stroke":"#F44336","stroke-width":2},"geometry":{"type":"LineString","coordinates":[[-0.1465647,51.5422],[-0.1471226,51.54245],[-0.1475669,51.54263]]}},{"type":"Feature","properties":{"Title":"Chalk Farm Road - Pop-up cycle lane","Direction":"TwoWay","Flow":null,"Protection":null,"Ownership":null,"YearBuilt":null,"Borough":"Camden","LengthInMetres":433,"stroke":"#F44336","stroke-width":4},"geometry":{"type":"LineString","coordinates":[[-0.1533027,51.54412],[-0.1514722,51.54348],[-0.1500345,51.54311],[-0.1487471,51.54288],[-0.1475669,51.54263]]}},{"type":"Feature","properties":{"Title":"Woburn Place - LB Camden","Direction":"OneWay","Flow":null,"Protection":null,"Ownership":null,"YearBuilt":null,"Borough":"Camden","LengthInMetres":40,"stroke":"#F44336","stroke-width":2},"geometry":{"type":"LineString","coordinates":[[-0.127921,51.52468],[-0.1276019,51.52438]]}},{"type":"Feature","properties":{"Title":"Haverstock Hill - LB Camden","Direction":"TwoWay","Flow":null,"Protection":null,"Ownership":null,"YearBuilt":null,"Borough":"Camden","LengthInMetres":106,"stroke":"#F44336","stroke-width":4},"geometry":{"type":"LineString","coordinates":[[-0.15965,51.54739],[-0.159304,51.54721],[-0.158439,51.54681]]}},{"type":"Feature","properties":{"Title":"Haverstock Hill - LB Camden","Direction":"OneWay","Flow":null,"Protection":null,"Ownership":null,"YearBuilt":null,"Borough":"Camden","LengthInMetres":31,"stroke":"#F44336","stroke-width":2},"geometry":{"type":"LineString","coordinates":[[-0.1580034,51.54666],[-0.1577446,51.54658],[-0.1575943,51.54654]]}},{"type":"Feature","properties":{"Title":"Haverstock Hill - LB Camden","Direction":"TwoWay","Flow":null,"Protection":null,"Ownership":null,"YearBuilt":null,"Borough":"Camden","LengthInMetres":23,"stroke":"#F44336","stroke-width":4},"geometry":{"type":"LineString","coordinates":[[-0.1575943,51.54654],[-0.1574195,51.54648],[-0.1573015,51.54644]]}},{"type":"Feature","properties":{"Title":"Haverstock Hill - LB Camden","Direction":"OneWay","Flow":null,"Protection":null,"Ownership":null,"YearBuilt":null,"Borough":"Camden","LengthInMetres":37,"stroke":"#F44336","stroke-width":2},"geometry":{"type":"LineString","coordinates":[[-0.1573015,51.54644],[-0.1571138,51.54638],[-0.1569528,51.54632],[-0.1568442,51.54627]]}},{"type":"Feature","properties":{"Title":"Haverstock Hill - LB Camden","Direction":"TwoWay","Flow":null,"Protection":null,"Ownership":null,"YearBuilt":null,"Borough":"Camden","LengthInMetres":50,"stroke":"#F44336","stroke-width":4},"geometry":{"type":"LineString","coordinates":[[-0.156412,51.54604],[-0.1561277,51.54586],[-0.1559051,51.54572]]}},{"type":"Feature","properties":{"Title":"Haverstock Hill - LB Camden","Direction":"OneWay","Flow":null,"Protection":null,"Ownership":null,"YearBuilt":null,"Borough":"Camden","LengthInMetres":38,"stroke":"#F44336","stroke-width":2},"geometry":{"type":"LineString","coordinates":[[-0.16721,51.55215],[-0.1670249,51.55199],[-0.1668747,51.55188]]}},{"type":"Feature","properties":{"Title":"Haverstock Hill - LB Camden","Direction":"OneWay","Flow":null,"Protection":null,"Ownership":null,"YearBuilt":null,"Borough":"Camden","LengthInMetres":22,"stroke":"#F44336","stroke-width":2},"geometry":{"type":"LineString","coordinates":[[-0.1667019,51.55176],[-0.1664954,51.55161]]}},{"type":"Feature","properties":{"Title":"Haverstock Hill - LB Camden","Direction":"OneWay","Flow":null,"Protection":null,"Ownership":null,"YearBuilt":null,"Borough":"Camden","LengthInMetres":13,"stroke":"#F44336","stroke-width":2},"geometry":{"type":"LineString","coordinates":[[-0.1661521,51.55137],[-0.1660267,51.55128]]}},{"type":"Feature","properties":{"Title":"Haverstock Hill - LB Camden","Direction":"TwoWay","Flow":null,"Protection":null,"Ownership":null,"YearBuilt":null,"Borough":"Camden","LengthInMetres":57,"stroke":"#F44336","stroke-width":4},"geometry":{"type":"LineString","coordinates":[[-0.1658739,51.55117],[-0.1653274,51.55079]]}},{"type":"Feature","properties":{"Title":"Haverstock Hill - LB Camden","Direction":"OneWay","Flow":null,"Protection":null,"Ownership":null,"YearBuilt":null,"Borough":"Camden","LengthInMetres":24,"stroke":"#F44336","stroke-width":2},"geometry":{"type":"LineString","coordinates":[[-0.1653274,51.55079],[-0.1650967,51.55063]]}},{"type":"Feature","properties":{"Title":"Haverstock Hill - LB Camden","Direction":"TwoWay","Flow":null,"Protection":null,"Ownership":null,"YearBuilt":null,"Borough":"Camden","LengthInMetres":24,"stroke":"#F44336","stroke-width":4},"geometry":{"type":"LineString","coordinates":[[-0.1650967,51.55063],[-0.1648741,51.55047]]}},{"type":"Feature","properties":{"Title":"Haverstock Hill - LB Camden","Direction":"OneWay","Flow":null,"Protection":null,"Ownership":null,"YearBuilt":null,"Borough":"Camden","LengthInMetres":49,"stroke":"#F44336","stroke-width":2},"geometry":{"type":"LineString","coordinates":[[-0.1643832,51.55013],[-0.1641058,51.54999],[-0.1638391,51.54985]]}},{"type":"Feature","properties":{"Title":"Haverstock Hill - LB Camden","Direction":"TwoWay","Flow":null,"Protection":null,"Ownership":null,"YearBuilt":null,"Borough":"Camden","LengthInMetres":45,"stroke":"#F44336","stroke-width":4},"geometry":{"type":"LineString","coordinates":[[-0.1638391,51.54985],[-0.1636219,51.54974],[-0.1634234,51.54963],[-0.1633456,51.54959]]}},{"type":"Feature","properties":{"Title":"Haverstock Hill - LB Camden","Direction":"TwoWay","Flow":null,"Protection":null,"Ownership":null,"YearBuilt":null,"Borough":"Camden","LengthInMetres":78,"stroke":"#F44336","stroke-width":4},"geometry":{"type":"LineString","coordinates":[[-0.1631962,51.54952],[-0.1627831,51.54931],[-0.1625202,51.54917],[-0.1623432,51.54907]]}},{"type":"Feature","properties":{"Title":"Haverstock Hill - LB Camden","Direction":"TwoWay","Flow":null,"Protection":null,"Ownership":null,"YearBuilt":null,"Borough":"Camden","LengthInMetres":27,"stroke":"#F44336","stroke-width":4},"geometry":{"type":"LineString","coordinates":[[-0.1621408,51.54895],[-0.1619638,51.54883],[-0.1618699,51.54877]]}},{"type":"Feature","properties":{"Title":"Haverstock Hill - LB Camden","Direction":"TwoWay","Flow":null,"Protection":null,"Ownership":null,"YearBuilt":null,"Borough":"Camden","LengthInMetres":174,"stroke":"#F44336","stroke-width":4},"geometry":{"type":"LineString","coordinates":[[-0.1616794,51.54864],[-0.1613447,51.54842],[-0.1610068,51.54819],[-0.1606715,51.54797],[-0.1605213,51.54787],[-0.1604006,51.54781],[-0.1601538,51.54765],[-0.1600538,51.54759],[-0.159931,51.54752]]}},{"type":"Feature","properties":{"Title":"Spaniards Rd","Direction":"OneWay","Flow":null,"Protection":null,"Ownership":null,"YearBuilt":null,"Borough":"Camden","LengthInMetres":121,"stroke":"#F44336","stroke-width":2},"geometry":{"type":"LineString","coordinates":[[-0.1756348,51.5678],[-0.1752593,51.56829],[-0.1748784,51.56878]]}},{"type":"Feature","properties":{"Title":"Spaniards Rd","Direction":"TwoWay","Flow":null,"Protection":null,"Ownership":null,"YearBuilt":null,"Borough":"Camden","LengthInMetres":518,"stroke":"#F44336","stroke-width":4},"geometry":{"type":"LineString","coordinates":[[-0.1756348,51.5678],[-0.1762869,51.56692],[-0.1768233,51.56624],[-0.1774724,51.56538],[-0.1783361,51.56419],[-0.1785936,51.5639],[-0.1788055,51.56359]]}},{"type":"Feature","properties":{"Title":"Spaniards Rd","Direction":"OneWay","Flow":null,"Protection":null,"Ownership":null,"YearBuilt":null,"Borough":"Camden","LengthInMetres":23,"stroke":"#F44336","stroke-width":2},"geometry":{"type":"LineString","coordinates":[[-0.1788082,51.56358],[-0.1789397,51.56339]]}}]}