{"type":"FeatureCollection","features":[{"type":"Feature","properties":{"Title":"C2 - CS3 Link","Direction":"TwoWay","Flow":null,"Protection":null,"Ownership":null,"YearBuilt":null,"Borough":"City of London","LengthInMetres":37,"stroke":"#388E3C","stroke-width":4},"geometry":{"type":"LineString","coordinates":[[-0.0729307,51.51129],[-0.0731964,51.51128],[-0.0729329,51.5113]]}},{"type":"Feature","properties":{"Title":"C3 - (East-West Cycle Superhighway)","Direction":"TwoWay","Flow":null,"Protection":null,"Ownership":null,"YearBuilt":null,"Borough":"City of London","LengthInMetres":269,"stroke":"#388E3C","stroke-width":4},"geometry":{"type":"LineString","coordinates":[[-0.1115566,51.51097],[-0.111406,51.51097],[-0.1107354,51.51099],[-0.110081,51.51099],[-0.1093621,51.51098],[-0.1088579,51.51098],[-0.1084502,51.51097],[-0.1081766,51.51096],[-0.1080103,51.51095],[-0.1079996,51.51102],[-0.1079963,51.51115]]}},{"type":"Feature","properties":{"Title":"C3 - (East-West Cycle Superhighway)","Direction":"TwoWay","Flow":null,"Protection":null,"Ownership":null,"YearBuilt":null,"Borough":"City of London","LengthInMetres":20,"stroke":"#388E3C","stroke-width":4},"geometry":{"type":"LineString","coordinates":[[-0.1079963,51.51115],[-0.1079942,51.51124],[-0.1079996,51.51115],[-0.1079963,51.51115]]}},{"type":"Feature","properties":{"Title":"C3 - (East-West Cycle Superhighway)","Direction":"TwoWay","Flow":null,"Protection":null,"Ownership":null,"YearBuilt":null,"Borough":"City of London","LengthInMetres":444,"stroke":"#388E3C","stroke-width":4},"geometry":{"type":"LineString","coordinates":[[-0.1079963,51.51115],[-0.1077689,51.51114],[-0.1076241,51.51113],[-0.1073183,51.5111],[-0.1070393,51.51109],[-0.1065565,51.51109],[-0.1058592,51.51109],[-0.1049204,51.51109],[-0.1040782,51.51109],[-0.1037295,51.51109],[-0.1032413,51.51107],[-0.1028926,51.51107],[-0.102662,51.51107],[-0.1023562,51.51111],[-0.1020504,51.51115],[-0.1019056,51.51117],[-0.10175,51.51119],[-0.1016286,51.51121]]}},{"type":"Feature","properties":{"Title":"C3 - (East-West Cycle Superhighway)","Direction":"OneWay","Flow":null,"Protection":null,"Ownership":null,"YearBuilt":null,"Borough":"City of London","LengthInMetres":43,"stroke":"#388E3C","stroke-width":2},"geometry":{"type":"LineString","coordinates":[[-0.1016286,51.51121],[-0.1016002,51.51122],[-0.1015761,51.51124],[-0.1015573,51.51127],[-0.1015466,51.51132],[-0.1015358,51.51137],[-0.1015171,51.5114],[-0.1014983,51.51142],[-0.10145,51.51143],[-0.101391,51.51143],[-0.1012622,51.51142]]}},{"type":"Feature","properties":{"Title":"C3 - (East-West Cycle Superhighway)","Direction":"TwoWay","Flow":null,"Protection":null,"Ownership":null,"YearBuilt":null,"Borough":"City of London","LengthInMetres":1231,"stroke":"#388E3C","stroke-width":4},"geometry":{"type":"LineString","coordinates":[[-0.0954342,51.51124],[-0.0945866,51.51116],[-0.0935244,51.51102],[-0.0930218,51.51096],[-0.0921297,51.51079],[-0.0912339,51.51063],[-0.0900804,51.51042],[-0.0895601,51.51029],[-0.0891953,51.51018],[-0.0887769,51.51007],[-0.0883424,51.50997],[-0.0877952,51.50987],[-0.0873071,51.5098],[-0.0866258,51.50971],[-0.0847804,51.50944],[-0.0839711,51.50934],[-0.0830947,51.50923],[-0.0822618,51.50914],[-0.0819051,51.50914],[-0.081674,51.50914],[-0.0815081,51.50917],[-0.0812091,51.50921],[-0.0810515,51.50925],[-0.0808765,51.5093],[-0.0805942,51.5094],[-0.0803159,51.50952],[-0.0801757,51.50958],[-0.0799846,51.50964],[-0.0798706,51.50966],[-0.0797137,51.50968],[-0.0795554,51.50968],[-0.0793892,51.50967],[-0.0791035,51.50965],[-0.0786046,51.5096],[-0.0784129,51.50957],[-0.0783933,51.50956]]}},{"type":"Feature","properties":{"Title":"C3 - (East-West Cycle Superhighway)","Direction":"TwoWay","Flow":null,"Protection":null,"Ownership":null,"YearBuilt":null,"Borough":"City of London","LengthInMetres":206,"stroke":"#388E3C","stroke-width":4},"geometry":{"type":"LineString","coordinates":[[-0.0755466,51.50974],[-0.0755368,51.50975],[-0.0754544,51.50978],[-0.0753015,51.50984],[-0.0747557,51.51003],[-0.0739979,51.5101],[-0.0736331,51.51013],[-0.0734363,51.51013],[-0.0732046,51.51013],[-0.0730444,51.51014],[-0.0727324,51.51018]]}},{"type":"Feature","properties":{"Title":"C3 - Spur","Direction":"TwoWay","Flow":null,"Protection":null,"Ownership":null,"YearBuilt":null,"Borough":"City of London","LengthInMetres":220,"stroke":"#388E3C","stroke-width":4},"geometry":{"type":"LineString","coordinates":[[-0.1046691,51.51155],[-0.1049007,51.51139],[-0.1052611,51.51125],[-0.1054723,51.5112],[-0.105705,51.51115],[-0.1062642,51.51116],[-0.1074363,51.51117],[-0.1076241,51.51113]]}},{"type":"Feature","properties":{"Title":"C3 - Spur","Direction":"OneWay","Flow":null,"Protection":null,"Ownership":null,"YearBuilt":null,"Borough":"City of London","LengthInMetres":17,"stroke":"#388E3C","stroke-width":2},"geometry":{"type":"LineString","coordinates":[[-0.0732505,51.51],[-0.073228,51.51002],[-0.073161,51.5101],[-0.0731154,51.51012]]}},{"type":"Feature","properties":{"Title":"C3 - Spur","Direction":"OneWay","Flow":null,"Protection":null,"Ownership":null,"YearBuilt":null,"Borough":"City of London","LengthInMetres":5,"stroke":"#388E3C","stroke-width":2},"geometry":{"type":"LineString","coordinates":[[-0.0731154,51.51012],[-0.0730444,51.51014]]}},{"type":"Feature","properties":{"Title":"C3 - Spur","Direction":"OneWay","Flow":null,"Protection":null,"Ownership":null,"YearBuilt":null,"Borough":"City of London","LengthInMetres":9,"stroke":"#388E3C","stroke-width":2},"geometry":{"type":"LineString","coordinates":[[-0.0731154,51.51012],[-0.073161,51.5101],[-0.0731663,51.51011],[-0.0731831,51.51012],[-0.0732046,51.51013]]}},{"type":"Feature","properties":{"Title":"C6 - North-South Cycle Superhighway","Direction":"TwoWay","Flow":null,"Protection":null,"Ownership":null,"YearBuilt":null,"Borough":"City of London","LengthInMetres":751,"stroke":"#388E3C","stroke-width":4},"geometry":{"type":"LineString","coordinates":[[-0.1053111,51.51855],[-0.1053032,51.51838],[-0.1051852,51.51784],[-0.1050671,51.51737],[-0.1049545,51.51688],[-0.1047936,51.51617],[-0.104709,51.51579],[-0.1047801,51.51571],[-0.1048042,51.51566],[-0.1047345,51.51532],[-0.1046058,51.51474],[-0.1045847,51.51463],[-0.1044952,51.51425],[-0.1044382,51.51401],[-0.104351,51.51359],[-0.104296,51.51319],[-0.1042759,51.51288],[-0.1042866,51.51257],[-0.104304,51.51225],[-0.1043107,51.51197],[-0.1043185,51.51186]]}},{"type":"Feature","properties":{"Title":"C6 - North-South Cycle Superhighway","Direction":"TwoWay","Flow":null,"Protection":null,"Ownership":null,"YearBuilt":null,"Borough":"City of London","LengthInMetres":7,"stroke":"#388E3C","stroke-width":4},"geometry":{"type":"LineString","coordinates":[[-0.1043185,51.51186],[-0.1042182,51.51187]]}},{"type":"Feature","properties":{"Title":"C6 - North-South Cycle Superhighway","Direction":"TwoWay","Flow":null,"Protection":null,"Ownership":null,"YearBuilt":null,"Borough":"City of London","LengthInMetres":369,"stroke":"#388E3C","stroke-width":4},"geometry":{"type":"LineString","coordinates":[[-0.1043185,51.51186],[-0.1043356,51.51182],[-0.1043671,51.51177],[-0.1044931,51.51167],[-0.1046165,51.51155],[-0.1046809,51.51142],[-0.1046836,51.51136],[-0.1046702,51.51128],[-0.1046112,51.51116],[-0.1045012,51.51099],[-0.1044536,51.5109],[-0.104422,51.51081],[-0.1044247,51.51055],[-0.1044717,51.51003],[-0.1044985,51.50864],[-0.1044985,51.50863]]}},{"type":"Feature","properties":{"Title":"CS7","Direction":"OneWay","Flow":null,"Protection":null,"Ownership":null,"YearBuilt":null,"Borough":"City of London","LengthInMetres":20,"stroke":"#388E3C","stroke-width":2},"geometry":{"type":"LineString","coordinates":[[-0.0931183,51.51059],[-0.0930647,51.51077]]}},{"type":"Feature","properties":{"Title":"CS7","Direction":"TwoWay","Flow":null,"Protection":null,"Ownership":null,"YearBuilt":null,"Borough":"City of London","LengthInMetres":126,"stroke":"#388E3C","stroke-width":4},"geometry":{"type":"LineString","coordinates":[[-0.0934317,51.50992],[-0.0937991,51.5093],[-0.09406,51.50886]]}},{"type":"Feature","properties":{"Title":"C11","Direction":"TwoWay","Flow":null,"Protection":null,"Ownership":null,"YearBuilt":null,"Borough":"City of London","LengthInMetres":150,"stroke":"#388E3C","stroke-width":4},"geometry":{"type":"LineString","coordinates":[[-0.105168,51.51777],[-0.1048863,51.5178],[-0.1046798,51.51782],[-0.1043284,51.51793],[-0.1036874,51.51813],[-0.1035238,51.51794],[-0.1034648,51.51787],[-0.1034347,51.51782]]}},{"type":"Feature","properties":{"Title":"C11","Direction":"TwoWay","Flow":null,"Protection":null,"Ownership":null,"YearBuilt":null,"Borough":"City of London","LengthInMetres":9,"stroke":"#388E3C","stroke-width":4},"geometry":{"type":"LineString","coordinates":[[-0.1023875,51.51773],[-0.1022526,51.51772]]}},{"type":"Feature","properties":{"Title":"C11","Direction":"TwoWay","Flow":null,"Protection":null,"Ownership":null,"YearBuilt":null,"Borough":"City of London","LengthInMetres":9,"stroke":"#388E3C","stroke-width":4},"geometry":{"type":"LineString","coordinates":[[-0.1012468,51.51801],[-0.101228,51.51809]]}},{"type":"Feature","properties":{"Title":"C11","Direction":"TwoWay","Flow":null,"Protection":null,"Ownership":null,"YearBuilt":null,"Borough":"City of London","LengthInMetres":8,"stroke":"#388E3C","stroke-width":4},"geometry":{"type":"LineString","coordinates":[[-0.1014292,51.51769],[-0.1013112,51.51768]]}},{"type":"Feature","properties":{"Title":"C11","Direction":"TwoWay","Flow":null,"Protection":null,"Ownership":null,"YearBuilt":null,"Borough":"City of London","LengthInMetres":62,"stroke":"#388E3C","stroke-width":4},"geometry":{"type":"LineString","coordinates":[[-0.096517,51.52026],[-0.0956544,51.52042]]}},{"type":"Feature","properties":{"Title":"Q11","Direction":"TwoWay","Flow":null,"Protection":null,"Ownership":null,"YearBuilt":null,"Borough":"City of London","LengthInMetres":15,"stroke":"#388E3C","stroke-width":4},"geometry":{"type":"LineString","coordinates":[[-0.0911501,51.51816],[-0.0910401,51.51828]]}},{"type":"Feature","properties":{"Title":"Q11","Direction":"OneWay","Flow":null,"Protection":null,"Ownership":null,"YearBuilt":null,"Borough":"City of London","LengthInMetres":10,"stroke":"#388E3C","stroke-width":2},"geometry":{"type":"LineString","coordinates":[[-0.093784,51.51733],[-0.0937411,51.51742]]}},{"type":"Feature","properties":{"Title":"Goodmans Yard","Direction":"TwoWay","Flow":null,"Protection":null,"Ownership":null,"YearBuilt":null,"Borough":"City of London","LengthInMetres":119,"stroke":"#388E3C","stroke-width":4},"geometry":{"type":"LineString","coordinates":[[-0.0731964,51.51128],[-0.0733144,51.51126],[-0.0748165,51.51123],[-0.0748969,51.51125]]}},{"type":"Feature","properties":{"Title":"Queen Victoria Street","Direction":"OneWay","Flow":null,"Protection":null,"Ownership":null,"YearBuilt":null,"Borough":"City of London","LengthInMetres":104,"stroke":"#388E3C","stroke-width":2},"geometry":{"type":"LineString","coordinates":[[-0.0979851,51.51198],[-0.097277,51.51195],[-0.0964937,51.51199]]}},{"type":"Feature","properties":{"Title":"Safer Junctions","Direction":"TwoWay","Flow":null,"Protection":null,"Ownership":null,"YearBuilt":null,"Borough":"City of London","LengthInMetres":63,"stroke":"#388E3C","stroke-width":4},"geometry":{"type":"LineString","coordinates":[[-0.0773794,51.51406],[-0.0773237,51.51401],[-0.0772412,51.51396],[-0.0770495,51.51383],[-0.0767946,51.51363]]}},{"type":"Feature","properties":{"Title":"Jewry Street","Direction":"TwoWay","Flow":null,"Protection":null,"Ownership":null,"YearBuilt":null,"Borough":"City of London","LengthInMetres":13,"stroke":"#388E3C","stroke-width":4},"geometry":{"type":"LineString","coordinates":[[-0.0766823,51.51348],[-0.0766631,51.51336]]}},{"type":"Feature","properties":{"Title":"Snow Hill","Direction":"OneWay","Flow":null,"Protection":null,"Ownership":null,"YearBuilt":null,"Borough":"City of London","LengthInMetres":23,"stroke":"#388E3C","stroke-width":2},"geometry":{"type":"LineString","coordinates":[[-0.1035328,51.51743],[-0.1035248,51.51737],[-0.1034872,51.51731],[-0.1034282,51.51728],[-0.1033746,51.51726]]}},{"type":"Feature","properties":{"Title":"Fann Street","Direction":"TwoWay","Flow":null,"Protection":null,"Ownership":null,"YearBuilt":null,"Borough":"City of London","LengthInMetres":8,"stroke":"#388E3C","stroke-width":4},"geometry":{"type":"LineString","coordinates":[[-0.095624,51.52169],[-0.095559,51.52169],[-0.095505,51.5217]]}},{"type":"Feature","properties":{"Title":"Upper Thames Street Crossing","Direction":"TwoWay","Flow":null,"Protection":null,"Ownership":null,"YearBuilt":null,"Borough":"City of London","LengthInMetres":15,"stroke":"#388E3C","stroke-width":4},"geometry":{"type":"LineString","coordinates":[[-0.091235,51.51047],[-0.091222,51.5105],[-0.091202,51.51056],[-0.091192,51.5106]]}},{"type":"Feature","properties":{"Title":"Black Friars Lane","Direction":"TwoWay","Flow":null,"Protection":null,"Ownership":null,"YearBuilt":null,"Borough":"City of London","LengthInMetres":8,"stroke":"#388E3C","stroke-width":4},"geometry":{"type":"LineString","coordinates":[[-0.103337,51.51279],[-0.103336,51.51277],[-0.103336,51.51276],[-0.103341,51.51274],[-0.103344,51.51272]]}},{"type":"Feature","properties":{"Title":"St Andrew's Hill","Direction":"TwoWay","Flow":null,"Protection":null,"Ownership":null,"YearBuilt":null,"Borough":"City of London","LengthInMetres":5,"stroke":"#388E3C","stroke-width":4},"geometry":{"type":"LineString","coordinates":[[-0.101245,51.51277],[-0.101258,51.51276],[-0.10127,51.51275],[-0.10129,51.51273]]}},{"type":"Feature","properties":{"Title":"Goldiman Street","Direction":"TwoWay","Flow":null,"Protection":null,"Ownership":null,"YearBuilt":null,"Borough":"City of London","LengthInMetres":17,"stroke":"#388E3C","stroke-width":4},"geometry":{"type":"LineString","coordinates":[[-0.099045,51.51218],[-0.099047,51.5121],[-0.099047,51.51203]]}},{"type":"Feature","properties":{"Title":"Distaff Lane","Direction":"TwoWay","Flow":null,"Protection":null,"Ownership":null,"YearBuilt":null,"Borough":"City of London","LengthInMetres":9,"stroke":"#388E3C","stroke-width":4},"geometry":{"type":"LineString","coordinates":[[-0.097986,51.51205],[-0.09799,51.51197]]}},{"type":"Feature","properties":{"Title":"Middlesex Street","Direction":"TwoWay","Flow":null,"Protection":null,"Ownership":null,"YearBuilt":null,"Borough":"City of London","LengthInMetres":6,"stroke":"#388E3C","stroke-width":4},"geometry":{"type":"LineString","coordinates":[[-0.074064,51.51452],[-0.0740916,51.51453],[-0.0741236,51.51456]]}},{"type":"Feature","properties":{"Title":"Middlesex Street","Direction":"TwoWay","Flow":null,"Protection":null,"Ownership":null,"YearBuilt":null,"Borough":"City of London","LengthInMetres":15,"stroke":"#388E3C","stroke-width":4},"geometry":{"type":"LineString","coordinates":[[-0.0746067,51.51493],[-0.0746937,51.51494],[-0.0747849,51.51495],[-0.0748238,51.51494]]}},{"type":"Feature","properties":{"Title":"Mark Lane","Direction":"TwoWay","Flow":null,"Protection":null,"Ownership":null,"YearBuilt":null,"Borough":"City of London","LengthInMetres":13,"stroke":"#388E3C","stroke-width":4},"geometry":{"type":"LineString","coordinates":[[-0.080137,51.51114],[-0.08016,51.51102]]}},{"type":"Feature","properties":{"Title":"Cheapside - City of London","Direction":"TwoWay","Flow":null,"Protection":null,"Ownership":null,"YearBuilt":null,"Borough":"City of London","LengthInMetres":23,"stroke":"#388E3C","stroke-width":4},"geometry":{"type":"LineString","coordinates":[[-0.0951686,51.5143],[-0.0948521,51.51425]]}},{"type":"Feature","properties":{"Title":"Old Broad St - City of London","Direction":"OneWay","Flow":null,"Protection":null,"Ownership":null,"YearBuilt":null,"Borough":"City of London","LengthInMetres":308,"stroke":"#388E3C","stroke-width":2},"geometry":{"type":"LineString","coordinates":[[-0.0862143,51.51412],[-0.0861392,51.51426],[-0.0856886,51.51466],[-0.0853882,51.51487],[-0.0850234,51.51499],[-0.0847123,51.51514],[-0.0845138,51.51527],[-0.0842777,51.51553],[-0.0839773,51.51586],[-0.0838379,51.51603],[-0.0836876,51.51622],[-0.0836501,51.5163]]}},{"type":"Feature","properties":{"Title":"Threadneedle St - City of London","Direction":"OneWay","Flow":null,"Protection":null,"Ownership":null,"YearBuilt":null,"Borough":"City of London","LengthInMetres":373,"stroke":"#388E3C","stroke-width":2},"geometry":{"type":"LineString","coordinates":[[-0.0888429,51.51342],[-0.0887004,51.51349],[-0.088499,51.51358],[-0.0876202,51.51383],[-0.0872933,51.51391],[-0.0868537,51.514],[-0.0864274,51.51411],[-0.0856135,51.51417],[-0.0848559,51.51429],[-0.0841478,51.51443],[-0.083783,51.51444]]}},{"type":"Feature","properties":{"Title":"London Bridge - City of London","Direction":"TwoWay","Flow":null,"Protection":null,"Ownership":null,"YearBuilt":null,"Borough":"City of London","LengthInMetres":205,"stroke":"#388E3C","stroke-width":4},"geometry":{"type":"LineString","coordinates":[[-0.0871252,51.50967],[-0.087745,51.50787]]}},{"type":"Feature","properties":{"Title":"Moorgate (City of London)","Direction":"OneWay","Flow":null,"Protection":null,"Ownership":null,"YearBuilt":null,"Borough":"City of London","LengthInMetres":513,"stroke":"#388E3C","stroke-width":2},"geometry":{"type":"LineString","coordinates":[[-0.0896592,51.51481],[-0.089068,51.51639],[-0.0885959,51.51746],[-0.0877417,51.51926]]}},{"type":"Feature","properties":{"Title":"Old Jewry - City of London","Direction":"TwoWay","Flow":null,"Protection":null,"Ownership":null,"YearBuilt":null,"Borough":"City of London","LengthInMetres":23,"stroke":"#388E3C","stroke-width":4},"geometry":{"type":"LineString","coordinates":[[-0.0911643,51.51366],[-0.0910677,51.51386]]}},{"type":"Feature","properties":{"Title":"St Botolph Street - City of London","Direction":"TwoWay","Flow":null,"Protection":null,"Ownership":null,"YearBuilt":null,"Borough":"City of London","LengthInMetres":74,"stroke":"#388E3C","stroke-width":4},"geometry":{"type":"LineString","coordinates":[[-0.0758202,51.51463],[-0.0760884,51.51454],[-0.0763351,51.51445],[-0.0765256,51.5144],[-0.0767589,51.51432]]}},{"type":"Feature","properties":{"Title":"Dukes Place - City of London","Direction":"OneWay","Flow":null,"Protection":null,"Ownership":null,"YearBuilt":null,"Borough":"City of London","LengthInMetres":61,"stroke":"#388E3C","stroke-width":2},"geometry":{"type":"LineString","coordinates":[[-0.0775422,51.51413],[-0.0776844,51.51418],[-0.0778024,51.51424],[-0.0780465,51.51436],[-0.0781779,51.51442],[-0.0782423,51.51446]]}},{"type":"Feature","properties":{"Title":"Bevis Marks - City of London","Direction":"OneWay","Flow":null,"Protection":null,"Ownership":null,"YearBuilt":null,"Borough":"City of London","LengthInMetres":114,"stroke":"#388E3C","stroke-width":2},"geometry":{"type":"LineString","coordinates":[[-0.0786151,51.51466],[-0.0788867,51.51481],[-0.0790932,51.51493],[-0.079391,51.51511],[-0.079737,51.51531],[-0.0798228,51.51536]]}},{"type":"Feature","properties":{"Title":"Bevis Marks - City of London","Direction":"OneWay","Flow":null,"Protection":null,"Ownership":null,"YearBuilt":null,"Borough":"City of London","LengthInMetres":52,"stroke":"#388E3C","stroke-width":2},"geometry":{"type":"LineString","coordinates":[[-0.0800481,51.51548],[-0.0802761,51.51561],[-0.080606,51.51579]]}}]}