{"type":"FeatureCollection","features":[{"type":"Feature","properties":{"Title":"Cherry Orchard Road","Direction":"OneWay","Flow":null,"Protection":null,"Ownership":null,"YearBuilt":null,"Borough":"Croydon","LengthInMetres":62,"stroke":"#FF7043","stroke-width":2},"geometry":{"type":"LineString","coordinates":[[-0.0910897,51.37534],[-0.0911755,51.37544],[-0.0912828,51.37565],[-0.0912935,51.37587]]}},{"type":"Feature","properties":{"Title":"Addiscombe Road","Direction":"OneWay","Flow":null,"Protection":null,"Ownership":null,"YearBuilt":null,"Borough":"Croydon","LengthInMetres":106,"stroke":"#FF7043","stroke-width":2},"geometry":{"type":"LineString","coordinates":[[-0.0909395,51.3755],[-0.0908429,51.37539],[-0.0904781,51.37531],[-0.0904352,51.37518],[-0.0904352,51.37486],[-0.090446,51.37473]]}},{"type":"Feature","properties":{"Title":"Poplar Walk","Direction":"OneWay","Flow":null,"Protection":null,"Ownership":null,"YearBuilt":null,"Borough":"Croydon","LengthInMetres":431,"stroke":"#FF7043","stroke-width":2},"geometry":{"type":"LineString","coordinates":[[-0.0954777,51.37876],[-0.0966955,51.37917],[-0.0969825,51.37919],[-0.099544,51.37846],[-0.0996406,51.37837],[-0.0998122,51.37832],[-0.1000053,51.37831],[-0.1010139,51.37797]]}},{"type":"Feature","properties":{"Title":"Cross Road","Direction":"OneWay","Flow":null,"Protection":null,"Ownership":null,"YearBuilt":null,"Borough":"Croydon","LengthInMetres":140,"stroke":"#FF7043","stroke-width":2},"geometry":{"type":"LineString","coordinates":[[-0.0898666,51.38086],[-0.0900061,51.38073],[-0.0902314,51.38062],[-0.0904245,51.38053],[-0.0907464,51.38029],[-0.0908,51.38019],[-0.0907678,51.38007],[-0.0906927,51.37984]]}},{"type":"Feature","properties":{"Title":"Croydon High Street","Direction":"TwoWay","Flow":null,"Protection":null,"Ownership":null,"YearBuilt":null,"Borough":"Croydon","LengthInMetres":95,"stroke":"#FF7043","stroke-width":4},"geometry":{"type":"LineString","coordinates":[[-0.1003457,51.37236],[-0.1002867,51.37241],[-0.1002491,51.3725],[-0.100233,51.37267],[-0.100233,51.37286],[-0.1002276,51.37302],[-0.100233,51.3731],[-0.1002813,51.37319]]}},{"type":"Feature","properties":{"Title":"Park Lane","Direction":"TwoWay","Flow":null,"Protection":null,"Ownership":null,"YearBuilt":null,"Borough":"Croydon","LengthInMetres":224,"stroke":"#FF7043","stroke-width":4},"geometry":{"type":"LineString","coordinates":[[-0.0963706,51.37369],[-0.0962955,51.37355],[-0.0962419,51.37337],[-0.0962151,51.37304],[-0.0962794,51.37267],[-0.0963438,51.37248],[-0.0964189,51.37227],[-0.0964404,51.37204],[-0.0964296,51.37194],[-0.0963975,51.3719],[-0.0963384,51.37189],[-0.0962312,51.37186],[-0.0961078,51.37184]]}},{"type":"Feature","properties":{"Title":"Dagnall Park","Direction":"TwoWay","Flow":null,"Protection":null,"Ownership":null,"YearBuilt":null,"Borough":"Croydon","LengthInMetres":19,"stroke":"#FF7043","stroke-width":4},"geometry":{"type":"LineString","coordinates":[[-0.089455,51.39277],[-0.089374,51.39293]]}},{"type":"Feature","properties":{"Title":"London Road - LB Croydon","Direction":"TwoWay","Flow":null,"Protection":null,"Ownership":null,"YearBuilt":null,"Borough":"Croydon","LengthInMetres":335,"stroke":"#FF7043","stroke-width":4},"geometry":{"type":"LineString","coordinates":[[-0.1140074,51.39309],[-0.1138467,51.39269],[-0.1136593,51.3924],[-0.1133059,51.3919],[-0.1128565,51.39132],[-0.1124834,51.39082],[-0.1123516,51.39052],[-0.1122598,51.3903]]}},{"type":"Feature","properties":{"Title":"Dingwall Road - LB Croydon","Direction":"TwoWay","Flow":null,"Protection":null,"Ownership":null,"YearBuilt":null,"Borough":"Croydon","LengthInMetres":280,"stroke":"#FF7043","stroke-width":4},"geometry":{"type":"LineString","coordinates":[[-0.0939552,51.37456],[-0.0943092,51.37509],[-0.0945024,51.37536],[-0.0945989,51.37555],[-0.0949852,51.37616],[-0.0954939,51.37688]]}},{"type":"Feature","properties":{"Title":"London Road - LB Croydon","Direction":"TwoWay","Flow":null,"Protection":null,"Ownership":null,"YearBuilt":null,"Borough":"Croydon","LengthInMetres":122,"stroke":"#FF7043","stroke-width":4},"geometry":{"type":"LineString","coordinates":[[-0.1115009,51.38836],[-0.1112863,51.38782],[-0.1111147,51.38729]]}},{"type":"Feature","properties":{"Title":"London Road - LB Croydon","Direction":"TwoWay","Flow":null,"Protection":null,"Ownership":null,"YearBuilt":null,"Borough":"Croydon","LengthInMetres":74,"stroke":"#FF7043","stroke-width":4},"geometry":{"type":"LineString","coordinates":[[-0.1095375,51.38506],[-0.1092854,51.38481],[-0.1090387,51.38447]]}},{"type":"Feature","properties":{"Title":"Lansdowne Road - LB Croydon","Direction":"OneWay","Flow":null,"Protection":null,"Ownership":null,"YearBuilt":null,"Borough":"Croydon","LengthInMetres":147,"stroke":"#FF7043","stroke-width":2},"geometry":{"type":"LineString","coordinates":[[-0.0954939,51.37688],[-0.0957084,51.37691],[-0.0974304,51.37643]]}},{"type":"Feature","properties":{"Title":"Dingwall Road - LB Croydon","Direction":"TwoWay","Flow":null,"Protection":null,"Ownership":null,"YearBuilt":null,"Borough":"Croydon","LengthInMetres":174,"stroke":"#FF7043","stroke-width":4},"geometry":{"type":"LineString","coordinates":[[-0.0956018,51.37691],[-0.0955321,51.37703],[-0.0956501,51.37713],[-0.0957359,51.37737],[-0.0957735,51.37765],[-0.0957574,51.37789],[-0.0955589,51.37842]]}},{"type":"Feature","properties":{"Title":"Croydon High Street - LB Croydon","Direction":"TwoWay","Flow":null,"Protection":null,"Ownership":null,"YearBuilt":null,"Borough":"Croydon","LengthInMetres":173,"stroke":"#FF7043","stroke-width":4},"geometry":{"type":"LineString","coordinates":[[-0.1001794,51.37083],[-0.1003027,51.37114],[-0.1003778,51.37134],[-0.1004047,51.37143],[-0.100453,51.37174],[-0.1004369,51.37195],[-0.10041,51.37226],[-0.1003457,51.37236]]}},{"type":"Feature","properties":{"Title":"Croydon High Street - LB Croydon","Direction":"OneWay","Flow":null,"Protection":null,"Ownership":null,"YearBuilt":null,"Borough":"Croydon","LengthInMetres":58,"stroke":"#FF7043","stroke-width":2},"geometry":{"type":"LineString","coordinates":[[-0.1002813,51.37319],[-0.1003215,51.37329],[-0.1003564,51.37347],[-0.1003832,51.3736],[-0.1003886,51.37367],[-0.1003725,51.3737]]}},{"type":"Feature","properties":{"Title":"Katharine Street - LB Croydon","Direction":"TwoWay","Flow":null,"Protection":null,"Ownership":null,"YearBuilt":null,"Borough":"Croydon","LengthInMetres":125,"stroke":"#FF7043","stroke-width":4},"geometry":{"type":"LineString","coordinates":[[-0.1003591,51.37233],[-0.098562,51.37235]]}},{"type":"Feature","properties":{"Title":"Holmesdale Road","Direction":"TwoWay","Flow":null,"Protection":null,"Ownership":null,"YearBuilt":null,"Borough":"Croydon","LengthInMetres":9,"stroke":"#FF7043","stroke-width":4},"geometry":{"type":"LineString","coordinates":[[-0.083355,51.39798],[-0.083255,51.39803]]}},{"type":"Feature","properties":{"Title":"Holmesdale Road","Direction":"TwoWay","Flow":null,"Protection":null,"Ownership":null,"YearBuilt":null,"Borough":"Croydon","LengthInMetres":9,"stroke":"#FF7043","stroke-width":4},"geometry":{"type":"LineString","coordinates":[[-0.08354,51.3979],[-0.083439,51.39795]]}},{"type":"Feature","properties":{"Title":"Holmesdale Road","Direction":"TwoWay","Flow":null,"Protection":null,"Ownership":null,"YearBuilt":null,"Borough":"Croydon","LengthInMetres":8,"stroke":"#FF7043","stroke-width":4},"geometry":{"type":"LineString","coordinates":[[-0.079131,51.39954],[-0.079034,51.39957]]}},{"type":"Feature","properties":{"Title":"Elmers Road","Direction":"TwoWay","Flow":null,"Protection":null,"Ownership":null,"YearBuilt":null,"Borough":"Croydon","LengthInMetres":6,"stroke":"#FF7043","stroke-width":4},"geometry":{"type":"LineString","coordinates":[[-0.071497,51.38548],[-0.071406,51.38548]]}},{"type":"Feature","properties":{"Title":"Dalmally Road","Direction":"TwoWay","Flow":null,"Protection":null,"Ownership":null,"YearBuilt":null,"Borough":"Croydon","LengthInMetres":17,"stroke":"#FF7043","stroke-width":4},"geometry":{"type":"LineString","coordinates":[[-0.0712,51.38464],[-0.071187,51.38465],[-0.071004,51.38473]]}}]}