{"type":"FeatureCollection","features":[{"type":"Feature","properties":{"Title":"C34","Direction":"TwoWay","Flow":null,"Protection":null,"Ownership":null,"YearBuilt":null,"Borough":"Ealing","LengthInMetres":818,"stroke":"#FF7043","stroke-width":4},"geometry":{"type":"LineString","coordinates":[[-0.2489346,51.51377],[-0.2497867,51.51376],[-0.2506289,51.51377],[-0.2523885,51.5139],[-0.2532253,51.51402],[-0.2542982,51.51422],[-0.2558377,51.51462],[-0.2570286,51.51503],[-0.2580801,51.51549],[-0.2596787,51.51627]]}},{"type":"Feature","properties":{"Title":"C34","Direction":"TwoWay","Flow":null,"Protection":null,"Ownership":null,"YearBuilt":null,"Borough":"Ealing","LengthInMetres":30,"stroke":"#FF7043","stroke-width":4},"geometry":{"type":"LineString","coordinates":[[-0.2596787,51.51627],[-0.2599764,51.51646]]}},{"type":"Feature","properties":{"Title":"C34","Direction":"OneWay","Flow":null,"Protection":null,"Ownership":null,"YearBuilt":null,"Borough":"Ealing","LengthInMetres":194,"stroke":"#FF7043","stroke-width":2},"geometry":{"type":"LineString","coordinates":[[-0.2599764,51.51646],[-0.2603174,51.51671],[-0.2607358,51.51703],[-0.2609933,51.51723],[-0.2614547,51.5177],[-0.2615781,51.51788]]}},{"type":"Feature","properties":{"Title":"C34","Direction":"TwoWay","Flow":null,"Protection":null,"Ownership":null,"YearBuilt":null,"Borough":"Ealing","LengthInMetres":804,"stroke":"#FF7043","stroke-width":4},"geometry":{"type":"LineString","coordinates":[[-0.2615781,51.51788],[-0.2617444,51.51818],[-0.2621467,51.5188],[-0.2623505,51.51908],[-0.2626295,51.51935],[-0.2626349,51.51947],[-0.2628709,51.51986],[-0.2632303,51.52047],[-0.2636809,51.52126],[-0.2638365,51.52142],[-0.2640135,51.52157],[-0.2639706,51.52176],[-0.2641691,51.52204],[-0.2644427,51.52236],[-0.2647538,51.52268],[-0.2650703,51.52294],[-0.2655209,51.52327],[-0.2659232,51.52351],[-0.266449,51.52377],[-0.2670444,51.52403]]}},{"type":"Feature","properties":{"Title":"LCN 87","Direction":"TwoWay","Flow":null,"Protection":null,"Ownership":null,"YearBuilt":null,"Borough":"Ealing","LengthInMetres":26,"stroke":"#FF7043","stroke-width":4},"geometry":{"type":"LineString","coordinates":[[-0.3251909,51.49605],[-0.3250863,51.49599],[-0.3248833,51.49592]]}},{"type":"Feature","properties":{"Title":"Merrick Road","Direction":"TwoWay","Flow":null,"Protection":null,"Ownership":null,"YearBuilt":null,"Borough":"Ealing","LengthInMetres":416,"stroke":"#FF7043","stroke-width":4},"geometry":{"type":"LineString","coordinates":[[-0.3767463,51.50147],[-0.3765317,51.50186],[-0.3765102,51.50245],[-0.3764673,51.50305],[-0.3763815,51.50364],[-0.3762528,51.50395],[-0.3762742,51.50445],[-0.3762098,51.50492],[-0.3761669,51.50517]]}},{"type":"Feature","properties":{"Title":"Uxbridge Road","Direction":"TwoWay","Flow":null,"Protection":null,"Ownership":null,"YearBuilt":null,"Borough":"Ealing","LengthInMetres":116,"stroke":"#FF7043","stroke-width":4},"geometry":{"type":"LineString","coordinates":[[-0.2906941,51.51109],[-0.2891706,51.51067]]}},{"type":"Feature","properties":{"Title":"Uxbridge Road","Direction":"OneWay","Flow":null,"Protection":null,"Ownership":null,"YearBuilt":null,"Borough":"Ealing","LengthInMetres":50,"stroke":"#FF7043","stroke-width":2},"geometry":{"type":"LineString","coordinates":[[-0.2742574,51.50816],[-0.2744935,51.50823],[-0.2746866,51.50827],[-0.2749333,51.5083]]}},{"type":"Feature","properties":{"Title":"King Street","Direction":"TwoWay","Flow":null,"Protection":null,"Ownership":null,"YearBuilt":null,"Borough":"Ealing","LengthInMetres":117,"stroke":"#FF7043","stroke-width":4},"geometry":{"type":"LineString","coordinates":[[-0.27127,51.50808],[-0.2719996,51.50798],[-0.2725146,51.50791],[-0.2728472,51.50776]]}},{"type":"Feature","properties":{"Title":"Langley Drive","Direction":"OneWay","Flow":null,"Protection":null,"Ownership":null,"YearBuilt":null,"Borough":"Ealing","LengthInMetres":208,"stroke":"#FF7043","stroke-width":2},"geometry":{"type":"LineString","coordinates":[[-0.2728472,51.50776],[-0.2731368,51.50761],[-0.273963,51.50698],[-0.2742741,51.50677],[-0.2743599,51.50659],[-0.2743706,51.50624]]}},{"type":"Feature","properties":{"Title":"Little Ealing Lane","Direction":"OneWay","Flow":null,"Protection":null,"Ownership":null,"YearBuilt":null,"Borough":"Ealing","LengthInMetres":136,"stroke":"#FF7043","stroke-width":2},"geometry":{"type":"LineString","coordinates":[[-0.3103046,51.49752],[-0.3096287,51.49776],[-0.3093765,51.4978],[-0.3084699,51.49792]]}},{"type":"Feature","properties":{"Title":"White Hart Roundabout","Direction":"TwoWay","Flow":null,"Protection":null,"Ownership":null,"YearBuilt":null,"Borough":"Ealing","LengthInMetres":5,"stroke":"#FF7043","stroke-width":4},"geometry":{"type":"LineString","coordinates":[[-0.3914619,51.53695],[-0.3914915,51.53691]]}},{"type":"Feature","properties":{"Title":"White Hart Roundabout","Direction":"TwoWay","Flow":null,"Protection":null,"Ownership":null,"YearBuilt":null,"Borough":"Ealing","LengthInMetres":55,"stroke":"#FF7043","stroke-width":4},"geometry":{"type":"LineString","coordinates":[[-0.3914915,51.53691],[-0.3907995,51.53666]]}},{"type":"Feature","properties":{"Title":"White Hart Roundabout","Direction":"TwoWay","Flow":null,"Protection":null,"Ownership":null,"YearBuilt":null,"Borough":"Ealing","LengthInMetres":26,"stroke":"#FF7043","stroke-width":4},"geometry":{"type":"LineString","coordinates":[[-0.3907995,51.53666],[-0.3904776,51.53655],[-0.3904733,51.53655]]}},{"type":"Feature","properties":{"Title":"White Hart Roundabout","Direction":"TwoWay","Flow":null,"Protection":null,"Ownership":null,"YearBuilt":null,"Borough":"Ealing","LengthInMetres":12,"stroke":"#FF7043","stroke-width":4},"geometry":{"type":"LineString","coordinates":[[-0.3904733,51.53655],[-0.3903006,51.53656]]}},{"type":"Feature","properties":{"Title":"White Hart Roundabout","Direction":"TwoWay","Flow":null,"Protection":null,"Ownership":null,"YearBuilt":null,"Borough":"Ealing","LengthInMetres":18,"stroke":"#FF7043","stroke-width":4},"geometry":{"type":"LineString","coordinates":[[-0.3903006,51.53656],[-0.3901021,51.53667]]}},{"type":"Feature","properties":{"Title":"White Hart Roundabout","Direction":"TwoWay","Flow":null,"Protection":null,"Ownership":null,"YearBuilt":null,"Borough":"Ealing","LengthInMetres":35,"stroke":"#FF7043","stroke-width":4},"geometry":{"type":"LineString","coordinates":[[-0.3901021,51.53667],[-0.3897803,51.53691]]}},{"type":"Feature","properties":{"Title":"White Hart Roundabout","Direction":"TwoWay","Flow":null,"Protection":null,"Ownership":null,"YearBuilt":null,"Borough":"Ealing","LengthInMetres":12,"stroke":"#FF7043","stroke-width":4},"geometry":{"type":"LineString","coordinates":[[-0.3903006,51.53656],[-0.3904723,51.53655],[-0.3904733,51.53655]]}},{"type":"Feature","properties":{"Title":"White Hart Roundabout","Direction":"TwoWay","Flow":null,"Protection":null,"Ownership":null,"YearBuilt":null,"Borough":"Ealing","LengthInMetres":26,"stroke":"#FF7043","stroke-width":4},"geometry":{"type":"LineString","coordinates":[[-0.3904733,51.53655],[-0.3907995,51.53666]]}},{"type":"Feature","properties":{"Title":"White Hart Roundabout","Direction":"TwoWay","Flow":null,"Protection":null,"Ownership":null,"YearBuilt":null,"Borough":"Ealing","LengthInMetres":253,"stroke":"#FF7043","stroke-width":4},"geometry":{"type":"LineString","coordinates":[[-0.3914915,51.53691],[-0.391513,51.53687],[-0.3914848,51.53685],[-0.390998,51.53668],[-0.3908263,51.53659],[-0.3907673,51.53652],[-0.3907351,51.5363],[-0.3907083,51.53608],[-0.3907632,51.53608],[-0.3908049,51.53606],[-0.3910248,51.53618],[-0.3914057,51.53635],[-0.3915559,51.53643],[-0.3919958,51.5368],[-0.392028,51.53681],[-0.3921004,51.53679]]}},{"type":"Feature","properties":{"Title":"White Hart Lane Roundabout","Direction":"TwoWay","Flow":null,"Protection":null,"Ownership":null,"YearBuilt":null,"Borough":"Ealing","LengthInMetres":126,"stroke":"#FF7043","stroke-width":4},"geometry":{"type":"LineString","coordinates":[[-0.3921567,51.53701],[-0.3921728,51.53689],[-0.3920869,51.53677],[-0.3917101,51.53634],[-0.3916695,51.53632],[-0.3915981,51.53628],[-0.3914955,51.53624],[-0.3914741,51.53622],[-0.3914734,51.53618],[-0.3914861,51.53615],[-0.3916497,51.53607]]}},{"type":"Feature","properties":{"Title":"White Hart Lane Roundabout","Direction":"TwoWay","Flow":null,"Protection":null,"Ownership":null,"YearBuilt":null,"Borough":"Ealing","LengthInMetres":114,"stroke":"#FF7043","stroke-width":4},"geometry":{"type":"LineString","coordinates":[[-0.3923135,51.53575],[-0.3922706,51.53578],[-0.3921271,51.53583],[-0.3919809,51.53586],[-0.3919078,51.53587],[-0.3918347,51.53586],[-0.3916765,51.53582],[-0.3916027,51.53581],[-0.3915142,51.5358],[-0.3914538,51.53581],[-0.391423,51.53582],[-0.3910904,51.53588],[-0.3908115,51.53599]]}},{"type":"Feature","properties":{"Title":"White Hart Lane Roundabout","Direction":"TwoWay","Flow":null,"Protection":null,"Ownership":null,"YearBuilt":null,"Borough":"Ealing","LengthInMetres":5,"stroke":"#FF7043","stroke-width":4},"geometry":{"type":"LineString","coordinates":[[-0.3908115,51.53599],[-0.3908222,51.53603]]}},{"type":"Feature","properties":{"Title":"White Hart Lane Roundabout","Direction":"TwoWay","Flow":null,"Protection":null,"Ownership":null,"YearBuilt":null,"Borough":"Ealing","LengthInMetres":4,"stroke":"#FF7043","stroke-width":4},"geometry":{"type":"LineString","coordinates":[[-0.3908222,51.53603],[-0.3908049,51.53606]]}},{"type":"Feature","properties":{"Title":"White Hart Lane Roundabout","Direction":"TwoWay","Flow":null,"Protection":null,"Ownership":null,"YearBuilt":null,"Borough":"Ealing","LengthInMetres":225,"stroke":"#FF7043","stroke-width":4},"geometry":{"type":"LineString","coordinates":[[-0.3908115,51.53599],[-0.3907417,51.53597],[-0.3906988,51.53598],[-0.3906076,51.53586],[-0.3905044,51.53574],[-0.3902697,51.53548],[-0.3901275,51.53531],[-0.3900122,51.53524],[-0.3898834,51.53517],[-0.3897493,51.53513],[-0.3895616,51.53512],[-0.3894704,51.53514],[-0.3891163,51.53486],[-0.3887703,51.53458]]}},{"type":"Feature","properties":{"Title":"White Hart Lane Roundabout","Direction":"TwoWay","Flow":null,"Protection":null,"Ownership":null,"YearBuilt":null,"Borough":"Ealing","LengthInMetres":7,"stroke":"#FF7043","stroke-width":4},"geometry":{"type":"LineString","coordinates":[[-0.3906988,51.53598],[-0.3906642,51.53599],[-0.3906508,51.53603]]}},{"type":"Feature","properties":{"Title":"White Hart Lane Roundabout","Direction":"TwoWay","Flow":null,"Protection":null,"Ownership":null,"YearBuilt":null,"Borough":"Ealing","LengthInMetres":15,"stroke":"#FF7043","stroke-width":4},"geometry":{"type":"LineString","coordinates":[[-0.3906508,51.53603],[-0.3906615,51.53606],[-0.3907083,51.53608],[-0.3906615,51.53606],[-0.3906508,51.53603]]}},{"type":"Feature","properties":{"Title":"White Hart Lane Roundabout","Direction":"TwoWay","Flow":null,"Protection":null,"Ownership":null,"YearBuilt":null,"Borough":"Ealing","LengthInMetres":178,"stroke":"#FF7043","stroke-width":4},"geometry":{"type":"LineString","coordinates":[[-0.3906508,51.53603],[-0.3904416,51.53604],[-0.3901707,51.53606],[-0.3899266,51.53608],[-0.3898019,51.53608],[-0.3897429,51.53605],[-0.389716,51.53602],[-0.3896932,51.53593],[-0.3896275,51.53573],[-0.3895793,51.53562],[-0.3895256,51.5355],[-0.3895068,51.53548],[-0.3894478,51.53542],[-0.389543,51.53537],[-0.3896061,51.53532],[-0.389543,51.53527],[-0.3895616,51.53512]]}},{"type":"Feature","properties":{"Title":"White Hart Lane Roundabout","Direction":"TwoWay","Flow":null,"Protection":null,"Ownership":null,"YearBuilt":null,"Borough":"Ealing","LengthInMetres":156,"stroke":"#FF7043","stroke-width":4},"geometry":{"type":"LineString","coordinates":[[-0.3894478,51.53542],[-0.3893526,51.53545],[-0.3893285,51.5355],[-0.3893365,51.53554],[-0.3894009,51.5356],[-0.3894545,51.53565],[-0.3895001,51.53572],[-0.3895109,51.53576],[-0.389535,51.53596],[-0.3895833,51.53615],[-0.3896155,51.53624],[-0.389653,51.53632],[-0.3896691,51.53636],[-0.3896718,51.53641],[-0.3896584,51.53645],[-0.3896262,51.53651],[-0.3895806,51.53654],[-0.3895645,51.53658],[-0.3895779,51.53663],[-0.3896128,51.53665],[-0.3897224,51.53667]]}},{"type":"Feature","properties":{"Title":"White Hart Lane Roundabout","Direction":"TwoWay","Flow":null,"Protection":null,"Ownership":null,"YearBuilt":null,"Borough":"Ealing","LengthInMetres":6,"stroke":"#FF7043","stroke-width":4},"geometry":{"type":"LineString","coordinates":[[-0.3897224,51.53667],[-0.3897677,51.53672]]}},{"type":"Feature","properties":{"Title":"White Hart Lane Roundabout","Direction":"TwoWay","Flow":null,"Protection":null,"Ownership":null,"YearBuilt":null,"Borough":"Ealing","LengthInMetres":69,"stroke":"#FF7043","stroke-width":4},"geometry":{"type":"LineString","coordinates":[[-0.3897224,51.53667],[-0.3897683,51.53663],[-0.3898086,51.53658],[-0.3898327,51.53651],[-0.38983,51.53644],[-0.3898166,51.53636],[-0.3897791,51.53621],[-0.3897576,51.53613],[-0.389771,51.53611],[-0.3898019,51.53608]]}},{"type":"Feature","properties":{"Title":"The Parkway","Direction":"TwoWay","Flow":null,"Protection":null,"Ownership":null,"YearBuilt":null,"Borough":"Ealing","LengthInMetres":200,"stroke":"#FF7043","stroke-width":4},"geometry":{"type":"LineString","coordinates":[[-0.3920869,51.53365],[-0.3919045,51.53379],[-0.3917436,51.53383],[-0.3915398,51.53372],[-0.3914539,51.53372],[-0.3913037,51.53374],[-0.3911964,51.5338],[-0.3904991,51.53376],[-0.3899412,51.53373],[-0.3894369,51.53374],[-0.3894365,51.53374]]}},{"type":"Feature","properties":{"Title":"The Parkway","Direction":"TwoWay","Flow":null,"Protection":null,"Ownership":null,"YearBuilt":null,"Borough":"Ealing","LengthInMetres":29,"stroke":"#FF7043","stroke-width":4},"geometry":{"type":"LineString","coordinates":[[-0.3894365,51.53374],[-0.3892652,51.53367],[-0.3894262,51.53374],[-0.3894365,51.53374]]}},{"type":"Feature","properties":{"Title":"The Parkway","Direction":"TwoWay","Flow":null,"Protection":null,"Ownership":null,"YearBuilt":null,"Borough":"Ealing","LengthInMetres":93,"stroke":"#FF7043","stroke-width":4},"geometry":{"type":"LineString","coordinates":[[-0.3894365,51.53374],[-0.3899304,51.53373],[-0.3897802,51.53369],[-0.3896944,51.53351],[-0.3896193,51.53336],[-0.389512,51.53332]]}},{"type":"Feature","properties":{"Title":"The Parkway","Direction":"TwoWay","Flow":null,"Protection":null,"Ownership":null,"YearBuilt":null,"Borough":"Ealing","LengthInMetres":26,"stroke":"#FF7043","stroke-width":4},"geometry":{"type":"LineString","coordinates":[[-0.389512,51.53332],[-0.3895227,51.53355]]}},{"type":"Feature","properties":{"Title":"The Parkway","Direction":"TwoWay","Flow":null,"Protection":null,"Ownership":null,"YearBuilt":null,"Borough":"Ealing","LengthInMetres":13,"stroke":"#FF7043","stroke-width":4},"geometry":{"type":"LineString","coordinates":[[-0.3895227,51.53355],[-0.3893618,51.53361]]}},{"type":"Feature","properties":{"Title":"The Parkway","Direction":"TwoWay","Flow":null,"Protection":null,"Ownership":null,"YearBuilt":null,"Borough":"Ealing","LengthInMetres":285,"stroke":"#FF7043","stroke-width":4},"geometry":{"type":"LineString","coordinates":[[-0.389512,51.53332],[-0.3894155,51.53268],[-0.3892009,51.53126],[-0.3891901,51.53115],[-0.3892438,51.53096],[-0.3892545,51.53084],[-0.3892116,51.53078]]}},{"type":"Feature","properties":{"Title":"The Parkway","Direction":"TwoWay","Flow":null,"Protection":null,"Ownership":null,"YearBuilt":null,"Borough":"Ealing","LengthInMetres":9,"stroke":"#FF7043","stroke-width":4},"geometry":{"type":"LineString","coordinates":[[-0.3890614,51.53062],[-0.3891303,51.53055]]}},{"type":"Feature","properties":{"Title":"Castlebar Road","Direction":"OneWay","Flow":null,"Protection":null,"Ownership":null,"YearBuilt":null,"Borough":"Ealing","LengthInMetres":37,"stroke":"#FF7043","stroke-width":2},"geometry":{"type":"LineString","coordinates":[[-0.3107373,51.51905],[-0.3107695,51.51927],[-0.3108231,51.51938]]}},{"type":"Feature","properties":{"Title":"Castlebar Road","Direction":"OneWay","Flow":null,"Protection":null,"Ownership":null,"YearBuilt":null,"Borough":"Ealing","LengthInMetres":126,"stroke":"#FF7043","stroke-width":2},"geometry":{"type":"LineString","coordinates":[[-0.3108768,51.51953],[-0.3111772,51.52022],[-0.3112523,51.52036],[-0.3112737,51.52052],[-0.3113166,51.52063]]}},{"type":"Feature","properties":{"Title":"Castlebar Road","Direction":"OneWay","Flow":null,"Protection":null,"Ownership":null,"YearBuilt":null,"Borough":"Ealing","LengthInMetres":7,"stroke":"#FF7043","stroke-width":2},"geometry":{"type":"LineString","coordinates":[[-0.3113703,51.52079],[-0.3113703,51.52085]]}},{"type":"Feature","properties":{"Title":"Church Road","Direction":"OneWay","Flow":null,"Protection":null,"Ownership":null,"YearBuilt":null,"Borough":"Ealing","LengthInMetres":298,"stroke":"#FF7043","stroke-width":2},"geometry":{"type":"LineString","coordinates":[[-0.2701253,51.50477],[-0.2699429,51.50505],[-0.2698786,51.50526],[-0.2699429,51.50544],[-0.2706296,51.50618],[-0.2711231,51.50672],[-0.2713162,51.50694],[-0.2713377,51.50707],[-0.2713377,51.50719]]}},{"type":"Feature","properties":{"Title":"Warwick Road","Direction":"TwoWay","Flow":null,"Protection":null,"Ownership":null,"YearBuilt":null,"Borough":"Ealing","LengthInMetres":40,"stroke":"#FF7043","stroke-width":4},"geometry":{"type":"LineString","coordinates":[[-0.2921606,51.51004],[-0.2919782,51.51014],[-0.2916456,51.51016]]}},{"type":"Feature","properties":{"Title":"Mattock Lane","Direction":"TwoWay","Flow":null,"Protection":null,"Ownership":null,"YearBuilt":null,"Borough":"Ealing","LengthInMetres":16,"stroke":"#FF7043","stroke-width":4},"geometry":{"type":"LineString","coordinates":[[-0.3191574,51.51008],[-0.3189482,51.51003]]}},{"type":"Feature","properties":{"Title":"Park Avenue Underpass","Direction":"TwoWay","Flow":null,"Protection":null,"Ownership":null,"YearBuilt":null,"Borough":"Ealing","LengthInMetres":23,"stroke":"#FF7043","stroke-width":4},"geometry":{"type":"LineString","coordinates":[[-0.2903099,51.53316],[-0.2903206,51.53318],[-0.2904869,51.53327],[-0.2905367,51.53323]]}},{"type":"Feature","properties":{"Title":"Park Avenue Underpass","Direction":"TwoWay","Flow":null,"Protection":null,"Ownership":null,"YearBuilt":null,"Borough":"Ealing","LengthInMetres":71,"stroke":"#FF7043","stroke-width":4},"geometry":{"type":"LineString","coordinates":[[-0.2905367,51.53323],[-0.290731,51.53306],[-0.2907766,51.53303],[-0.2907578,51.533],[-0.2907203,51.53298],[-0.2906774,51.53299],[-0.2905111,51.53311],[-0.2904843,51.53314],[-0.2904762,51.53318],[-0.2905367,51.53323]]}},{"type":"Feature","properties":{"Title":"Park Avenue Underpass","Direction":"TwoWay","Flow":null,"Protection":null,"Ownership":null,"YearBuilt":null,"Borough":"Ealing","LengthInMetres":97,"stroke":"#FF7043","stroke-width":4},"geometry":{"type":"LineString","coordinates":[[-0.2905367,51.53323],[-0.2905647,51.53325],[-0.2909,51.5335],[-0.2909724,51.5335],[-0.2910717,51.53347],[-0.2912138,51.5334],[-0.2912219,51.53337],[-0.291187,51.53335],[-0.2911468,51.53334],[-0.2911038,51.53335],[-0.2910395,51.53341],[-0.2909831,51.53345],[-0.2909375,51.53345],[-0.2909054,51.53344]]}},{"type":"Feature","properties":{"Title":"Western Avenue","Direction":"TwoWay","Flow":null,"Protection":null,"Ownership":null,"YearBuilt":null,"Borough":"Ealing","LengthInMetres":582,"stroke":"#FF7043","stroke-width":4},"geometry":{"type":"LineString","coordinates":[[-0.26346,51.5215],[-0.2623227,51.51962],[-0.2619794,51.51909],[-0.2616361,51.51861],[-0.2612713,51.51803],[-0.26081,51.51746],[-0.2604257,51.5171],[-0.26025,51.51695],[-0.2599852,51.51677]]}},{"type":"Feature","properties":{"Title":"Friary Road","Direction":"OneWay","Flow":null,"Protection":null,"Ownership":null,"YearBuilt":null,"Borough":"Ealing","LengthInMetres":55,"stroke":"#FF7043","stroke-width":2},"geometry":{"type":"LineString","coordinates":[[-0.2623327,51.51774],[-0.2616138,51.51794]]}},{"type":"Feature","properties":{"Title":"West Walk","Direction":"TwoWay","Flow":null,"Protection":null,"Ownership":null,"YearBuilt":null,"Borough":"Ealing","LengthInMetres":395,"stroke":"#FF7043","stroke-width":4},"geometry":{"type":"LineString","coordinates":[[-0.2988819,51.52257],[-0.2990536,51.522],[-0.2988605,51.52156],[-0.2987746,51.521],[-0.2988605,51.52059],[-0.2990321,51.51984],[-0.299354,51.51909]]}},{"type":"Feature","properties":{"Title":"Mount Avenue","Direction":"TwoWay","Flow":null,"Protection":null,"Ownership":null,"YearBuilt":null,"Borough":"Ealing","LengthInMetres":75,"stroke":"#FF7043","stroke-width":4},"geometry":{"type":"LineString","coordinates":[[-0.2994701,51.52418],[-0.2989229,51.52405],[-0.2984884,51.52391]]}},{"type":"Feature","properties":{"Title":"Ashfield Road","Direction":"OneWay","Flow":null,"Protection":null,"Ownership":null,"YearBuilt":null,"Borough":"Ealing","LengthInMetres":18,"stroke":"#FF7043","stroke-width":2},"geometry":{"type":"LineString","coordinates":[[-0.251113,51.50996],[-0.250978,51.50996],[-0.250917,51.50997],[-0.250858,51.50998]]}},{"type":"Feature","properties":{"Title":"A312","Direction":"TwoWay","Flow":null,"Protection":null,"Ownership":null,"YearBuilt":null,"Borough":"Ealing","LengthInMetres":20,"stroke":"#FF7043","stroke-width":4},"geometry":{"type":"LineString","coordinates":[[-0.361899,51.55628],[-0.362026,51.55644]]}},{"type":"Feature","properties":{"Title":"A312","Direction":"TwoWay","Flow":null,"Protection":null,"Ownership":null,"YearBuilt":null,"Borough":"Ealing","LengthInMetres":65,"stroke":"#FF7043","stroke-width":4},"geometry":{"type":"LineString","coordinates":[[-0.362063,51.55652],[-0.362281,51.55698],[-0.362326,51.55706],[-0.3623462,51.55707]]}},{"type":"Feature","properties":{"Title":"Hanger Vale Lane","Direction":"TwoWay","Flow":null,"Protection":null,"Ownership":null,"YearBuilt":null,"Borough":"Ealing","LengthInMetres":11,"stroke":"#FF7043","stroke-width":4},"geometry":{"type":"LineString","coordinates":[[-0.286747,51.5202],[-0.286611,51.52025]]}},{"type":"Feature","properties":{"Title":"Regina Road","Direction":"TwoWay","Flow":null,"Protection":null,"Ownership":null,"YearBuilt":null,"Borough":"Ealing","LengthInMetres":10,"stroke":"#FF7043","stroke-width":4},"geometry":{"type":"LineString","coordinates":[[-0.324044,51.50817],[-0.323905,51.50819]]}},{"type":"Feature","properties":{"Title":"The Grove","Direction":"TwoWay","Flow":null,"Protection":null,"Ownership":null,"YearBuilt":null,"Borough":"Ealing","LengthInMetres":15,"stroke":"#FF7043","stroke-width":4},"geometry":{"type":"LineString","coordinates":[[-0.304434,51.51055],[-0.304217,51.51056]]}},{"type":"Feature","properties":{"Title":"Regina Road","Direction":"TwoWay","Flow":null,"Protection":null,"Ownership":null,"YearBuilt":null,"Borough":"Ealing","LengthInMetres":10,"stroke":"#FF7043","stroke-width":4},"geometry":{"type":"LineString","coordinates":[[-0.325749,51.5078],[-0.325733,51.50781],[-0.32568,51.50784],[-0.325666,51.50785],[-0.325639,51.50786]]}},{"type":"Feature","properties":{"Title":"Oaklands Road","Direction":"TwoWay","Flow":null,"Protection":null,"Ownership":null,"YearBuilt":null,"Borough":"Ealing","LengthInMetres":7,"stroke":"#FF7043","stroke-width":4},"geometry":{"type":"LineString","coordinates":[[-0.329683,51.50577],[-0.329654,51.50579],[-0.329614,51.50582]]}},{"type":"Feature","properties":{"Title":"Church Road filter","Direction":"TwoWay","Flow":null,"Protection":null,"Ownership":null,"YearBuilt":null,"Borough":"Ealing","LengthInMetres":12,"stroke":"#FF7043","stroke-width":4},"geometry":{"type":"LineString","coordinates":[[-0.388836,51.53758],[-0.388829,51.53759],[-0.388817,51.53761],[-0.3888,51.53762],[-0.388774,51.53764],[-0.388724,51.53766]]}},{"type":"Feature","properties":{"Title":"Acton High Street","Direction":"OneWay","Flow":null,"Protection":null,"Ownership":null,"YearBuilt":null,"Borough":"Ealing","LengthInMetres":93,"stroke":"#FF7043","stroke-width":2},"geometry":{"type":"LineString","coordinates":[[-0.275067,51.50838],[-0.274938,51.50839],[-0.274809,51.50842],[-0.274609,51.50847],[-0.27456,51.50851],[-0.274492,51.50856],[-0.274443,51.50858],[-0.274248,51.50866],[-0.273979,51.50882]]}},{"type":"Feature","properties":{"Title":"Oak Road","Direction":"TwoWay","Flow":null,"Protection":null,"Ownership":null,"YearBuilt":null,"Borough":"Ealing","LengthInMetres":12,"stroke":"#FF7043","stroke-width":4},"geometry":{"type":"LineString","coordinates":[[-0.30075,51.51349],[-0.300742,51.51338]]}},{"type":"Feature","properties":{"Title":"Uxbridge Road","Direction":"TwoWay","Flow":null,"Protection":null,"Ownership":null,"YearBuilt":null,"Borough":"Ealing","LengthInMetres":308,"stroke":"#FF7043","stroke-width":4},"geometry":{"type":"LineString","coordinates":[[-0.3707956,51.51079],[-0.3699373,51.51099],[-0.3690254,51.51121],[-0.3681992,51.51135],[-0.3673624,51.51143],[-0.3667938,51.51143],[-0.3665255,51.5114]]}},{"type":"Feature","properties":{"Title":"Avalon Road","Direction":"OneWay","Flow":null,"Protection":null,"Ownership":null,"YearBuilt":null,"Borough":"Ealing","LengthInMetres":20,"stroke":"#FF7043","stroke-width":2},"geometry":{"type":"LineString","coordinates":[[-0.327977,51.52853],[-0.3279958,51.52871]]}},{"type":"Feature","properties":{"Title":"The Mall","Direction":"OneWay","Flow":null,"Protection":null,"Ownership":null,"YearBuilt":null,"Borough":"Ealing","LengthInMetres":145,"stroke":"#FF7043","stroke-width":2},"geometry":{"type":"LineString","coordinates":[[-0.2995546,51.51405],[-0.2989806,51.51389],[-0.2984469,51.51371],[-0.2977039,51.51345]]}},{"type":"Feature","properties":{"Title":"The Mall","Direction":"OneWay","Flow":null,"Protection":null,"Ownership":null,"YearBuilt":null,"Borough":"Ealing","LengthInMetres":23,"stroke":"#FF7043","stroke-width":2},"geometry":{"type":"LineString","coordinates":[[-0.298066,51.51349],[-0.2977736,51.51339]]}},{"type":"Feature","properties":{"Title":"The Mall","Direction":"OneWay","Flow":null,"Protection":null,"Ownership":null,"YearBuilt":null,"Borough":"Ealing","LengthInMetres":85,"stroke":"#FF7043","stroke-width":2},"geometry":{"type":"LineString","coordinates":[[-0.2975692,51.51331],[-0.2970515,51.51312],[-0.2965178,51.51291]]}},{"type":"Feature","properties":{"Title":"Uxbridge Road","Direction":"OneWay","Flow":null,"Protection":null,"Ownership":null,"YearBuilt":null,"Borough":"Ealing","LengthInMetres":226,"stroke":"#FF7043","stroke-width":2},"geometry":{"type":"LineString","coordinates":[[-0.2960752,51.51282],[-0.2950533,51.51247],[-0.2935835,51.51199],[-0.2931999,51.51186]]}},{"type":"Feature","properties":{"Title":"Uxbridge Road","Direction":"OneWay","Flow":null,"Protection":null,"Ownership":null,"YearBuilt":null,"Borough":"Ealing","LengthInMetres":188,"stroke":"#FF7043","stroke-width":2},"geometry":{"type":"LineString","coordinates":[[-0.2937551,51.51195],[-0.2948602,51.51231],[-0.2961369,51.51275]]}},{"type":"Feature","properties":{"Title":"Greenford Road","Direction":"TwoWay","Flow":null,"Protection":null,"Ownership":null,"YearBuilt":null,"Borough":"Ealing","LengthInMetres":545,"stroke":"#FF7043","stroke-width":4},"geometry":{"type":"LineString","coordinates":[[-0.3423882,51.54388],[-0.3417123,51.54538],[-0.3409183,51.54718],[-0.3405643,51.5479],[-0.3402639,51.5486]]}},{"type":"Feature","properties":{"Title":"Greenford Road","Direction":"TwoWay","Flow":null,"Protection":null,"Ownership":null,"YearBuilt":null,"Borough":"Ealing","LengthInMetres":141,"stroke":"#FF7043","stroke-width":4},"geometry":{"type":"LineString","coordinates":[[-0.3400064,51.5493],[-0.3398133,51.5498],[-0.3396845,51.55022],[-0.3396094,51.55054]]}},{"type":"Feature","properties":{"Title":"Greenford Road","Direction":"TwoWay","Flow":null,"Protection":null,"Ownership":null,"YearBuilt":null,"Borough":"Ealing","LengthInMetres":183,"stroke":"#FF7043","stroke-width":4},"geometry":{"type":"LineString","coordinates":[[-0.3394807,51.55103],[-0.3393519,51.55156],[-0.3392339,51.55196],[-0.339073,51.5523],[-0.3389657,51.55249],[-0.3388718,51.55262]]}},{"type":"Feature","properties":{"Title":"Greenford Road","Direction":"OneWay","Flow":null,"Protection":null,"Ownership":null,"YearBuilt":null,"Borough":"Ealing","LengthInMetres":141,"stroke":"#FF7043","stroke-width":2},"geometry":{"type":"LineString","coordinates":[[-0.3378499,51.55375],[-0.3382924,51.55322],[-0.3384373,51.553],[-0.3385942,51.55279],[-0.3387163,51.5526]]}},{"type":"Feature","properties":{"Title":"Greenford Road","Direction":"OneWay","Flow":null,"Protection":null,"Ownership":null,"YearBuilt":null,"Borough":"Ealing","LengthInMetres":25,"stroke":"#FF7043","stroke-width":2},"geometry":{"type":"LineString","coordinates":[[-0.3388718,51.55262],[-0.338795,51.55275],[-0.3387279,51.55283]]}},{"type":"Feature","properties":{"Title":"Western Avenue","Direction":"TwoWay","Flow":null,"Protection":null,"Ownership":null,"YearBuilt":null,"Borough":"Ealing","LengthInMetres":123,"stroke":"#FF7043","stroke-width":4},"geometry":{"type":"LineString","coordinates":[[-0.2599852,51.51677],[-0.25975,51.5166],[-0.259428,51.51642],[-0.259021,51.51622],[-0.258645,51.51605]]}},{"type":"Feature","properties":{"Title":"Occupation Lane","Direction":"TwoWay","Flow":null,"Protection":null,"Ownership":null,"YearBuilt":null,"Borough":"Ealing","LengthInMetres":306,"stroke":"#FF7043","stroke-width":4},"geometry":{"type":"LineString","coordinates":[[-0.3014856,51.49526],[-0.301494,51.49527],[-0.3017193,51.49532],[-0.3022907,51.49545],[-0.3025937,51.49553],[-0.3028673,51.49559],[-0.3030551,51.49562],[-0.3033045,51.49566],[-0.3035808,51.49569],[-0.3038598,51.49573],[-0.3041977,51.49579],[-0.3044928,51.49586],[-0.3049165,51.49596],[-0.3051579,51.49603],[-0.3055764,51.49617],[-0.305622,51.49618]]}},{"type":"Feature","properties":{"Title":"The Vale - LB Ealing","Direction":"OneWay","Flow":null,"Protection":null,"Ownership":null,"YearBuilt":null,"Borough":"Ealing","LengthInMetres":339,"stroke":"#FF7043","stroke-width":2},"geometry":{"type":"LineString","coordinates":[[-0.2624656,51.5065],[-0.261724,51.50647],[-0.2610816,51.50646],[-0.2605693,51.50645],[-0.2602371,51.50645],[-0.2598646,51.50646],[-0.259252,51.50649],[-0.2587119,51.50651],[-0.2585858,51.50651],[-0.2575907,51.50655]]}},{"type":"Feature","properties":{"Title":"Greenford Road - LB Ealing","Direction":"OneWay","Flow":null,"Protection":null,"Ownership":null,"YearBuilt":null,"Borough":"Ealing","LengthInMetres":864,"stroke":"#FF7043","stroke-width":2},"geometry":{"type":"LineString","coordinates":[[-0.3552624,51.50999],[-0.3547903,51.51025],[-0.3546186,51.51057],[-0.3550049,51.51226],[-0.355434,51.51402],[-0.355434,51.51482],[-0.3553911,51.51538],[-0.3551336,51.51637],[-0.3548332,51.51733],[-0.3548332,51.51754]]}},{"type":"Feature","properties":{"Title":"The Vale - LB Ealing","Direction":"TwoWay","Flow":null,"Protection":null,"Ownership":null,"YearBuilt":null,"Borough":"Ealing","LengthInMetres":98,"stroke":"#FF7043","stroke-width":4},"geometry":{"type":"LineString","coordinates":[[-0.2517238,51.50665],[-0.2523461,51.50666],[-0.2531401,51.50665]]}},{"type":"Feature","properties":{"Title":"Montague Avenue","Direction":"TwoWay","Flow":null,"Protection":null,"Ownership":null,"YearBuilt":null,"Borough":"Ealing","LengthInMetres":9,"stroke":"#FF7043","stroke-width":4},"geometry":{"type":"LineString","coordinates":[[-0.334738,51.50792],[-0.334727,51.50794],[-0.334698,51.50796],[-0.334649,51.50798]]}},{"type":"Feature","properties":{"Title":"Acton High Street - LB Ealing","Direction":"OneWay","Flow":null,"Protection":null,"Ownership":null,"YearBuilt":null,"Borough":"Ealing","LengthInMetres":98,"stroke":"#FF7043","stroke-width":2},"geometry":{"type":"LineString","coordinates":[[-0.2741759,51.50833],[-0.2740096,51.50821],[-0.273901,51.50812],[-0.2735255,51.50795],[-0.2730855,51.50779]]}},{"type":"Feature","properties":{"Title":"Acton High Street - LB Ealing","Direction":"OneWay","Flow":null,"Protection":null,"Ownership":null,"YearBuilt":null,"Borough":"Ealing","LengthInMetres":59,"stroke":"#FF7043","stroke-width":2},"geometry":{"type":"LineString","coordinates":[[-0.2723816,51.50753],[-0.2721228,51.50747],[-0.2719176,51.50742],[-0.2715769,51.50736]]}},{"type":"Feature","properties":{"Title":"Acton High Street - LB Ealing","Direction":"OneWay","Flow":null,"Protection":null,"Ownership":null,"YearBuilt":null,"Borough":"Ealing","LengthInMetres":49,"stroke":"#FF7043","stroke-width":2},"geometry":{"type":"LineString","coordinates":[[-0.2688951,51.50678],[-0.2686564,51.50677],[-0.2681883,51.50676]]}},{"type":"Feature","properties":{"Title":"Acton High Street - LB Ealing","Direction":"OneWay","Flow":null,"Protection":null,"Ownership":null,"YearBuilt":null,"Borough":"Ealing","LengthInMetres":75,"stroke":"#FF7043","stroke-width":2},"geometry":{"type":"LineString","coordinates":[[-0.2668627,51.50664],[-0.267371,51.50667],[-0.267941,51.5067]]}},{"type":"Feature","properties":{"Title":"Gordon Road - LB Ealing","Direction":"TwoWay","Flow":null,"Protection":null,"Ownership":null,"YearBuilt":null,"Borough":"Ealing","LengthInMetres":12,"stroke":"#FF7043","stroke-width":4},"geometry":{"type":"LineString","coordinates":[[-0.304683,51.51522],[-0.304856,51.51521]]}},{"type":"Feature","properties":{"Title":"Uxbridge Road - LB Ealing","Direction":"OneWay","Flow":null,"Protection":null,"Ownership":null,"YearBuilt":null,"Borough":"Ealing","LengthInMetres":577,"stroke":"#FF7043","stroke-width":2},"geometry":{"type":"LineString","coordinates":[[-0.3665255,51.5114],[-0.3657531,51.51132],[-0.3649055,51.51116],[-0.363897,51.51092],[-0.3623735,51.51065],[-0.3616654,51.51054],[-0.3605603,51.51037],[-0.3585004,51.51007]]}},{"type":"Feature","properties":{"Title":"Uxbridge Road - LB Ealing","Direction":"OneWay","Flow":null,"Protection":null,"Ownership":null,"YearBuilt":null,"Borough":"Ealing","LengthInMetres":279,"stroke":"#FF7043","stroke-width":2},"geometry":{"type":"LineString","coordinates":[[-0.3669522,51.51122],[-0.3676496,51.5112],[-0.3686581,51.51107],[-0.3696559,51.51085],[-0.3704498,51.51068],[-0.370836,51.51064]]}},{"type":"Feature","properties":{"Title":"Seva Rd","Direction":"TwoWay","Flow":null,"Protection":null,"Ownership":null,"YearBuilt":null,"Borough":"Ealing","LengthInMetres":446,"stroke":"#FF7043","stroke-width":4},"geometry":{"type":"LineString","coordinates":[[-0.3858176,51.50617],[-0.3912893,51.50687],[-0.3915146,51.50688],[-0.3917438,51.50683],[-0.3918511,51.50675],[-0.391894,51.50663]]}},{"type":"Feature","properties":{"Title":"Kensington Rd","Direction":"TwoWay","Flow":null,"Protection":null,"Ownership":null,"YearBuilt":null,"Borough":"Ealing","LengthInMetres":61,"stroke":"#FF7043","stroke-width":4},"geometry":{"type":"LineString","coordinates":[[-0.3712832,51.53505],[-0.371369,51.5345]]}},{"type":"Feature","properties":{"Title":"Kensington Rd","Direction":"TwoWay","Flow":null,"Protection":null,"Ownership":null,"YearBuilt":null,"Borough":"Ealing","LengthInMetres":304,"stroke":"#FF7043","stroke-width":4},"geometry":{"type":"LineString","coordinates":[[-0.3712564,51.53521],[-0.3712671,51.53563],[-0.3712725,51.53596],[-0.3712993,51.53627],[-0.3712725,51.53656],[-0.3712349,51.53678],[-0.3711652,51.53694],[-0.3710364,51.53718],[-0.3707575,51.53757],[-0.3705054,51.53784]]}},{"type":"Feature","properties":{"Title":"Kensington Rd","Direction":"TwoWay","Flow":null,"Protection":null,"Ownership":null,"YearBuilt":null,"Borough":"Ealing","LengthInMetres":340,"stroke":"#FF7043","stroke-width":4},"geometry":{"type":"LineString","coordinates":[[-0.3704323,51.53794],[-0.3703358,51.53811],[-0.3702607,51.53829],[-0.3702285,51.53845],[-0.3702499,51.53868],[-0.370325,51.53896],[-0.3703358,51.53929],[-0.3702982,51.53956],[-0.3702285,51.53986],[-0.3701802,51.54014],[-0.3701212,51.54026],[-0.3699227,51.5407],[-0.3698315,51.54094]]}},{"type":"Feature","properties":{"Title":"Greenford Road","Direction":"TwoWay","Flow":null,"Protection":null,"Ownership":null,"YearBuilt":null,"Borough":"Ealing","LengthInMetres":24,"stroke":"#FF7043","stroke-width":4},"geometry":{"type":"LineString","coordinates":[[-0.3402639,51.5486],[-0.3401779,51.54881]]}},{"type":"Feature","properties":{"Title":"Greenford Road","Direction":"TwoWay","Flow":null,"Protection":null,"Ownership":null,"YearBuilt":null,"Borough":"Ealing","LengthInMetres":43,"stroke":"#FF7043","stroke-width":4},"geometry":{"type":"LineString","coordinates":[[-0.3400064,51.5493],[-0.3400342,51.54918],[-0.3400706,51.54907],[-0.3401162,51.54896],[-0.3401323,51.54892]]}},{"type":"Feature","properties":{"Title":"Greenford Road","Direction":"TwoWay","Flow":null,"Protection":null,"Ownership":null,"YearBuilt":null,"Borough":"Ealing","LengthInMetres":17,"stroke":"#FF7043","stroke-width":4},"geometry":{"type":"LineString","coordinates":[[-0.3396094,51.55054],[-0.3396133,51.55055],[-0.3395758,51.55069]]}},{"type":"Feature","properties":{"Title":"Greenford Road","Direction":"TwoWay","Flow":null,"Protection":null,"Ownership":null,"YearBuilt":null,"Borough":"Ealing","LengthInMetres":28,"stroke":"#FF7043","stroke-width":4},"geometry":{"type":"LineString","coordinates":[[-0.3394807,51.55103],[-0.3395516,51.55078]]}}]}