{"type":"FeatureCollection","features":[{"type":"Feature","properties":{"Title":"C1","Direction":"TwoWay","Flow":null,"Protection":null,"Ownership":null,"YearBuilt":null,"Borough":"Enfield","LengthInMetres":42,"stroke":"#388E3C","stroke-width":4},"geometry":{"type":"LineString","coordinates":[[-0.046635,51.64849],[-0.0460342,51.64844]]}},{"type":"Feature","properties":{"Title":"C1","Direction":"TwoWay","Flow":null,"Protection":null,"Ownership":null,"YearBuilt":null,"Borough":"Enfield","LengthInMetres":3364,"stroke":"#388E3C","stroke-width":4},"geometry":{"type":"LineString","coordinates":[[-0.0463775,51.64863],[-0.0463713,51.64971],[-0.0471009,51.65132],[-0.0478734,51.6528],[-0.0485386,51.65358],[-0.0485171,51.65403],[-0.0482596,51.65493],[-0.0476802,51.65578],[-0.0472726,51.65684],[-0.0472726,51.65762],[-0.0472082,51.65864],[-0.0468219,51.65957],[-0.0458778,51.66189],[-0.0451697,51.66346],[-0.0444831,51.66424],[-0.0436033,51.66556],[-0.0424875,51.66701],[-0.0418089,51.66788],[-0.0415367,51.66823],[-0.0414361,51.6684],[-0.0413878,51.66859],[-0.0412859,51.66942],[-0.0410284,51.67029],[-0.0401271,51.67174],[-0.0393761,51.6726],[-0.0383462,51.67384],[-0.0373591,51.67474],[-0.0361789,51.67572],[-0.0353635,51.67663],[-0.0352133,51.67683]]}},{"type":"Feature","properties":{"Title":"C1","Direction":"TwoWay","Flow":null,"Protection":null,"Ownership":null,"YearBuilt":null,"Borough":"Enfield","LengthInMetres":110,"stroke":"#388E3C","stroke-width":4},"geometry":{"type":"LineString","coordinates":[[-0.0467664,51.64724],[-0.0466317,51.64752],[-0.0465753,51.64765],[-0.0465083,51.64788],[-0.0464439,51.64807],[-0.046407,51.64817],[-0.0463989,51.6482]]}},{"type":"Feature","properties":{"Title":"C1","Direction":"OneWay","Flow":null,"Protection":null,"Ownership":null,"YearBuilt":null,"Borough":"Enfield","LengthInMetres":29,"stroke":"#388E3C","stroke-width":2},"geometry":{"type":"LineString","coordinates":[[-0.046879,51.64699],[-0.0467664,51.64724]]}},{"type":"Feature","properties":{"Title":"C1","Direction":"TwoWay","Flow":null,"Protection":null,"Ownership":null,"YearBuilt":null,"Borough":"Enfield","LengthInMetres":71,"stroke":"#388E3C","stroke-width":4},"geometry":{"type":"LineString","coordinates":[[-0.0464297,51.64517],[-0.0465062,51.64542],[-0.0466511,51.64579]]}},{"type":"Feature","properties":{"Title":"C1","Direction":"OneWay","Flow":null,"Protection":null,"Ownership":null,"YearBuilt":null,"Borough":"Enfield","LengthInMetres":29,"stroke":"#388E3C","stroke-width":2},"geometry":{"type":"LineString","coordinates":[[-0.0463667,51.64461],[-0.04636,51.6447],[-0.046364,51.64482],[-0.0463707,51.64487]]}},{"type":"Feature","properties":{"Title":"C1","Direction":"TwoWay","Flow":null,"Protection":null,"Ownership":null,"YearBuilt":null,"Borough":"Enfield","LengthInMetres":50,"stroke":"#388E3C","stroke-width":4},"geometry":{"type":"LineString","coordinates":[[-0.0463775,51.64863],[-0.0464204,51.64818]]}},{"type":"Feature","properties":{"Title":"C1","Direction":"TwoWay","Flow":null,"Protection":null,"Ownership":null,"YearBuilt":null,"Borough":"Enfield","LengthInMetres":208,"stroke":"#388E3C","stroke-width":4},"geometry":{"type":"LineString","coordinates":[[-0.0466404,51.64349],[-0.0467852,51.64292],[-0.0468925,51.64242],[-0.0470105,51.64204],[-0.0471822,51.64165]]}},{"type":"Feature","properties":{"Title":"C1","Direction":"TwoWay","Flow":null,"Protection":null,"Ownership":null,"YearBuilt":null,"Borough":"Enfield","LengthInMetres":196,"stroke":"#388E3C","stroke-width":4},"geometry":{"type":"LineString","coordinates":[[-0.0475577,51.64049],[-0.0481156,51.63915],[-0.0483302,51.6388]]}},{"type":"Feature","properties":{"Title":"C1","Direction":"TwoWay","Flow":null,"Protection":null,"Ownership":null,"YearBuilt":null,"Borough":"Enfield","LengthInMetres":48,"stroke":"#388E3C","stroke-width":4},"geometry":{"type":"LineString","coordinates":[[-0.0495532,51.63758],[-0.0499609,51.63723]]}},{"type":"Feature","properties":{"Title":"C1","Direction":"TwoWay","Flow":null,"Protection":null,"Ownership":null,"YearBuilt":null,"Borough":"Enfield","LengthInMetres":679,"stroke":"#388E3C","stroke-width":4},"geometry":{"type":"LineString","coordinates":[[-0.0517634,51.63578],[-0.0522656,51.6353],[-0.0525982,51.63487],[-0.0530167,51.63434],[-0.0533707,51.63381],[-0.0537462,51.63334],[-0.0542505,51.63265],[-0.0547333,51.63199],[-0.055141,51.63141],[-0.0555594,51.63081],[-0.0559456,51.63027]]}},{"type":"Feature","properties":{"Title":"C1","Direction":"TwoWay","Flow":null,"Protection":null,"Ownership":null,"YearBuilt":null,"Borough":"Enfield","LengthInMetres":1393,"stroke":"#388E3C","stroke-width":4},"geometry":{"type":"LineString","coordinates":[[-0.05623,51.62841],[-0.0563198,51.62799],[-0.0564151,51.62774],[-0.0566135,51.62731],[-0.0567985,51.627],[-0.0569877,51.62671],[-0.0571929,51.6265],[-0.0573411,51.6264],[-0.0574705,51.62631],[-0.0578205,51.62605],[-0.058074,51.62585],[-0.058373,51.62568],[-0.0585957,51.6256],[-0.0587351,51.62556],[-0.0589014,51.62552],[-0.0593091,51.62545],[-0.0597651,51.62537],[-0.0601956,51.62528],[-0.0603847,51.62522],[-0.0605604,51.62516],[-0.0606261,51.62512],[-0.0606739,51.62507],[-0.0606921,51.62502],[-0.0606965,51.62495],[-0.060614,51.62484],[-0.06061,51.6248],[-0.0606047,51.62458],[-0.0605859,51.62446],[-0.0606838,51.62424],[-0.0607763,51.62395],[-0.0609506,51.62364],[-0.0611437,51.62331],[-0.0613101,51.62297],[-0.0614174,51.62275],[-0.0615085,51.62239],[-0.0616158,51.62188],[-0.0617526,51.62145],[-0.0618196,51.62132],[-0.0620631,51.62075],[-0.0623333,51.62014],[-0.0624715,51.61978],[-0.0626185,51.61946],[-0.0627951,51.61904],[-0.0630999,51.61824],[-0.0634305,51.6175]]}},{"type":"Feature","properties":{"Title":"C1","Direction":"TwoWay","Flow":null,"Protection":null,"Ownership":null,"YearBuilt":null,"Borough":"Enfield","LengthInMetres":23,"stroke":"#388E3C","stroke-width":4},"geometry":{"type":"LineString","coordinates":[[-0.0762393,51.61361],[-0.07624,51.61355],[-0.0762259,51.61345],[-0.0762226,51.6134]]}},{"type":"Feature","properties":{"Title":"C1","Direction":"TwoWay","Flow":null,"Protection":null,"Ownership":null,"YearBuilt":null,"Borough":"Enfield","LengthInMetres":145,"stroke":"#388E3C","stroke-width":4},"geometry":{"type":"LineString","coordinates":[[-0.0762191,51.61332],[-0.0762057,51.6131],[-0.0762077,51.61296],[-0.0762037,51.6128],[-0.0761996,51.61266],[-0.0761936,51.61257],[-0.0761835,51.61231],[-0.0761708,51.61209],[-0.0761668,51.61202]]}},{"type":"Feature","properties":{"Title":"C20","Direction":"OneWay","Flow":null,"Protection":null,"Ownership":null,"YearBuilt":null,"Borough":"Enfield","LengthInMetres":354,"stroke":"#388E3C","stroke-width":2},"geometry":{"type":"LineString","coordinates":[[-0.0819087,51.65058],[-0.0815975,51.64852],[-0.0814044,51.64843],[-0.0798595,51.64853]]}},{"type":"Feature","properties":{"Title":"C20","Direction":"TwoWay","Flow":null,"Protection":null,"Ownership":null,"YearBuilt":null,"Borough":"Enfield","LengthInMetres":5014,"stroke":"#388E3C","stroke-width":4},"geometry":{"type":"LineString","coordinates":[[-0.0798595,51.64853],[-0.0796624,51.6472],[-0.0797375,51.64694],[-0.0816579,51.64506],[-0.0816579,51.64482],[-0.0814863,51.64462],[-0.0810035,51.64424],[-0.0805851,51.64383],[-0.0802954,51.64347],[-0.0799413,51.64274],[-0.0796731,51.64224],[-0.0792869,51.64185],[-0.0788685,51.64132],[-0.0789757,51.64093],[-0.0792332,51.64064],[-0.0794907,51.64021],[-0.0797268,51.63981],[-0.0798126,51.6394],[-0.0799306,51.63893],[-0.0800808,51.63842],[-0.0802954,51.63801],[-0.0807675,51.63744],[-0.0815077,51.63683],[-0.0819905,51.63644],[-0.0832136,51.63601],[-0.0843723,51.63585],[-0.0852736,51.6358],[-0.0861211,51.6358],[-0.0869795,51.63584],[-0.0886102,51.63611],[-0.0897475,51.63632],[-0.0904878,51.63644],[-0.090756,51.63645],[-0.0909384,51.63637],[-0.0911852,51.63612],[-0.0915177,51.63575],[-0.0920327,51.63541],[-0.0926765,51.63522],[-0.0932344,51.63512],[-0.0937708,51.63502],[-0.0939317,51.63474],[-0.0941034,51.63415],[-0.0942751,51.63353],[-0.0946613,51.63227],[-0.094951,51.63198],[-0.0955196,51.63173],[-0.0958093,51.63153],[-0.0960668,51.63118],[-0.096453,51.63086],[-0.0967641,51.63047],[-0.0973113,51.62961],[-0.0976654,51.62906],[-0.0980087,51.62837],[-0.098352,51.62774],[-0.0992211,51.62601],[-0.099736,51.6254],[-0.1007016,51.62476],[-0.1018818,51.62418],[-0.1027508,51.62386],[-0.1037057,51.62358],[-0.1041992,51.62333],[-0.1045747,51.62298],[-0.1050254,51.62242],[-0.1055403,51.62187],[-0.1061519,51.62091],[-0.1062699,51.62061],[-0.1066132,51.62005],[-0.1070316,51.61947],[-0.1074823,51.61893],[-0.1080616,51.61835],[-0.1088555,51.61787],[-0.1090272,51.61772],[-0.1091238,51.6174],[-0.1094242,51.61635],[-0.1096066,51.61577],[-0.109628,51.61514],[-0.1097139,51.6146]]}},{"type":"Feature","properties":{"Title":"C20","Direction":"TwoWay","Flow":null,"Protection":null,"Ownership":null,"YearBuilt":null,"Borough":"Enfield","LengthInMetres":31,"stroke":"#388E3C","stroke-width":4},"geometry":{"type":"LineString","coordinates":[[-0.1139129,51.61265],[-0.1137895,51.61262],[-0.1138002,51.61242]]}},{"type":"Feature","properties":{"Title":"C20 - Link","Direction":"TwoWay","Flow":null,"Protection":null,"Ownership":null,"YearBuilt":null,"Borough":"Enfield","LengthInMetres":36,"stroke":"#388E3C","stroke-width":4},"geometry":{"type":"LineString","coordinates":[[-0.0904878,51.63644],[-0.0905107,51.63652],[-0.0905965,51.63655],[-0.0906716,51.6366],[-0.0906609,51.63663],[-0.0907735,51.63659]]}},{"type":"Feature","properties":{"Title":"C21","Direction":"TwoWay","Flow":null,"Protection":null,"Ownership":null,"YearBuilt":null,"Borough":"Enfield","LengthInMetres":139,"stroke":"#388E3C","stroke-width":4},"geometry":{"type":"LineString","coordinates":[[-0.0815077,51.63683],[-0.0812992,51.63628],[-0.0813099,51.63605],[-0.0814279,51.63573],[-0.0815352,51.63562]]}},{"type":"Feature","properties":{"Title":"C21","Direction":"TwoWay","Flow":null,"Protection":null,"Ownership":null,"YearBuilt":null,"Borough":"Enfield","LengthInMetres":95,"stroke":"#388E3C","stroke-width":4},"geometry":{"type":"LineString","coordinates":[[-0.0671153,51.62673],[-0.0674479,51.62657],[-0.0677483,51.62601]]}},{"type":"Feature","properties":{"Title":"C21","Direction":"TwoWay","Flow":null,"Protection":null,"Ownership":null,"YearBuilt":null,"Borough":"Enfield","LengthInMetres":791,"stroke":"#388E3C","stroke-width":4},"geometry":{"type":"LineString","coordinates":[[-0.0586115,51.62256],[-0.0586276,51.62253],[-0.0585311,51.62253],[-0.0583353,51.62246],[-0.0579075,51.622],[-0.0573717,51.62148],[-0.056793,51.62098],[-0.0559723,51.62038],[-0.0550952,51.61975],[-0.0539619,51.61893],[-0.053398,51.61851],[-0.05281,51.61807],[-0.0521434,51.61758],[-0.0514661,51.61709]]}},{"type":"Feature","properties":{"Title":"C21","Direction":"TwoWay","Flow":null,"Protection":null,"Ownership":null,"YearBuilt":null,"Borough":"Enfield","LengthInMetres":206,"stroke":"#388E3C","stroke-width":4},"geometry":{"type":"LineString","coordinates":[[-0.0514661,51.61709],[-0.0495096,51.61569]]}},{"type":"Feature","properties":{"Title":"C20 - Spur","Direction":"OneWay","Flow":null,"Protection":null,"Ownership":null,"YearBuilt":null,"Borough":"Enfield","LengthInMetres":81,"stroke":"#388E3C","stroke-width":2},"geometry":{"type":"LineString","coordinates":[[-0.0798502,51.64925],[-0.0797751,51.64884],[-0.0798595,51.64853]]}},{"type":"Feature","properties":{"Title":"LCN 86","Direction":"TwoWay","Flow":null,"Protection":null,"Ownership":null,"YearBuilt":null,"Borough":"Enfield","LengthInMetres":1653,"stroke":"#388E3C","stroke-width":4},"geometry":{"type":"LineString","coordinates":[[-0.1332779,51.64764],[-0.1336963,51.64752],[-0.134265,51.64735],[-0.134619,51.64723],[-0.1349892,51.64709],[-0.1356892,51.64685],[-0.1361519,51.64669],[-0.1365877,51.64653],[-0.1372556,51.64631],[-0.1376753,51.64617],[-0.1380629,51.64607],[-0.1389319,51.64587],[-0.139978,51.64566],[-0.1406942,51.64553],[-0.1416732,51.64543],[-0.1424859,51.64536],[-0.1429405,51.64534],[-0.1435132,51.64534],[-0.1439852,51.64533],[-0.1452298,51.64539],[-0.1456858,51.64543],[-0.1459594,51.64549],[-0.146174,51.6456],[-0.146351,51.64571],[-0.1464878,51.64586],[-0.146583,51.64607],[-0.1466889,51.6463],[-0.146925,51.64687],[-0.1471235,51.64744],[-0.1474185,51.64815],[-0.1476143,51.6485],[-0.1477887,51.64878],[-0.1481964,51.64939],[-0.1485128,51.64983],[-0.1488508,51.65031],[-0.1491834,51.65074],[-0.1497038,51.65145]]}},{"type":"Feature","properties":{"Title":"Watermead Way","Direction":"TwoWay","Flow":null,"Protection":null,"Ownership":null,"YearBuilt":null,"Borough":"Enfield","LengthInMetres":743,"stroke":"#388E3C","stroke-width":4},"geometry":{"type":"LineString","coordinates":[[-0.0474084,51.61344],[-0.0476709,51.61326],[-0.0479631,51.61303],[-0.0482594,51.61278],[-0.0484987,51.61238],[-0.0487166,51.61197],[-0.049119,51.61119],[-0.0492665,51.61094],[-0.0494248,51.61046],[-0.0494945,51.61003],[-0.0494972,51.60956],[-0.0494248,51.60886],[-0.0490385,51.60728],[-0.0489984,51.60709]]}},{"type":"Feature","properties":{"Title":"Meridian Way/Mollison Avenue","Direction":"TwoWay","Flow":null,"Protection":null,"Ownership":null,"YearBuilt":null,"Borough":"Enfield","LengthInMetres":4526,"stroke":"#388E3C","stroke-width":4},"geometry":{"type":"LineString","coordinates":[[-0.0285873,51.65294],[-0.0294027,51.65019],[-0.0297675,51.64902],[-0.0297675,51.64869],[-0.0297675,51.64856],[-0.0298319,51.64839],[-0.0299284,51.64823],[-0.0302181,51.64763],[-0.0307331,51.64673],[-0.031248,51.64595],[-0.0318006,51.64521],[-0.0317845,51.64516],[-0.0318945,51.6446],[-0.0323478,51.64437],[-0.0326281,51.64427],[-0.0327957,51.64423],[-0.0329164,51.64424],[-0.0329539,51.64427],[-0.0333133,51.64407],[-0.0336513,51.64376],[-0.0340375,51.6431],[-0.0347671,51.64191],[-0.0355181,51.64036],[-0.0364623,51.6383],[-0.0368056,51.63764],[-0.0371918,51.63673],[-0.0407652,51.62909],[-0.0444231,51.62143],[-0.0477036,51.61448]]}},{"type":"Feature","properties":{"Title":"Meridian Way/Mollison Avenue","Direction":"TwoWay","Flow":null,"Protection":null,"Ownership":null,"YearBuilt":null,"Borough":"Enfield","LengthInMetres":105,"stroke":"#388E3C","stroke-width":4},"geometry":{"type":"LineString","coordinates":[[-0.0477036,51.61448],[-0.0478188,51.61424],[-0.0477678,51.61415],[-0.0477369,51.61406],[-0.0476041,51.614],[-0.0473976,51.61402],[-0.0469542,51.61405]]}},{"type":"Feature","properties":{"Title":"Meridian Way/Mollison Avenue","Direction":"TwoWay","Flow":null,"Protection":null,"Ownership":null,"YearBuilt":null,"Borough":"Enfield","LengthInMetres":173,"stroke":"#388E3C","stroke-width":4},"geometry":{"type":"LineString","coordinates":[[-0.0469542,51.61405],[-0.0468437,51.61406],[-0.0468404,51.61392],[-0.0469406,51.61375],[-0.0470873,51.61362],[-0.0473306,51.61349],[-0.0474084,51.61344],[-0.047454,51.61347],[-0.0472957,51.61357],[-0.0471522,51.61364],[-0.0470429,51.61374],[-0.0469722,51.61383],[-0.0469315,51.61393],[-0.0469487,51.61403],[-0.0469542,51.61405]]}},{"type":"Feature","properties":{"Title":"Meridian Way/Mollison Avenue","Direction":"TwoWay","Flow":null,"Protection":null,"Ownership":null,"YearBuilt":null,"Borough":"Enfield","LengthInMetres":75,"stroke":"#388E3C","stroke-width":4},"geometry":{"type":"LineString","coordinates":[[-0.0469542,51.61405],[-0.0469733,51.61411],[-0.0470409,51.61422],[-0.0471804,51.61432],[-0.0474754,51.61444],[-0.0477036,51.61448]]}},{"type":"Feature","properties":{"Title":"Meridian Way/Mollison Avenue","Direction":"TwoWay","Flow":null,"Protection":null,"Ownership":null,"YearBuilt":null,"Borough":"Enfield","LengthInMetres":462,"stroke":"#388E3C","stroke-width":4},"geometry":{"type":"LineString","coordinates":[[-0.0477036,51.61448],[-0.0490928,51.61475],[-0.0503562,51.61498],[-0.0506941,51.61501],[-0.051075,51.615],[-0.0513861,51.61497],[-0.051783,51.61486],[-0.0519064,51.6148],[-0.0518072,51.61473],[-0.052117,51.61456],[-0.0523517,51.61434],[-0.0524482,51.61422],[-0.0527057,51.6138],[-0.0527486,51.61359]]}},{"type":"Feature","properties":{"Title":"National Cycle Network 1","Direction":"TwoWay","Flow":null,"Protection":null,"Ownership":null,"YearBuilt":null,"Borough":"Enfield","LengthInMetres":364,"stroke":"#388E3C","stroke-width":4},"geometry":{"type":"LineString","coordinates":[[-0.0172034,51.66583],[-0.0168118,51.66571],[-0.0166134,51.66555],[-0.0165436,51.66554],[-0.0164041,51.66578],[-0.0161627,51.66572],[-0.0159804,51.66574],[-0.015798,51.66582],[-0.0156585,51.66585],[-0.01546,51.66582],[-0.0151918,51.66575],[-0.0150791,51.66574],[-0.0149772,51.66573],[-0.0148699,51.66578],[-0.0146983,51.66603],[-0.0142155,51.66639],[-0.0140438,51.66651],[-0.0139258,51.66707]]}},{"type":"Feature","properties":{"Title":"National Cycle Network 1","Direction":"TwoWay","Flow":null,"Protection":null,"Ownership":null,"YearBuilt":null,"Borough":"Enfield","LengthInMetres":16,"stroke":"#388E3C","stroke-width":4},"geometry":{"type":"LineString","coordinates":[[-0.0139258,51.66707],[-0.0137166,51.66701]]}},{"type":"Feature","properties":{"Title":"National Cycle Network 1","Direction":"TwoWay","Flow":null,"Protection":null,"Ownership":null,"YearBuilt":null,"Borough":"Enfield","LengthInMetres":19,"stroke":"#388E3C","stroke-width":4},"geometry":{"type":"LineString","coordinates":[[-0.0137166,51.66701],[-0.0134537,51.66696]]}},{"type":"Feature","properties":{"Title":"National Cycle Network 1","Direction":"TwoWay","Flow":null,"Protection":null,"Ownership":null,"YearBuilt":null,"Borough":"Enfield","LengthInMetres":109,"stroke":"#388E3C","stroke-width":4},"geometry":{"type":"LineString","coordinates":[[-0.0139258,51.66707],[-0.014076,51.66715],[-0.0142637,51.6673],[-0.0142852,51.66744],[-0.014253,51.66758],[-0.0141725,51.66775],[-0.0140599,51.6679],[-0.0140331,51.66794]]}},{"type":"Feature","properties":{"Title":"National Cycle Network 1","Direction":"TwoWay","Flow":null,"Protection":null,"Ownership":null,"YearBuilt":null,"Borough":"Enfield","LengthInMetres":32,"stroke":"#388E3C","stroke-width":4},"geometry":{"type":"LineString","coordinates":[[-0.0140331,51.66794],[-0.0144676,51.66803]]}},{"type":"Feature","properties":{"Title":"National Cycle Network 1","Direction":"TwoWay","Flow":null,"Protection":null,"Ownership":null,"YearBuilt":null,"Borough":"Enfield","LengthInMetres":24,"stroke":"#388E3C","stroke-width":4},"geometry":{"type":"LineString","coordinates":[[-0.0144676,51.66803],[-0.0147626,51.66807],[-0.0148004,51.66809]]}},{"type":"Feature","properties":{"Title":"National Cycle Network 1","Direction":"TwoWay","Flow":null,"Protection":null,"Ownership":null,"YearBuilt":null,"Borough":"Enfield","LengthInMetres":21,"stroke":"#388E3C","stroke-width":4},"geometry":{"type":"LineString","coordinates":[[-0.0148004,51.66809],[-0.014827,51.66811],[-0.0150845,51.66815]]}},{"type":"Feature","properties":{"Title":"National Cycle Network 1","Direction":"TwoWay","Flow":null,"Protection":null,"Ownership":null,"YearBuilt":null,"Borough":"Enfield","LengthInMetres":8,"stroke":"#388E3C","stroke-width":4},"geometry":{"type":"LineString","coordinates":[[-0.0150845,51.66815],[-0.0152025,51.66815]]}},{"type":"Feature","properties":{"Title":"National Cycle Network 1","Direction":"TwoWay","Flow":null,"Protection":null,"Ownership":null,"YearBuilt":null,"Borough":"Enfield","LengthInMetres":19,"stroke":"#388E3C","stroke-width":4},"geometry":{"type":"LineString","coordinates":[[-0.0152025,51.66815],[-0.0154654,51.6682]]}},{"type":"Feature","properties":{"Title":"National Cycle Network 1","Direction":"TwoWay","Flow":null,"Protection":null,"Ownership":null,"YearBuilt":null,"Borough":"Enfield","LengthInMetres":21,"stroke":"#388E3C","stroke-width":4},"geometry":{"type":"LineString","coordinates":[[-0.0150845,51.66815],[-0.0148324,51.66811],[-0.0148004,51.66809]]}},{"type":"Feature","properties":{"Title":"National Cycle Network 1","Direction":"TwoWay","Flow":null,"Protection":null,"Ownership":null,"YearBuilt":null,"Borough":"Enfield","LengthInMetres":24,"stroke":"#388E3C","stroke-width":4},"geometry":{"type":"LineString","coordinates":[[-0.0148004,51.66809],[-0.0147626,51.66808],[-0.0144676,51.66803]]}},{"type":"Feature","properties":{"Title":"National Cycle Network 1","Direction":"TwoWay","Flow":null,"Protection":null,"Ownership":null,"YearBuilt":null,"Borough":"Enfield","LengthInMetres":481,"stroke":"#388E3C","stroke-width":4},"geometry":{"type":"LineString","coordinates":[[-0.0140331,51.66794],[-0.0139312,51.66805],[-0.0136468,51.66834],[-0.0135771,51.66856],[-0.0134376,51.66871],[-0.0133947,51.66876],[-0.0132391,51.66901],[-0.0132016,51.66911],[-0.0131587,51.66915],[-0.0130568,51.66918],[-0.0129226,51.66935],[-0.0127993,51.66949],[-0.0126169,51.66959],[-0.0124345,51.66968],[-0.0123755,51.66975],[-0.0122628,51.66999],[-0.0122521,51.67004],[-0.0122789,51.67029],[-0.0123057,51.6705],[-0.0123862,51.67068],[-0.0124881,51.67086],[-0.0125364,51.67096],[-0.0126222,51.67107],[-0.0126973,51.67122],[-0.0127563,51.67145],[-0.0127885,51.67172],[-0.0127832,51.67188]]}},{"type":"Feature","properties":{"Title":"Telford Road","Direction":"TwoWay","Flow":null,"Protection":null,"Ownership":null,"YearBuilt":null,"Borough":"Enfield","LengthInMetres":644,"stroke":"#388E3C","stroke-width":4},"geometry":{"type":"LineString","coordinates":[[-0.1356436,51.6113],[-0.134206,51.61224],[-0.1330043,51.61296],[-0.1316525,51.61365],[-0.1305367,51.61414],[-0.129496,51.61457],[-0.1287235,51.61482],[-0.1284446,51.6149]]}},{"type":"Feature","properties":{"Title":"Bowes Road","Direction":"TwoWay","Flow":null,"Protection":null,"Ownership":null,"YearBuilt":null,"Borough":"Enfield","LengthInMetres":502,"stroke":"#388E3C","stroke-width":4},"geometry":{"type":"LineString","coordinates":[[-0.1175146,51.6125],[-0.1167689,51.61255],[-0.1158355,51.61264],[-0.1150201,51.61271],[-0.1141672,51.61272],[-0.1130836,51.61274],[-0.1121555,51.6127],[-0.1113991,51.61263],[-0.1104014,51.61256],[-0.1103048,51.61256]]}},{"type":"Feature","properties":{"Title":"Angel Road","Direction":"TwoWay","Flow":null,"Protection":null,"Ownership":null,"YearBuilt":null,"Borough":"Enfield","LengthInMetres":503,"stroke":"#388E3C","stroke-width":4},"geometry":{"type":"LineString","coordinates":[[-0.061396,51.61413],[-0.061101,51.61406],[-0.0608194,51.61401],[-0.0603996,51.61394],[-0.0600978,51.61391],[-0.0596928,51.61387],[-0.0591081,51.61381],[-0.0585636,51.61379],[-0.0569972,51.61353],[-0.0547173,51.61312],[-0.0543767,51.61303]]}},{"type":"Feature","properties":{"Title":"Angel Road","Direction":"TwoWay","Flow":null,"Protection":null,"Ownership":null,"YearBuilt":null,"Borough":"Enfield","LengthInMetres":10,"stroke":"#388E3C","stroke-width":4},"geometry":{"type":"LineString","coordinates":[[-0.0543767,51.61303],[-0.054417,51.61294]]}},{"type":"Feature","properties":{"Title":"Angel Road","Direction":"TwoWay","Flow":null,"Protection":null,"Ownership":null,"YearBuilt":null,"Borough":"Enfield","LengthInMetres":85,"stroke":"#388E3C","stroke-width":4},"geometry":{"type":"LineString","coordinates":[[-0.0543767,51.61303],[-0.0534889,51.61301],[-0.0531563,51.61302]]}},{"type":"Feature","properties":{"Title":"Suez Road","Direction":"TwoWay","Flow":null,"Protection":null,"Ownership":null,"YearBuilt":null,"Borough":"Enfield","LengthInMetres":77,"stroke":"#388E3C","stroke-width":4},"geometry":{"type":"LineString","coordinates":[[-0.0306963,51.64863],[-0.0305086,51.6486],[-0.0303745,51.64853],[-0.0303423,51.64845],[-0.030353,51.64838],[-0.0298554,51.64836]]}},{"type":"Feature","properties":{"Title":"Lea Valley Road/Mollison Avenue Junction","Direction":"TwoWay","Flow":null,"Protection":null,"Ownership":null,"YearBuilt":null,"Borough":"Enfield","LengthInMetres":155,"stroke":"#388E3C","stroke-width":4},"geometry":{"type":"LineString","coordinates":[[-0.0322968,51.64444],[-0.0323558,51.64442],[-0.0327528,51.64442],[-0.0328923,51.64433],[-0.0329539,51.64427],[-0.0329942,51.6443],[-0.0331766,51.64436],[-0.033359,51.64447],[-0.0333107,51.64452],[-0.0331176,51.64451],[-0.0330639,51.64459],[-0.0331283,51.64481],[-0.0331122,51.6449]]}},{"type":"Feature","properties":{"Title":"Mollison Avenue-Bilton Way","Direction":"OneWay","Flow":null,"Protection":null,"Ownership":null,"YearBuilt":null,"Borough":"Enfield","LengthInMetres":27,"stroke":"#388E3C","stroke-width":2},"geometry":{"type":"LineString","coordinates":[[-0.0280551,51.66285],[-0.0280175,51.66309]]}},{"type":"Feature","properties":{"Title":"Cross Street","Direction":"OneWay","Flow":null,"Protection":null,"Ownership":null,"YearBuilt":null,"Borough":"Enfield","LengthInMetres":15,"stroke":"#388E3C","stroke-width":2},"geometry":{"type":"LineString","coordinates":[[-0.0624138,51.61425],[-0.0624648,51.61425],[-0.0624809,51.61415]]}},{"type":"Feature","properties":{"Title":"Great Cambridge Junction","Direction":"TwoWay","Flow":null,"Protection":null,"Ownership":null,"YearBuilt":null,"Borough":"Enfield","LengthInMetres":203,"stroke":"#388E3C","stroke-width":4},"geometry":{"type":"LineString","coordinates":[[-0.0876095,51.61607],[-0.087584,51.61608],[-0.0875592,51.61609],[-0.0875257,51.61609],[-0.087468,51.61607],[-0.0874211,51.61604],[-0.0873621,51.616],[-0.0873117,51.61596],[-0.0872682,51.61591],[-0.087244,51.61591],[-0.0872226,51.61591],[-0.0872125,51.61593],[-0.0872454,51.61598],[-0.0872507,51.616],[-0.0872414,51.61603],[-0.0872226,51.61606],[-0.0871945,51.61609],[-0.0871663,51.6161],[-0.0870871,51.61613],[-0.087,51.61616],[-0.0869114,51.61619],[-0.0868444,51.61621],[-0.0867746,51.61622],[-0.0867344,51.61622],[-0.0866399,51.61622],[-0.0866124,51.61621],[-0.08654,51.6162],[-0.0864287,51.61618],[-0.0863831,51.61616],[-0.0863342,51.61612],[-0.086303,51.61609],[-0.0862724,51.61606],[-0.0861873,51.61599],[-0.0861323,51.61598],[-0.0860887,51.61598],[-0.0860384,51.61597],[-0.0859841,51.61598],[-0.0858218,51.61599],[-0.0856944,51.616],[-0.0856186,51.616],[-0.08551,51.61601],[-0.0854718,51.61601],[-0.0854383,51.61604],[-0.0854154,51.61607],[-0.0854087,51.61609]]}},{"type":"Feature","properties":{"Title":"Great Cambridge Junction","Direction":"TwoWay","Flow":null,"Protection":null,"Ownership":null,"YearBuilt":null,"Borough":"Enfield","LengthInMetres":122,"stroke":"#388E3C","stroke-width":4},"geometry":{"type":"LineString","coordinates":[[-0.0866399,51.61622],[-0.0866269,51.61626],[-0.0865451,51.61645],[-0.086537,51.61647],[-0.0863728,51.61646],[-0.086344,51.61646],[-0.0862909,51.61647],[-0.0862273,51.6165],[-0.0860798,51.61656],[-0.0860308,51.61658],[-0.0859588,51.61661],[-0.0859001,51.61662],[-0.0858115,51.61664],[-0.0857693,51.61664],[-0.0857207,51.61663],[-0.0856077,51.61659],[-0.0854991,51.61656],[-0.0854474,51.61654],[-0.0853937,51.61653],[-0.0853361,51.6165]]}},{"type":"Feature","properties":{"Title":"Great Cambridge Junction","Direction":"TwoWay","Flow":null,"Protection":null,"Ownership":null,"YearBuilt":null,"Borough":"Enfield","LengthInMetres":97,"stroke":"#388E3C","stroke-width":4},"geometry":{"type":"LineString","coordinates":[[-0.086537,51.61647],[-0.0866558,51.61653],[-0.086696,51.61656],[-0.0867463,51.61661],[-0.0867879,51.61666],[-0.086816,51.6167],[-0.0868358,51.61673],[-0.0868476,51.61676],[-0.0868335,51.6168],[-0.0868066,51.61684],[-0.0867745,51.61688],[-0.0867597,51.61693],[-0.0867684,51.61696],[-0.0867798,51.61699],[-0.0868046,51.61701],[-0.0868489,51.61704],[-0.0869052,51.61707],[-0.0869716,51.61709],[-0.0870051,51.61709],[-0.0870407,51.6171],[-0.0870742,51.61713],[-0.0871204,51.61715]]}},{"type":"Feature","properties":{"Title":"Fore Street","Direction":"TwoWay","Flow":null,"Protection":null,"Ownership":null,"YearBuilt":null,"Borough":"Enfield","LengthInMetres":54,"stroke":"#388E3C","stroke-width":4},"geometry":{"type":"LineString","coordinates":[[-0.0636428,51.61703],[-0.0634305,51.6175]]}}]}