{"type":"FeatureCollection","features":[{"type":"Feature","properties":{"Title":"C4","Direction":"TwoWay","Flow":null,"Protection":null,"Ownership":null,"YearBuilt":null,"Borough":"Greenwich","LengthInMetres":616,"stroke":"#F44336","stroke-width":4},"geometry":{"type":"LineString","coordinates":[[-0.0233563,51.48091],[-0.0229649,51.4809],[-0.022289,51.48088],[-0.0215219,51.48095],[-0.020685,51.48104],[-0.0199823,51.48112],[-0.019478,51.4812],[-0.0188504,51.48126],[-0.0178741,51.48135],[-0.0172035,51.48139],[-0.0158678,51.48141],[-0.0151811,51.48142],[-0.0150376,51.48145],[-0.0149498,51.48147],[-0.0149139,51.4815],[-0.0148906,51.48154],[-0.0148566,51.48169]]}},{"type":"Feature","properties":{"Title":"C4","Direction":"TwoWay","Flow":null,"Protection":null,"Ownership":null,"YearBuilt":null,"Borough":"Greenwich","LengthInMetres":19,"stroke":"#F44336","stroke-width":4},"geometry":{"type":"LineString","coordinates":[[-0.0264049,51.48152],[-0.0262907,51.48149],[-0.0261464,51.48146]]}},{"type":"Feature","properties":{"Title":"C4","Direction":"TwoWay","Flow":null,"Protection":null,"Ownership":null,"YearBuilt":null,"Borough":"Greenwich","LengthInMetres":48,"stroke":"#F44336","stroke-width":4},"geometry":{"type":"LineString","coordinates":[[-0.0240323,51.48099],[-0.023941,51.48097],[-0.0235642,51.48092],[-0.0233563,51.48091]]}},{"type":"Feature","properties":{"Title":"C4 - Link","Direction":"OneWay","Flow":null,"Protection":null,"Ownership":null,"YearBuilt":null,"Borough":"Greenwich","LengthInMetres":51,"stroke":"#F44336","stroke-width":2},"geometry":{"type":"LineString","coordinates":[[-0.0143266,51.4814],[-0.0147048,51.4814],[-0.014753,51.4814],[-0.0147785,51.4814],[-0.0148161,51.48142],[-0.0148576,51.48144],[-0.0148898,51.48145],[-0.0149488,51.48145],[-0.0150376,51.48145]]}},{"type":"Feature","properties":{"Title":"C4 - Link","Direction":"OneWay","Flow":null,"Protection":null,"Ownership":null,"YearBuilt":null,"Borough":"Greenwich","LengthInMetres":17,"stroke":"#F44336","stroke-width":2},"geometry":{"type":"LineString","coordinates":[[-0.0232319,51.48076],[-0.0231457,51.4809]]}},{"type":"Feature","properties":{"Title":"C4 - Link","Direction":"OneWay","Flow":null,"Protection":null,"Ownership":null,"YearBuilt":null,"Borough":"Greenwich","LengthInMetres":43,"stroke":"#F44336","stroke-width":2},"geometry":{"type":"LineString","coordinates":[[-0.0230008,51.4809],[-0.0229901,51.48083],[-0.023025,51.48073],[-0.0229901,51.48052]]}},{"type":"Feature","properties":{"Title":"C4 - Link","Direction":"OneWay","Flow":null,"Protection":null,"Ownership":null,"YearBuilt":null,"Borough":"Greenwich","LengthInMetres":14,"stroke":"#F44336","stroke-width":2},"geometry":{"type":"LineString","coordinates":[[-0.0191741,51.48135],[-0.0191392,51.48123]]}},{"type":"Feature","properties":{"Title":"C4 - Streetspace extensionÂ","Direction":"TwoWay","Flow":null,"Protection":null,"Ownership":null,"YearBuilt":null,"Borough":"Greenwich","LengthInMetres":939,"stroke":"#F44336","stroke-width":4},"geometry":{"type":"LineString","coordinates":[[0.0186956,51.48665],[0.0196162,51.48672],[0.0203028,51.48674],[0.021483,51.48666],[0.0223842,51.48665],[0.0227704,51.48672],[0.0237146,51.48707],[0.0246587,51.48719],[0.0273195,51.48741],[0.0294223,51.48763],[0.0318698,51.48805]]}},{"type":"Feature","properties":{"Title":"Q14 - (will become C14)","Direction":"TwoWay","Flow":null,"Protection":null,"Ownership":null,"YearBuilt":null,"Borough":"Greenwich","LengthInMetres":971,"stroke":"#F44336","stroke-width":4},"geometry":{"type":"LineString","coordinates":[[0.0422761,51.49471],[0.0408063,51.49483],[0.039315,51.49485],[0.0392077,51.49525],[0.0368366,51.49489],[0.0365362,51.49473],[0.0357959,51.49477],[0.0355277,51.49481],[0.0325021,51.49423],[0.0317726,51.49414],[0.0295839,51.49379],[0.029262,51.49373]]}},{"type":"Feature","properties":{"Title":"Q14 - (will become C14)","Direction":"TwoWay","Flow":null,"Protection":null,"Ownership":null,"YearBuilt":null,"Borough":"Greenwich","LengthInMetres":6268,"stroke":"#F44336","stroke-width":4},"geometry":{"type":"LineString","coordinates":[[0.1202295,51.51142],[0.1193701,51.51119],[0.1178305,51.51087],[0.1157545,51.51049],[0.1139628,51.51019],[0.1116614,51.50987],[0.1112658,51.5097],[0.1110954,51.50959],[0.110905,51.50963],[0.1097495,51.50951],[0.1090499,51.50946],[0.1088095,51.5095],[0.1082107,51.50945],[0.1080216,51.50936],[0.1076971,51.50938],[0.1075093,51.5094],[0.1073685,51.50929],[0.1055916,51.50926],[0.1053851,51.50934],[0.1046327,51.50935],[0.1035638,51.50936],[0.1013939,51.5095],[0.0998973,51.50954],[0.098701,51.5095],[0.0976174,51.5094],[0.0945251,51.50893],[0.0924629,51.50889],[0.0917456,51.50842],[0.0912215,51.50789],[0.0884782,51.50532],[0.088095,51.50463],[0.0878191,51.50393],[0.0873287,51.50372],[0.086901,51.50318],[0.0866547,51.50303],[0.086301,51.5029],[0.0860872,51.50265],[0.0842865,51.50063],[0.0840033,51.50061],[0.0821644,51.49875],[0.0787377,51.49712],[0.077164,51.49642],[0.0768133,51.4962],[0.0769435,51.49587],[0.0762254,51.49568],[0.0760863,51.49586],[0.07584,51.49599],[0.075347,51.4959],[0.0749827,51.49573],[0.0744903,51.49561],[0.073617,51.49558],[0.0733144,51.49554],[0.0730226,51.49548],[0.0724884,51.49531],[0.0719542,51.49519],[0.0712576,51.49515],[0.0704646,51.49495],[0.06976,51.49502],[0.0687122,51.49493],[0.0649553,51.49469],[0.0646166,51.49471],[0.064192,51.49467],[0.0642013,51.49439],[0.0640267,51.49435],[0.0639272,51.49456],[0.0637204,51.4946],[0.0624533,51.49437],[0.0623664,51.4941],[0.061904,51.49407],[0.0616712,51.49419],[0.061233,51.49419],[0.0612231,51.49429],[0.0610894,51.49432],[0.0610171,51.49451],[0.060112,51.49447],[0.0598525,51.49437],[0.0595716,51.49435],[0.0593576,51.49436],[0.0591651,51.49442],[0.057964,51.49441],[0.0566554,51.49447],[0.0566341,51.49441],[0.056028,51.49441],[0.0555425,51.4944],[0.0554339,51.49446],[0.0541833,51.49455],[0.054104,51.49451],[0.054014,51.49449],[0.0538865,51.49449],[0.0537803,51.4945],[0.0529213,51.49464],[0.0516867,51.49473],[0.049314,51.49493],[0.0447833,51.49519]]}},{"type":"Feature","properties":{"Title":"C4 - Streetspace extension","Direction":"TwoWay","Flow":null,"Protection":null,"Ownership":null,"YearBuilt":null,"Borough":"Greenwich","LengthInMetres":7,"stroke":"#F44336","stroke-width":4},"geometry":{"type":"LineString","coordinates":[[0.0006366,51.48454],[0.0007296,51.48455]]}},{"type":"Feature","properties":{"Title":"C4 - Streetspace extension","Direction":"TwoWay","Flow":null,"Protection":null,"Ownership":null,"YearBuilt":null,"Borough":"Greenwich","LengthInMetres":1059,"stroke":"#F44336","stroke-width":4},"geometry":{"type":"LineString","coordinates":[[0.0042809,51.48509],[0.0044964,51.48516],[0.0046895,51.4852],[0.0055317,51.48535],[0.0058938,51.48544],[0.0063659,51.48557],[0.0066636,51.48566],[0.0070766,51.48581],[0.0075326,51.486],[0.0077713,51.48611],[0.0079403,51.48617],[0.0081039,51.48621],[0.0083265,51.48626],[0.0087235,51.48632],[0.0091151,51.48634],[0.0094531,51.48635],[0.0099278,51.48634],[0.0110731,51.48625],[0.011387,51.48623],[0.0117437,51.48621],[0.0124464,51.48619],[0.0128997,51.48618],[0.0130714,51.48617],[0.0137956,51.48611],[0.0142006,51.48608],[0.0145225,51.48608],[0.0147826,51.48611],[0.0151555,51.48616],[0.0154398,51.48623],[0.0157724,51.48629],[0.0161345,51.48635],[0.0165448,51.48641],[0.0167487,51.48639],[0.0173227,51.48648],[0.0175051,51.48653],[0.0175694,51.48655],[0.0177679,51.48662],[0.0178296,51.48662],[0.0180254,51.48646],[0.0180576,51.48645],[0.0182802,51.48653],[0.0184009,51.48658],[0.0186956,51.48665]]}},{"type":"Feature","properties":{"Title":"C4 - Streetspace extension","Direction":"OneWay","Flow":null,"Protection":null,"Ownership":null,"YearBuilt":null,"Borough":"Greenwich","LengthInMetres":12,"stroke":"#F44336","stroke-width":2},"geometry":{"type":"LineString","coordinates":[[-0.0035677,51.4835],[-0.0034098,51.48354]]}},{"type":"Feature","properties":{"Title":"C4 - Streetspace extension","Direction":"OneWay","Flow":null,"Protection":null,"Ownership":null,"YearBuilt":null,"Borough":"Greenwich","LengthInMetres":2,"stroke":"#F44336","stroke-width":2},"geometry":{"type":"LineString","coordinates":[[-0.0027097,51.48373],[-0.0027409,51.48373]]}},{"type":"Feature","properties":{"Title":"LCN 64","Direction":"TwoWay","Flow":null,"Protection":null,"Ownership":null,"YearBuilt":null,"Borough":"Greenwich","LengthInMetres":1113,"stroke":"#F44336","stroke-width":4},"geometry":{"type":"LineString","coordinates":[[0.0025797,51.50102],[0.0025609,51.50082],[0.0025609,51.50063],[0.0025449,51.50041],[0.0025046,51.50016],[0.0025422,51.50002],[0.0024832,51.49949],[0.0024242,51.49934],[0.0024376,51.4992],[0.0024698,51.49906],[0.0026119,51.49866],[0.002746,51.49839],[0.0029123,51.49816],[0.0030303,51.49806],[0.0032449,51.49804],[0.0033576,51.49791],[0.0032771,51.49787],[0.0035614,51.49766],[0.0036526,51.49756],[0.0039262,51.49742],[0.0043178,51.49724],[0.0050259,51.49703],[0.0054363,51.49688],[0.005683,51.49677],[0.0061149,51.49656],[0.0063992,51.4964],[0.0067827,51.49618],[0.0070558,51.49603],[0.0074962,51.49572],[0.0077644,51.49552],[0.0080139,51.4953],[0.0083438,51.49496],[0.0085128,51.4948],[0.0089419,51.49434],[0.0092477,51.49401],[0.0094837,51.4938],[0.009642,51.49373],[0.00987,51.49371],[0.0100926,51.49374],[0.0102267,51.49379],[0.0103501,51.49386],[0.010452,51.49379],[0.0105271,51.49383],[0.0106559,51.49374]]}},{"type":"Feature","properties":{"Title":"LCN 66","Direction":"TwoWay","Flow":null,"Protection":null,"Ownership":null,"YearBuilt":null,"Borough":"Greenwich","LengthInMetres":1214,"stroke":"#F44336","stroke-width":4},"geometry":{"type":"LineString","coordinates":[[0.1208381,51.50615],[0.119839,51.50544],[0.1196164,51.50538],[0.1194582,51.50526],[0.1192972,51.50524],[0.1184094,51.50464],[0.1182351,51.50449],[0.1181868,51.50443],[0.1178435,51.50417],[0.117822,51.50404],[0.1178113,51.50394],[0.1174358,51.50367],[0.1171837,51.50365],[0.1170174,51.50364],[0.1165319,51.50332],[0.1164675,51.50331],[0.115982,51.5033],[0.1156736,51.50334],[0.1147455,51.50337],[0.1144746,51.50341],[0.1142788,51.50348],[0.1139972,51.50368],[0.1137799,51.50389],[0.1136834,51.50403],[0.1136056,51.50418],[0.1134554,51.50429],[0.1133481,51.50436],[0.1129619,51.50481],[0.1128733,51.50492],[0.112876,51.505],[0.1128465,51.50504],[0.1127714,51.50511],[0.1125005,51.50548],[0.1124013,51.5056],[0.1122859,51.50571],[0.1121438,51.50582],[0.1119829,51.50593],[0.1119212,51.506],[0.1119507,51.5061],[0.1120097,51.50621],[0.112066,51.50634],[0.112058,51.50645],[0.1119936,51.50656],[0.1119185,51.50663],[0.1117871,51.50674],[0.1116583,51.50688],[0.1115939,51.50693],[0.1115269,51.50694],[0.1114303,51.50693],[0.111197,51.50686],[0.1111192,51.50695],[0.1109422,51.50692],[0.1108671,51.50702],[0.112125,51.50734]]}},{"type":"Feature","properties":{"Title":"LCN 66","Direction":"TwoWay","Flow":null,"Protection":null,"Ownership":null,"YearBuilt":null,"Borough":"Greenwich","LengthInMetres":1005,"stroke":"#F44336","stroke-width":4},"geometry":{"type":"LineString","coordinates":[[0.1138542,51.50378],[0.1119176,51.5038],[0.1115206,51.50379],[0.1112471,51.50381],[0.1112202,51.50387],[0.1111183,51.50432],[0.1109198,51.50437],[0.1106623,51.50442],[0.1104263,51.50443],[0.1102171,51.50438],[0.1099596,51.5043],[0.1099006,51.50423],[0.1098201,51.50421],[0.109627,51.50424],[0.1094446,51.50432],[0.1093588,51.50436],[0.10761,51.50411],[0.1074651,51.504],[0.1072935,51.50395],[0.1071969,51.50394],[0.1070145,51.5039],[0.1068214,51.50374],[0.1067088,51.50372],[0.1060489,51.50378],[0.1055608,51.50392],[0.1053998,51.504],[0.1052174,51.50415],[0.1051531,51.50424],[0.1049224,51.5044],[0.1046595,51.50456],[0.1045254,51.50469],[0.1042787,51.50498],[0.104799,51.50527],[0.1050833,51.50548],[0.1051263,51.50557],[0.1050726,51.50569],[0.1048902,51.50582],[0.1046864,51.50593],[0.1044986,51.50601],[0.1043377,51.50598],[0.1042143,51.50592],[0.1040856,51.50599]]}},{"type":"Feature","properties":{"Title":"LCN 66","Direction":"TwoWay","Flow":null,"Protection":null,"Ownership":null,"YearBuilt":null,"Borough":"Greenwich","LengthInMetres":1023,"stroke":"#F44336","stroke-width":4},"geometry":{"type":"LineString","coordinates":[[0.09513,51.50179],[0.094969,51.50166],[0.0943307,51.50139],[0.093349,51.50115],[0.0917021,51.50078],[0.0910906,51.50066],[0.0906078,51.50076],[0.0903878,51.50075],[0.0902323,51.50073],[0.090184,51.50066],[0.0901357,51.5005],[0.0897441,51.49992],[0.0895652,51.49978],[0.0893542,51.49968],[0.0888248,51.49961],[0.0883346,51.49949],[0.0876439,51.49919],[0.0863202,51.49911],[0.0859588,51.4992],[0.0857261,51.49921],[0.0853245,51.49919],[0.0849228,51.49912],[0.0841195,51.49899],[0.0836374,51.49899],[0.0833591,51.49905],[0.0829252,51.49925],[0.0829765,51.49933],[0.0828874,51.49934],[0.082734,51.4992],[0.0826631,51.49924]]}},{"type":"Feature","properties":{"Title":"LCN 66","Direction":"TwoWay","Flow":null,"Protection":null,"Ownership":null,"YearBuilt":null,"Borough":"Greenwich","LengthInMetres":305,"stroke":"#F44336","stroke-width":4},"geometry":{"type":"LineString","coordinates":[[0.1072291,51.5039],[0.1080767,51.50163],[0.1082483,51.50153],[0.1081947,51.50145],[0.1079157,51.50142]]}},{"type":"Feature","properties":{"Title":"LCN 66","Direction":"TwoWay","Flow":null,"Protection":null,"Ownership":null,"YearBuilt":null,"Borough":"Greenwich","LengthInMetres":193,"stroke":"#F44336","stroke-width":4},"geometry":{"type":"LineString","coordinates":[[0.101563,51.50202],[0.1011821,51.50211],[0.1006189,51.50218],[0.1004311,51.50217],[0.1001951,51.50219],[0.1000771,51.50224],[0.0999966,51.50231],[0.0995889,51.50238],[0.0993421,51.50244],[0.0991651,51.50245],[0.0989505,51.5024]]}},{"type":"Feature","properties":{"Title":"LCN 66","Direction":"TwoWay","Flow":null,"Protection":null,"Ownership":null,"YearBuilt":null,"Borough":"Greenwich","LengthInMetres":46,"stroke":"#F44336","stroke-width":4},"geometry":{"type":"LineString","coordinates":[[0.1027546,51.502],[0.1026734,51.50195],[0.1022657,51.50195],[0.1021209,51.50196]]}},{"type":"Feature","properties":{"Title":"LCN 66","Direction":"TwoWay","Flow":null,"Protection":null,"Ownership":null,"YearBuilt":null,"Borough":"Greenwich","LengthInMetres":152,"stroke":"#F44336","stroke-width":4},"geometry":{"type":"LineString","coordinates":[[0.1030061,51.50169],[0.103108,51.50167],[0.1032528,51.50179],[0.1036713,51.50178],[0.1043096,51.50169],[0.1050767,51.50167]]}},{"type":"Feature","properties":{"Title":"LCN 66","Direction":"TwoWay","Flow":null,"Protection":null,"Ownership":null,"YearBuilt":null,"Borough":"Greenwich","LengthInMetres":134,"stroke":"#F44336","stroke-width":4},"geometry":{"type":"LineString","coordinates":[[0.1027747,51.50322],[0.1008972,51.5035]]}},{"type":"Feature","properties":{"Title":"LCN 68","Direction":"TwoWay","Flow":null,"Protection":null,"Ownership":null,"YearBuilt":null,"Borough":"Greenwich","LengthInMetres":72,"stroke":"#F44336","stroke-width":4},"geometry":{"type":"LineString","coordinates":[[0.1209528,51.50107],[0.120477,51.50164]]}},{"type":"Feature","properties":{"Title":"LCN 68","Direction":"TwoWay","Flow":null,"Protection":null,"Ownership":null,"YearBuilt":null,"Borough":"Greenwich","LengthInMetres":34,"stroke":"#F44336","stroke-width":4},"geometry":{"type":"LineString","coordinates":[[0.120477,51.50164],[0.1204174,51.50171],[0.1203423,51.50159],[0.120477,51.50164]]}},{"type":"Feature","properties":{"Title":"LCN 68","Direction":"TwoWay","Flow":null,"Protection":null,"Ownership":null,"YearBuilt":null,"Borough":"Greenwich","LengthInMetres":47,"stroke":"#F44336","stroke-width":4},"geometry":{"type":"LineString","coordinates":[[0.120477,51.50164],[0.120868,51.50178],[0.1209142,51.50192]]}},{"type":"Feature","properties":{"Title":"LCN 68","Direction":"TwoWay","Flow":null,"Protection":null,"Ownership":null,"YearBuilt":null,"Borough":"Greenwich","LengthInMetres":104,"stroke":"#F44336","stroke-width":4},"geometry":{"type":"LineString","coordinates":[[0.1209421,51.50239],[0.1209002,51.50298],[0.1209036,51.50332]]}},{"type":"Feature","properties":{"Title":"LCN 68","Direction":"TwoWay","Flow":null,"Protection":null,"Ownership":null,"YearBuilt":null,"Borough":"Greenwich","LengthInMetres":50,"stroke":"#F44336","stroke-width":4},"geometry":{"type":"LineString","coordinates":[[0.1208109,51.50638],[0.1207741,51.50646],[0.1207634,51.50671],[0.1207619,51.50683]]}},{"type":"Feature","properties":{"Title":"LCN 68","Direction":"TwoWay","Flow":null,"Protection":null,"Ownership":null,"YearBuilt":null,"Borough":"Greenwich","LengthInMetres":105,"stroke":"#F44336","stroke-width":4},"geometry":{"type":"LineString","coordinates":[[0.1207063,51.50843],[0.1205917,51.5085],[0.1204362,51.5086],[0.1204227,51.50867],[0.1206105,51.50909],[0.12064,51.50927],[0.1206414,51.50929]]}},{"type":"Feature","properties":{"Title":"LCN 68","Direction":"TwoWay","Flow":null,"Protection":null,"Ownership":null,"YearBuilt":null,"Borough":"Greenwich","LengthInMetres":135,"stroke":"#F44336","stroke-width":4},"geometry":{"type":"LineString","coordinates":[[0.120565,51.51039],[0.1204898,51.51059],[0.1203691,51.51056],[0.1202833,51.51059],[0.1202189,51.51068],[0.1201733,51.51082],[0.1200499,51.51088],[0.1198622,51.51089],[0.1197817,51.51104],[0.1197012,51.51119],[0.1196369,51.51127]]}},{"type":"Feature","properties":{"Title":"LCN 68","Direction":"OneWay","Flow":null,"Protection":null,"Ownership":null,"YearBuilt":null,"Borough":"Greenwich","LengthInMetres":509,"stroke":"#F44336","stroke-width":2},"geometry":{"type":"LineString","coordinates":[[0.0825294,51.49105],[0.0824707,51.49073],[0.0823527,51.49056],[0.0811082,51.49082],[0.080164,51.49089],[0.0786512,51.491],[0.0772726,51.49093],[0.0759369,51.49081]]}},{"type":"Feature","properties":{"Title":"LCN 68","Direction":"TwoWay","Flow":null,"Protection":null,"Ownership":null,"YearBuilt":null,"Borough":"Greenwich","LengthInMetres":557,"stroke":"#F44336","stroke-width":4},"geometry":{"type":"LineString","coordinates":[[0.0855174,51.49026],[0.0851795,51.49029],[0.0843533,51.49062],[0.0839349,51.49075],[0.0832483,51.49093],[0.0825294,51.49105],[0.0822451,51.49111],[0.0821807,51.49142],[0.0821486,51.49158],[0.0818428,51.49166],[0.0816711,51.49171],[0.0819233,51.49322],[0.0820574,51.49334],[0.0823953,51.49356]]}},{"type":"Feature","properties":{"Title":"National Cycle Network - 21","Direction":"TwoWay","Flow":null,"Protection":null,"Ownership":null,"YearBuilt":null,"Borough":"Greenwich","LengthInMetres":36,"stroke":"#F44336","stroke-width":4},"geometry":{"type":"LineString","coordinates":[[-0.0228039,51.47454],[-0.0226337,51.47451],[-0.0226532,51.4743]]}},{"type":"Feature","properties":{"Title":"National Cycle Network - 21","Direction":"TwoWay","Flow":null,"Protection":null,"Ownership":null,"YearBuilt":null,"Borough":"Greenwich","LengthInMetres":38,"stroke":"#F44336","stroke-width":4},"geometry":{"type":"LineString","coordinates":[[-0.0225555,51.47397],[-0.0225566,51.47404],[-0.0225593,51.47415],[-0.0226532,51.4743]]}},{"type":"Feature","properties":{"Title":"Rochester Way","Direction":"TwoWay","Flow":null,"Protection":null,"Ownership":null,"YearBuilt":null,"Borough":"Greenwich","LengthInMetres":1608,"stroke":"#F44336","stroke-width":4},"geometry":{"type":"LineString","coordinates":[[0.0476376,51.46021],[0.0462644,51.46021],[0.0445477,51.46045],[0.0415866,51.46126],[0.0391833,51.46206],[0.0367801,51.46324],[0.0348918,51.46425],[0.0333468,51.46481],[0.0307719,51.46567],[0.027682,51.46658],[0.0273816,51.46644]]}},{"type":"Feature","properties":{"Title":"West Parkside","Direction":"TwoWay","Flow":null,"Protection":null,"Ownership":null,"YearBuilt":null,"Borough":"Greenwich","LengthInMetres":640,"stroke":"#F44336","stroke-width":4},"geometry":{"type":"LineString","coordinates":[[0.0119756,51.4949],[0.0113318,51.49519],[0.0106559,51.49548],[0.0096474,51.49587],[0.008714,51.49619],[0.0082741,51.49642],[0.0079415,51.49672],[0.0076948,51.49703],[0.0074695,51.49754],[0.0072227,51.49812],[0.0069545,51.49869],[0.0067077,51.49899],[0.0065253,51.49917]]}},{"type":"Feature","properties":{"Title":"East Parkside","Direction":"TwoWay","Flow":null,"Protection":null,"Ownership":null,"YearBuilt":null,"Borough":"Greenwich","LengthInMetres":623,"stroke":"#F44336","stroke-width":4},"geometry":{"type":"LineString","coordinates":[[0.0062968,51.50017],[0.0070183,51.49954],[0.0079302,51.49875],[0.0089575,51.49787],[0.0096442,51.49732],[0.0071122,51.49606],[0.0070558,51.49603]]}},{"type":"Feature","properties":{"Title":"Thamesmead Peabody Project","Direction":"TwoWay","Flow":null,"Protection":null,"Ownership":null,"YearBuilt":null,"Borough":"Greenwich","LengthInMetres":255,"stroke":"#F44336","stroke-width":4},"geometry":{"type":"LineString","coordinates":[[0.1212047,51.49302],[0.1211824,51.4933],[0.1210965,51.49353],[0.1210965,51.49393],[0.1211395,51.49449],[0.1211395,51.49493],[0.1211574,51.4953]]}},{"type":"Feature","properties":{"Title":"LCN 66","Direction":"TwoWay","Flow":null,"Protection":null,"Ownership":null,"YearBuilt":null,"Borough":"Greenwich","LengthInMetres":154,"stroke":"#F44336","stroke-width":4},"geometry":{"type":"LineString","coordinates":[[0.1119799,51.50839],[0.1117561,51.50864],[0.1116488,51.50877],[0.1114101,51.50906],[0.1112532,51.50926],[0.111044,51.50953],[0.1109474,51.50961]]}},{"type":"Feature","properties":{"Title":"Rochester Way Relief Road","Direction":"TwoWay","Flow":null,"Protection":null,"Ownership":null,"YearBuilt":null,"Borough":"Greenwich","LengthInMetres":263,"stroke":"#F44336","stroke-width":4},"geometry":{"type":"LineString","coordinates":[[0.0472837,51.45559],[0.0480198,51.45546],[0.048583,51.45534],[0.0487547,51.45531],[0.0496023,51.45548],[0.0501816,51.45557],[0.0509326,51.45565]]}},{"type":"Feature","properties":{"Title":"Plumstead Road","Direction":"OneWay","Flow":null,"Protection":null,"Ownership":null,"YearBuilt":null,"Borough":"Greenwich","LengthInMetres":546,"stroke":"#F44336","stroke-width":2},"geometry":{"type":"LineString","coordinates":[[0.0736834,51.49094],[0.0745203,51.49087],[0.0757434,51.49099],[0.0781252,51.49118],[0.0800564,51.49114],[0.081494,51.49106]]}},{"type":"Feature","properties":{"Title":"Eltham Hill","Direction":"OneWay","Flow":null,"Protection":null,"Ownership":null,"YearBuilt":null,"Borough":"Greenwich","LengthInMetres":140,"stroke":"#F44336","stroke-width":2},"geometry":{"type":"LineString","coordinates":[[0.0489052,51.4515],[0.0496455,51.45136],[0.0501712,51.45125],[0.0508471,51.45118]]}},{"type":"Feature","properties":{"Title":"Pier Way","Direction":"TwoWay","Flow":null,"Protection":null,"Ownership":null,"YearBuilt":null,"Borough":"Greenwich","LengthInMetres":194,"stroke":"#F44336","stroke-width":4},"geometry":{"type":"LineString","coordinates":[[0.0805133,51.4958],[0.0803202,51.49638],[0.0798589,51.49677],[0.0798052,51.49687],[0.0792473,51.49731]]}},{"type":"Feature","properties":{"Title":"Southern Way","Direction":"TwoWay","Flow":null,"Protection":null,"Ownership":null,"YearBuilt":null,"Borough":"Greenwich","LengthInMetres":739,"stroke":"#F44336","stroke-width":4},"geometry":{"type":"LineString","coordinates":[[0.0170523,51.48905],[0.0163871,51.48905],[0.0137049,51.48978],[0.0122887,51.49015],[0.0120097,51.49037],[0.0120741,51.49059],[0.0127607,51.49109],[0.0134903,51.4916],[0.0143486,51.49219],[0.0149494,51.49266],[0.0151425,51.49282]]}},{"type":"Feature","properties":{"Title":"Norway Street","Direction":"OneWay","Flow":null,"Protection":null,"Ownership":null,"YearBuilt":null,"Borough":"Greenwich","LengthInMetres":63,"stroke":"#F44336","stroke-width":2},"geometry":{"type":"LineString","coordinates":[[-0.0148204,51.48186],[-0.0147668,51.48193],[-0.0147212,51.48237],[-0.014697,51.48239],[-0.0146541,51.48239]]}},{"type":"Feature","properties":{"Title":"Kidbrooke Park Road","Direction":"OneWay","Flow":null,"Protection":null,"Ownership":null,"YearBuilt":null,"Borough":"Greenwich","LengthInMetres":59,"stroke":"#F44336","stroke-width":2},"geometry":{"type":"LineString","coordinates":[[0.0269388,51.46296],[0.0274242,51.4634]]}},{"type":"Feature","properties":{"Title":"Vanbrugh Park","Direction":"OneWay","Flow":null,"Protection":null,"Ownership":null,"YearBuilt":null,"Borough":"Greenwich","LengthInMetres":73,"stroke":"#F44336","stroke-width":2},"geometry":{"type":"LineString","coordinates":[[0.0186977,51.47699],[0.0188559,51.477],[0.0189753,51.47704],[0.0190276,51.47707],[0.0190558,51.47717],[0.0190625,51.4772],[0.0190973,51.47722],[0.0191429,51.47722],[0.0192019,51.47721],[0.0192918,51.47719],[0.0193977,51.47715],[0.019497,51.47713]]}},{"type":"Feature","properties":{"Title":"Eltham High Street","Direction":"TwoWay","Flow":null,"Protection":null,"Ownership":null,"YearBuilt":null,"Borough":"Greenwich","LengthInMetres":562,"stroke":"#F44336","stroke-width":4},"geometry":{"type":"LineString","coordinates":[[0.0522438,51.4508],[0.0551621,51.45071],[0.0564066,51.45076],[0.0579945,51.45078],[0.0593034,51.45083],[0.0603119,51.45083]]}}]}