{"type":"FeatureCollection","features":[{"type":"Feature","properties":{"Title":"C9","Direction":"TwoWay","Flow":null,"Protection":null,"Ownership":null,"YearBuilt":null,"Borough":"Hammersmith and Fulham","LengthInMetres":1039,"stroke":"#1A43A8","stroke-width":4},"geometry":{"type":"LineString","coordinates":[[-0.2084929,51.49599],[-0.2088553,51.49594],[-0.2091826,51.49589],[-0.2095151,51.49583],[-0.2098156,51.49575],[-0.2101106,51.49565],[-0.210411,51.49551],[-0.2108348,51.49532],[-0.2114678,51.49505],[-0.212192,51.49476],[-0.2127606,51.49454],[-0.2131576,51.4944],[-0.213517,51.49429],[-0.21415,51.49413],[-0.2145684,51.49402],[-0.2150405,51.49388],[-0.2153946,51.49378],[-0.2157003,51.49368],[-0.2160329,51.49357],[-0.2163655,51.49346],[-0.2165586,51.49342],[-0.2168376,51.49337],[-0.2172775,51.49333],[-0.2177388,51.49331],[-0.2182109,51.4933],[-0.2188331,51.49329],[-0.2192784,51.49327],[-0.2201026,51.4932],[-0.2206371,51.49313],[-0.2211267,51.49308],[-0.2215159,51.49306],[-0.2218436,51.49305],[-0.222145,51.49305],[-0.2223616,51.49304]]}},{"type":"Feature","properties":{"Title":"C9","Direction":"TwoWay","Flow":null,"Protection":null,"Ownership":null,"YearBuilt":null,"Borough":"Hammersmith and Fulham","LengthInMetres":5,"stroke":"#1A43A8","stroke-width":4},"geometry":{"type":"LineString","coordinates":[[-0.2452316,51.4934],[-0.2451585,51.4934]]}},{"type":"Feature","properties":{"Title":"C9","Direction":"TwoWay","Flow":null,"Protection":null,"Ownership":null,"YearBuilt":null,"Borough":"Hammersmith and Fulham","LengthInMetres":236,"stroke":"#1A43A8","stroke-width":4},"geometry":{"type":"LineString","coordinates":[[-0.2256686,51.49295],[-0.225013,51.493],[-0.2248864,51.49298],[-0.2247801,51.49298],[-0.22466,51.49301],[-0.2245478,51.49306],[-0.2243144,51.49312],[-0.2240462,51.49316],[-0.2237351,51.49316],[-0.2232898,51.49312],[-0.2228553,51.49309],[-0.2223616,51.49304]]}},{"type":"Feature","properties":{"Title":"C9 - Link","Direction":"OneWay","Flow":null,"Protection":null,"Ownership":null,"YearBuilt":null,"Borough":"Hammersmith and Fulham","LengthInMetres":38,"stroke":"#1A43A8","stroke-width":2},"geometry":{"type":"LineString","coordinates":[[-0.2249324,51.49227],[-0.2248841,51.49235],[-0.224876,51.49246],[-0.2248733,51.49261]]}},{"type":"Feature","properties":{"Title":"C9 - Link","Direction":"OneWay","Flow":null,"Protection":null,"Ownership":null,"YearBuilt":null,"Borough":"Hammersmith and Fulham","LengthInMetres":30,"stroke":"#1A43A8","stroke-width":2},"geometry":{"type":"LineString","coordinates":[[-0.2248787,51.49272],[-0.2249055,51.49279],[-0.2249324,51.49288],[-0.2249189,51.49293],[-0.2248864,51.49298]]}},{"type":"Feature","properties":{"Title":"C27","Direction":"TwoWay","Flow":null,"Protection":null,"Ownership":null,"YearBuilt":null,"Borough":"Hammersmith and Fulham","LengthInMetres":39,"stroke":"#1A43A8","stroke-width":4},"geometry":{"type":"LineString","coordinates":[[-0.2458027,51.51431],[-0.2457597,51.51396]]}},{"type":"Feature","properties":{"Title":"C27","Direction":"TwoWay","Flow":null,"Protection":null,"Ownership":null,"YearBuilt":null,"Borough":"Hammersmith and Fulham","LengthInMetres":14,"stroke":"#1A43A8","stroke-width":4},"geometry":{"type":"LineString","coordinates":[[-0.2280771,51.52124],[-0.2282841,51.52123]]}},{"type":"Feature","properties":{"Title":"C34","Direction":"TwoWay","Flow":null,"Protection":null,"Ownership":null,"YearBuilt":null,"Borough":"Hammersmith and Fulham","LengthInMetres":12,"stroke":"#1A43A8","stroke-width":4},"geometry":{"type":"LineString","coordinates":[[-0.2487622,51.51377],[-0.2489346,51.51377]]}},{"type":"Feature","properties":{"Title":"C9 - LB Hammersmith & Fulham","Direction":"TwoWay","Flow":null,"Protection":null,"Ownership":null,"YearBuilt":null,"Borough":"Hammersmith and Fulham","LengthInMetres":1143,"stroke":"#1A43A8","stroke-width":4},"geometry":{"type":"LineString","coordinates":[[-0.2451585,51.4934],[-0.2424939,51.49352],[-0.2420611,51.49354],[-0.2417678,51.49354],[-0.2412116,51.49354],[-0.2404516,51.4935],[-0.2394002,51.49346],[-0.2387537,51.49343],[-0.2382334,51.49339],[-0.237949,51.49336],[-0.2374582,51.49328],[-0.236962,51.49318],[-0.2365436,51.4931],[-0.23616,51.49303],[-0.235637,51.49294],[-0.235181,51.49289],[-0.2347116,51.49285],[-0.2342771,51.49281],[-0.2336763,51.49274],[-0.2329494,51.49266],[-0.2326598,51.49263],[-0.2322092,51.4926],[-0.2316432,51.49257],[-0.2307513,51.49254],[-0.2305837,51.49259],[-0.2301626,51.49259],[-0.2293847,51.49257],[-0.2289878,51.49257],[-0.2289825,51.49251]]}},{"type":"Feature","properties":{"Title":"C9 - LB Hammersmith & Fulham","Direction":"TwoWay","Flow":null,"Protection":null,"Ownership":null,"YearBuilt":null,"Borough":"Hammersmith and Fulham","LengthInMetres":235,"stroke":"#1A43A8","stroke-width":4},"geometry":{"type":"LineString","coordinates":[[-0.2289878,51.49257],[-0.2287417,51.49258],[-0.2285814,51.49259],[-0.2284299,51.4926],[-0.2281657,51.49263],[-0.2276588,51.49271],[-0.2270392,51.49279],[-0.226307,51.49288],[-0.2256686,51.49295]]}},{"type":"Feature","properties":{"Title":"LCN 36","Direction":"TwoWay","Flow":null,"Protection":null,"Ownership":null,"YearBuilt":null,"Borough":"Hammersmith and Fulham","LengthInMetres":60,"stroke":"#1A43A8","stroke-width":4},"geometry":{"type":"LineString","coordinates":[[-0.2157888,51.50184],[-0.2150912,51.50216]]}},{"type":"Feature","properties":{"Title":"Wandsworth Bridge","Direction":"TwoWay","Flow":null,"Protection":null,"Ownership":null,"YearBuilt":null,"Borough":"Hammersmith and Fulham","LengthInMetres":218,"stroke":"#1A43A8","stroke-width":4},"geometry":{"type":"LineString","coordinates":[[-0.1878321,51.46497],[-0.1894526,51.46665]]}},{"type":"Feature","properties":{"Title":"Shepherd's Bush Green","Direction":"TwoWay","Flow":null,"Protection":null,"Ownership":null,"YearBuilt":null,"Borough":"Hammersmith and Fulham","LengthInMetres":8,"stroke":"#1A43A8","stroke-width":4},"geometry":{"type":"LineString","coordinates":[[-0.2206254,51.50392],[-0.2206273,51.50388],[-0.2206139,51.50385]]}},{"type":"Feature","properties":{"Title":"Crisp Road","Direction":"OneWay","Flow":null,"Protection":null,"Ownership":null,"YearBuilt":null,"Borough":"Hammersmith and Fulham","LengthInMetres":60,"stroke":"#1A43A8","stroke-width":2},"geometry":{"type":"LineString","coordinates":[[-0.226432,51.48789],[-0.2269255,51.48833]]}},{"type":"Feature","properties":{"Title":"Talgarth Road","Direction":"TwoWay","Flow":null,"Protection":null,"Ownership":null,"YearBuilt":null,"Borough":"Hammersmith and Fulham","LengthInMetres":175,"stroke":"#1A43A8","stroke-width":4},"geometry":{"type":"LineString","coordinates":[[-0.2193203,51.49159],[-0.2195188,51.49147],[-0.2199319,51.49148],[-0.2206078,51.49148],[-0.2210477,51.49147],[-0.2217558,51.49146]]}},{"type":"Feature","properties":{"Title":"Hammersmith Bridge Road","Direction":"TwoWay","Flow":null,"Protection":null,"Ownership":null,"YearBuilt":null,"Borough":"Hammersmith and Fulham","LengthInMetres":110,"stroke":"#1A43A8","stroke-width":4},"geometry":{"type":"LineString","coordinates":[[-0.2279273,51.49045],[-0.2275464,51.49083],[-0.2274552,51.49092],[-0.227128,51.4913]]}},{"type":"Feature","properties":{"Title":"Hammersmith Bridge Road","Direction":"TwoWay","Flow":null,"Protection":null,"Ownership":null,"YearBuilt":null,"Borough":"Hammersmith and Fulham","LengthInMetres":172,"stroke":"#1A43A8","stroke-width":4},"geometry":{"type":"LineString","coordinates":[[-0.2267095,51.49183],[-0.226967,51.49168],[-0.2271816,51.49158],[-0.2274713,51.49148],[-0.2276859,51.49143],[-0.2281848,51.49135],[-0.2286193,51.49128],[-0.2289411,51.49124]]}},{"type":"Feature","properties":{"Title":"Hammersmith Bridge Road","Direction":"TwoWay","Flow":null,"Protection":null,"Ownership":null,"YearBuilt":null,"Borough":"Hammersmith and Fulham","LengthInMetres":10,"stroke":"#1A43A8","stroke-width":4},"geometry":{"type":"LineString","coordinates":[[-0.2289411,51.49124],[-0.229019,51.49132]]}},{"type":"Feature","properties":{"Title":"Hammersmith Bridge Road","Direction":"TwoWay","Flow":null,"Protection":null,"Ownership":null,"YearBuilt":null,"Borough":"Hammersmith and Fulham","LengthInMetres":41,"stroke":"#1A43A8","stroke-width":4},"geometry":{"type":"LineString","coordinates":[[-0.2289411,51.49124],[-0.2289572,51.49111],[-0.2289841,51.49095],[-0.2289989,51.49087]]}},{"type":"Feature","properties":{"Title":"Hammersmith Bridge","Direction":"TwoWay","Flow":null,"Protection":null,"Ownership":null,"YearBuilt":null,"Borough":"Hammersmith and Fulham","LengthInMetres":219,"stroke":"#1A43A8","stroke-width":4},"geometry":{"type":"LineString","coordinates":[[-0.2304085,51.48821],[-0.2286779,51.48986]]}},{"type":"Feature","properties":{"Title":"Bishop King's Road","Direction":"TwoWay","Flow":null,"Protection":null,"Ownership":null,"YearBuilt":null,"Borough":"Hammersmith and Fulham","LengthInMetres":7,"stroke":"#1A43A8","stroke-width":4},"geometry":{"type":"LineString","coordinates":[[-0.210899,51.49468],[-0.210822,51.49472]]}},{"type":"Feature","properties":{"Title":"Ranelagh Gardens / Putney Bridge station","Direction":"TwoWay","Flow":null,"Protection":null,"Ownership":null,"YearBuilt":null,"Borough":"Hammersmith and Fulham","LengthInMetres":38,"stroke":"#1A43A8","stroke-width":4},"geometry":{"type":"LineString","coordinates":[[-0.209151,51.46775],[-0.208609,51.46771]]}},{"type":"Feature","properties":{"Title":"Poplar Grove","Direction":"TwoWay","Flow":null,"Protection":null,"Ownership":null,"YearBuilt":null,"Borough":"Hammersmith and Fulham","LengthInMetres":11,"stroke":"#1A43A8","stroke-width":4},"geometry":{"type":"LineString","coordinates":[[-0.224904,51.50129],[-0.22475,51.50129]]}},{"type":"Feature","properties":{"Title":"Wood Lane - LB Hammersmith & Fulham","Direction":"TwoWay","Flow":null,"Protection":null,"Ownership":null,"YearBuilt":null,"Borough":"Hammersmith and Fulham","LengthInMetres":787,"stroke":"#1A43A8","stroke-width":4},"geometry":{"type":"LineString","coordinates":[[-0.2246408,51.50525],[-0.2245764,51.50758],[-0.224512,51.50949],[-0.2245978,51.51101],[-0.224791,51.51189],[-0.2249519,51.5123]]}},{"type":"Feature","properties":{"Title":"Uxbridge Road - LB Hammersmith & Fulham","Direction":"OneWay","Flow":null,"Protection":null,"Ownership":null,"YearBuilt":null,"Borough":"Hammersmith and Fulham","LengthInMetres":366,"stroke":"#1A43A8","stroke-width":2},"geometry":{"type":"LineString","coordinates":[[-0.2270173,51.50567],[-0.2257889,51.50541],[-0.2225058,51.50481],[-0.2219761,51.50472]]}},{"type":"Feature","properties":{"Title":"Uxbridge Road - LB Hammersmith and Fulham","Direction":"OneWay","Flow":null,"Protection":null,"Ownership":null,"YearBuilt":null,"Borough":"Hammersmith and Fulham","LengthInMetres":228,"stroke":"#1A43A8","stroke-width":2},"geometry":{"type":"LineString","coordinates":[[-0.2344664,51.50651],[-0.233415,51.50653],[-0.2320846,51.50641],[-0.2312102,51.50632]]}},{"type":"Feature","properties":{"Title":"Shepherd's Bush Green - LB Hammersmith & Fulham","Direction":"OneWay","Flow":null,"Protection":null,"Ownership":null,"YearBuilt":null,"Borough":"Hammersmith and Fulham","LengthInMetres":79,"stroke":"#1A43A8","stroke-width":2},"geometry":{"type":"LineString","coordinates":[[-0.219324,51.50414],[-0.2204188,51.50395]]}}]}