{"type":"FeatureCollection","features":[{"type":"Feature","properties":{"Title":"C1","Direction":"TwoWay","Flow":null,"Protection":null,"Ownership":null,"YearBuilt":null,"Borough":"Haringey","LengthInMetres":12,"stroke":"#1A43A8","stroke-width":4},"geometry":{"type":"LineString","coordinates":[[-0.0734863,51.60412],[-0.0733897,51.60421]]}},{"type":"Feature","properties":{"Title":"CS1 - (will become C1)","Direction":"TwoWay","Flow":null,"Protection":null,"Ownership":null,"YearBuilt":null,"Borough":"Haringey","LengthInMetres":15,"stroke":"#1A43A8","stroke-width":4},"geometry":{"type":"LineString","coordinates":[[-0.0706897,51.60217],[-0.0704805,51.60218]]}},{"type":"Feature","properties":{"Title":"C1","Direction":"TwoWay","Flow":null,"Protection":null,"Ownership":null,"YearBuilt":null,"Borough":"Haringey","LengthInMetres":253,"stroke":"#1A43A8","stroke-width":4},"geometry":{"type":"LineString","coordinates":[[-0.0762805,51.58938],[-0.0755134,51.58926],[-0.0749662,51.58917],[-0.0744731,51.58909],[-0.0741016,51.58905],[-0.07383,51.589],[-0.0735655,51.58891],[-0.0733247,51.58881],[-0.0730435,51.58868],[-0.0728825,51.58862]]}},{"type":"Feature","properties":{"Title":"C1","Direction":"TwoWay","Flow":null,"Protection":null,"Ownership":null,"YearBuilt":null,"Borough":"Haringey","LengthInMetres":654,"stroke":"#1A43A8","stroke-width":4},"geometry":{"type":"LineString","coordinates":[[-0.072737,51.58066],[-0.0724688,51.58242],[-0.072458,51.58314],[-0.0722971,51.58389],[-0.0721684,51.58456],[-0.0718465,51.58558],[-0.0715032,51.58647]]}},{"type":"Feature","properties":{"Title":"C1","Direction":"OneWay","Flow":null,"Protection":null,"Ownership":null,"YearBuilt":null,"Borough":"Haringey","LengthInMetres":8,"stroke":"#1A43A8","stroke-width":2},"geometry":{"type":"LineString","coordinates":[[-0.0756655,51.57754],[-0.0756695,51.57756],[-0.075644,51.57761]]}},{"type":"Feature","properties":{"Title":"LCN 7","Direction":"TwoWay","Flow":null,"Protection":null,"Ownership":null,"YearBuilt":null,"Borough":"Haringey","LengthInMetres":272,"stroke":"#1A43A8","stroke-width":4},"geometry":{"type":"LineString","coordinates":[[-0.1079298,51.5669],[-0.1073638,51.5664],[-0.1071613,51.56623],[-0.1066744,51.56587],[-0.1054192,51.56503]]}},{"type":"Feature","properties":{"Title":"Watermead Way","Direction":"TwoWay","Flow":null,"Protection":null,"Ownership":null,"YearBuilt":null,"Borough":"Haringey","LengthInMetres":603,"stroke":"#1A43A8","stroke-width":4},"geometry":{"type":"LineString","coordinates":[[-0.0489984,51.60709],[-0.0489473,51.60685],[-0.0489527,51.60641],[-0.0491351,51.60591],[-0.0494248,51.60531],[-0.0497198,51.60475],[-0.0498459,51.60448],[-0.0498915,51.60424],[-0.0497681,51.60339],[-0.0495053,51.60177]]}},{"type":"Feature","properties":{"Title":"Westbury Avenue Underpass","Direction":"TwoWay","Flow":null,"Protection":null,"Ownership":null,"YearBuilt":null,"Borough":"Haringey","LengthInMetres":125,"stroke":"#1A43A8","stroke-width":4},"geometry":{"type":"LineString","coordinates":[[-0.101327,51.59225],[-0.1013622,51.59222],[-0.1010185,51.59208],[-0.1009947,51.59208],[-0.1009631,51.59208],[-0.1009209,51.59208],[-0.1008927,51.59208],[-0.1008518,51.59208],[-0.1008236,51.59208],[-0.1007808,51.59207],[-0.1006998,51.59203],[-0.1005432,51.59196],[-0.1005056,51.59195],[-0.1004941,51.59195],[-0.100471,51.59195],[-0.1004489,51.59195],[-0.1004275,51.59195],[-0.1004088,51.59195],[-0.1003894,51.59196],[-0.1003609,51.59197],[-0.1002017,51.59208],[-0.1000172,51.5922],[-0.0999811,51.59222],[-0.0999484,51.59222],[-0.0999274,51.59222]]}},{"type":"Feature","properties":{"Title":"Turnpike Lane","Direction":"OneWay","Flow":null,"Protection":null,"Ownership":null,"YearBuilt":null,"Borough":"Haringey","LengthInMetres":232,"stroke":"#1A43A8","stroke-width":2},"geometry":{"type":"LineString","coordinates":[[-0.1101935,51.58886],[-0.1110626,51.58876],[-0.1115346,51.58857],[-0.1122642,51.58828],[-0.1128972,51.58809],[-0.1130152,51.58803],[-0.1129723,51.58792]]}},{"type":"Feature","properties":{"Title":"Markfield Road","Direction":"TwoWay","Flow":null,"Protection":null,"Ownership":null,"YearBuilt":null,"Borough":"Haringey","LengthInMetres":298,"stroke":"#1A43A8","stroke-width":4},"geometry":{"type":"LineString","coordinates":[[-0.0632486,51.58231],[-0.0639292,51.5828],[-0.0641438,51.58307],[-0.0642833,51.58349],[-0.0644871,51.58478]]}},{"type":"Feature","properties":{"Title":"The Roundway","Direction":"TwoWay","Flow":null,"Protection":null,"Ownership":null,"YearBuilt":null,"Borough":"Haringey","LengthInMetres":167,"stroke":"#1A43A8","stroke-width":4},"geometry":{"type":"LineString","coordinates":[[-0.0773035,51.59966],[-0.0776147,51.59953],[-0.0786929,51.59955],[-0.0789611,51.59955],[-0.079621,51.59968]]}},{"type":"Feature","properties":{"Title":"The Roundway","Direction":"TwoWay","Flow":null,"Protection":null,"Ownership":null,"YearBuilt":null,"Borough":"Haringey","LengthInMetres":19,"stroke":"#1A43A8","stroke-width":4},"geometry":{"type":"LineString","coordinates":[[-0.0798827,51.59969],[-0.0801509,51.59968]]}},{"type":"Feature","properties":{"Title":"Ferry Lane","Direction":"TwoWay","Flow":null,"Protection":null,"Ownership":null,"YearBuilt":null,"Borough":"Haringey","LengthInMetres":307,"stroke":"#1A43A8","stroke-width":4},"geometry":{"type":"LineString","coordinates":[[-0.0531787,51.58692],[-0.0536238,51.58711],[-0.0544821,51.58729],[-0.0558554,51.58764],[-0.0565206,51.5878],[-0.0572931,51.58791]]}},{"type":"Feature","properties":{"Title":"Hermitage Road","Direction":"OneWay","Flow":null,"Protection":null,"Ownership":null,"YearBuilt":null,"Borough":"Haringey","LengthInMetres":23,"stroke":"#1A43A8","stroke-width":2},"geometry":{"type":"LineString","coordinates":[[-0.0981696,51.57475],[-0.097837,51.57479]]}},{"type":"Feature","properties":{"Title":"Clinton Road","Direction":"OneWay","Flow":null,"Protection":null,"Ownership":null,"YearBuilt":null,"Borough":"Haringey","LengthInMetres":30,"stroke":"#1A43A8","stroke-width":2},"geometry":{"type":"LineString","coordinates":[[-0.088576,51.58613],[-0.088607,51.58624],[-0.088636,51.58636],[-0.088647,51.5864]]}},{"type":"Feature","properties":{"Title":"Clyde Road","Direction":"TwoWay","Flow":null,"Protection":null,"Ownership":null,"YearBuilt":null,"Borough":"Haringey","LengthInMetres":49,"stroke":"#1A43A8","stroke-width":4},"geometry":{"type":"LineString","coordinates":[[-0.075366,51.5881],[-0.074674,51.58817]]}},{"type":"Feature","properties":{"Title":"Keston Road","Direction":"TwoWay","Flow":null,"Protection":null,"Ownership":null,"YearBuilt":null,"Borough":"Haringey","LengthInMetres":7,"stroke":"#1A43A8","stroke-width":4},"geometry":{"type":"LineString","coordinates":[[-0.086086,51.58739],[-0.086039,51.58733]]}},{"type":"Feature","properties":{"Title":"Watermead Way","Direction":"TwoWay","Flow":null,"Protection":null,"Ownership":null,"YearBuilt":null,"Borough":"Haringey","LengthInMetres":47,"stroke":"#1A43A8","stroke-width":4},"geometry":{"type":"LineString","coordinates":[[-0.059939,51.59044],[-0.059818,51.5907],[-0.059751,51.59085]]}},{"type":"Feature","properties":{"Title":"Watermead Way","Direction":"TwoWay","Flow":null,"Protection":null,"Ownership":null,"YearBuilt":null,"Borough":"Haringey","LengthInMetres":124,"stroke":"#1A43A8","stroke-width":4},"geometry":{"type":"LineString","coordinates":[[-0.060701,51.58921],[-0.060593,51.58927],[-0.060524,51.58931],[-0.06044,51.58938],[-0.060375,51.58944],[-0.060317,51.58953],[-0.060254,51.58964],[-0.060218,51.58973],[-0.060121,51.59001],[-0.060074,51.59013],[-0.06004,51.59022]]}},{"type":"Feature","properties":{"Title":"Seven Sisters","Direction":"TwoWay","Flow":null,"Protection":null,"Ownership":null,"YearBuilt":null,"Borough":"Haringey","LengthInMetres":2,"stroke":"#1A43A8","stroke-width":4},"geometry":{"type":"LineString","coordinates":[[-0.103774,51.56518],[-0.1037927,51.56519]]}},{"type":"Feature","properties":{"Title":"Mayes Road crossing","Direction":"TwoWay","Flow":null,"Protection":null,"Ownership":null,"YearBuilt":null,"Borough":"Haringey","LengthInMetres":23,"stroke":"#1A43A8","stroke-width":4},"geometry":{"type":"LineString","coordinates":[[-0.111684,51.59471],[-0.111406,51.5946]]}},{"type":"Feature","properties":{"Title":"Mayes Road crossing","Direction":"TwoWay","Flow":null,"Protection":null,"Ownership":null,"YearBuilt":null,"Borough":"Haringey","LengthInMetres":21,"stroke":"#1A43A8","stroke-width":4},"geometry":{"type":"LineString","coordinates":[[-0.112002,51.59475],[-0.111749,51.59465]]}},{"type":"Feature","properties":{"Title":"Station Road - LB Haringey","Direction":"TwoWay","Flow":null,"Protection":null,"Ownership":null,"YearBuilt":null,"Borough":"Haringey","LengthInMetres":505,"stroke":"#1A43A8","stroke-width":4},"geometry":{"type":"LineString","coordinates":[[-0.1175811,51.597],[-0.1154783,51.59659],[-0.1143732,51.59639],[-0.1141586,51.59639],[-0.1135149,51.59656],[-0.1128604,51.59673],[-0.1106288,51.59711]]}},{"type":"Feature","properties":{"Title":"High Road - LB Haringey","Direction":"TwoWay","Flow":null,"Protection":null,"Ownership":null,"YearBuilt":null,"Borough":"Haringey","LengthInMetres":133,"stroke":"#1A43A8","stroke-width":4},"geometry":{"type":"LineString","coordinates":[[-0.1109078,51.5987],[-0.110661,51.59815],[-0.1105215,51.59795],[-0.110264,51.59758]]}},{"type":"Feature","properties":{"Title":"Bounds Green Road","Direction":"TwoWay","Flow":null,"Protection":null,"Ownership":null,"YearBuilt":null,"Borough":"Haringey","LengthInMetres":1183,"stroke":"#1A43A8","stroke-width":4},"geometry":{"type":"LineString","coordinates":[[-0.1115301,51.59917],[-0.1126351,51.59953],[-0.1143839,51.60013],[-0.1167228,51.60092],[-0.1178171,51.60131],[-0.1187613,51.60172],[-0.1199522,51.60226],[-0.1204243,51.60257],[-0.1207354,51.60287],[-0.1211538,51.6036],[-0.121583,51.60432],[-0.1219156,51.60488],[-0.1223018,51.60548],[-0.1226237,51.60581],[-0.1230528,51.60613],[-0.1232352,51.60624]]}},{"type":"Feature","properties":{"Title":"Green Lanes - LB Haringey","Direction":"TwoWay","Flow":null,"Protection":null,"Ownership":null,"YearBuilt":null,"Borough":"Haringey","LengthInMetres":117,"stroke":"#1A43A8","stroke-width":4},"geometry":{"type":"LineString","coordinates":[[-0.0981992,51.57465],[-0.0976687,51.57365]]}},{"type":"Feature","properties":{"Title":"Ferry Lane - LB Haringey","Direction":"TwoWay","Flow":null,"Protection":null,"Ownership":null,"YearBuilt":null,"Borough":"Haringey","LengthInMetres":228,"stroke":"#1A43A8","stroke-width":4},"geometry":{"type":"LineString","coordinates":[[-0.0572931,51.58791],[-0.058366,51.58798],[-0.0605708,51.58802]]}}]}