{"type":"FeatureCollection","features":[{"type":"Feature","properties":{"Title":"Kenton Recreation Ground","Direction":"TwoWay","Flow":null,"Protection":null,"Ownership":null,"YearBuilt":null,"Borough":"Harrow","LengthInMetres":454,"stroke":"#1A73E8","stroke-width":4},"geometry":{"type":"LineString","coordinates":[[-0.3199264,51.58515],[-0.3200873,51.58525],[-0.3201088,51.58548],[-0.3201732,51.58576],[-0.3203985,51.58596],[-0.3206238,51.58614],[-0.3208813,51.58631],[-0.3212139,51.58648],[-0.3215894,51.58662],[-0.3220185,51.58677],[-0.3223082,51.58688],[-0.3224584,51.58698],[-0.3228768,51.58728],[-0.3235742,51.58777],[-0.3238317,51.58796],[-0.3240785,51.58812]]}},{"type":"Feature","properties":{"Title":"Kenmore Avenue","Direction":"TwoWay","Flow":null,"Protection":null,"Ownership":null,"YearBuilt":null,"Borough":"Harrow","LengthInMetres":123,"stroke":"#1A73E8","stroke-width":4},"geometry":{"type":"LineString","coordinates":[[-0.3248309,51.58789],[-0.3252868,51.58774],[-0.3253727,51.5877],[-0.3254585,51.58762],[-0.3255443,51.58757],[-0.3256463,51.58753],[-0.3263061,51.58729]]}},{"type":"Feature","properties":{"Title":"Lady Aylesford Ave","Direction":"TwoWay","Flow":null,"Protection":null,"Ownership":null,"YearBuilt":null,"Borough":"Harrow","LengthInMetres":336,"stroke":"#1A73E8","stroke-width":4},"geometry":{"type":"LineString","coordinates":[[-0.31851,51.61272],[-0.3179843,51.61271],[-0.317759,51.61275],[-0.3175149,51.61281],[-0.3173701,51.61284],[-0.3171314,51.61285],[-0.3168739,51.61283],[-0.316611,51.61283],[-0.3161792,51.61286],[-0.3159002,51.61287],[-0.3156267,51.61292],[-0.3154523,51.61296],[-0.315227,51.61295],[-0.314999,51.61296],[-0.3147952,51.61304],[-0.3146691,51.61313],[-0.3145672,51.61325],[-0.3145028,51.61337],[-0.314476,51.61355],[-0.3144572,51.61363]]}},{"type":"Feature","properties":{"Title":"Lady Aylesford Ave","Direction":"TwoWay","Flow":null,"Protection":null,"Ownership":null,"YearBuilt":null,"Borough":"Harrow","LengthInMetres":10,"stroke":"#1A73E8","stroke-width":4},"geometry":{"type":"LineString","coordinates":[[-0.3144572,51.61363],[-0.3145967,51.61366]]}},{"type":"Feature","properties":{"Title":"Lady Aylesford Ave","Direction":"TwoWay","Flow":null,"Protection":null,"Ownership":null,"YearBuilt":null,"Borough":"Harrow","LengthInMetres":83,"stroke":"#1A73E8","stroke-width":4},"geometry":{"type":"LineString","coordinates":[[-0.3144572,51.61363],[-0.3144331,51.6137],[-0.3143687,51.6138],[-0.3143151,51.61388],[-0.3142587,51.61393],[-0.3143016,51.61401],[-0.3143526,51.61414],[-0.3143928,51.61422],[-0.3144411,51.61419],[-0.3143928,51.61422],[-0.3143586,51.61424]]}},{"type":"Feature","properties":{"Title":"Lady Aylesford Ave","Direction":"TwoWay","Flow":null,"Protection":null,"Ownership":null,"YearBuilt":null,"Borough":"Harrow","LengthInMetres":31,"stroke":"#1A73E8","stroke-width":4},"geometry":{"type":"LineString","coordinates":[[-0.3143586,51.61424],[-0.314299,51.61427],[-0.3142346,51.61435],[-0.3142963,51.61426],[-0.3143586,51.61424]]}},{"type":"Feature","properties":{"Title":"Lady Aylesford Ave","Direction":"TwoWay","Flow":null,"Protection":null,"Ownership":null,"YearBuilt":null,"Borough":"Harrow","LengthInMetres":31,"stroke":"#1A73E8","stroke-width":4},"geometry":{"type":"LineString","coordinates":[[-0.3143586,51.61424],[-0.3143928,51.61422],[-0.3144626,51.61432],[-0.3145886,51.61443],[-0.3145942,51.61443]]}},{"type":"Feature","properties":{"Title":"Lady Aylesford Ave","Direction":"TwoWay","Flow":null,"Protection":null,"Ownership":null,"YearBuilt":null,"Borough":"Harrow","LengthInMetres":16,"stroke":"#1A73E8","stroke-width":4},"geometry":{"type":"LineString","coordinates":[[-0.3145942,51.61443],[-0.3148166,51.61447]]}},{"type":"Feature","properties":{"Title":"Lady Aylesford Ave","Direction":"TwoWay","Flow":null,"Protection":null,"Ownership":null,"YearBuilt":null,"Borough":"Harrow","LengthInMetres":24,"stroke":"#1A73E8","stroke-width":4},"geometry":{"type":"LineString","coordinates":[[-0.3148166,51.61447],[-0.3151573,51.61451]]}},{"type":"Feature","properties":{"Title":"Lady Aylesford Ave","Direction":"TwoWay","Flow":null,"Protection":null,"Ownership":null,"YearBuilt":null,"Borough":"Harrow","LengthInMetres":13,"stroke":"#1A73E8","stroke-width":4},"geometry":{"type":"LineString","coordinates":[[-0.3151573,51.61451],[-0.3153397,51.61451]]}},{"type":"Feature","properties":{"Title":"Lady Aylesford Ave","Direction":"TwoWay","Flow":null,"Protection":null,"Ownership":null,"YearBuilt":null,"Borough":"Harrow","LengthInMetres":14,"stroke":"#1A73E8","stroke-width":4},"geometry":{"type":"LineString","coordinates":[[-0.3153397,51.61451],[-0.3155247,51.61447]]}},{"type":"Feature","properties":{"Title":"Lady Aylesford Ave","Direction":"TwoWay","Flow":null,"Protection":null,"Ownership":null,"YearBuilt":null,"Borough":"Harrow","LengthInMetres":12,"stroke":"#1A73E8","stroke-width":4},"geometry":{"type":"LineString","coordinates":[[-0.3155247,51.61447],[-0.3156857,51.61442]]}},{"type":"Feature","properties":{"Title":"Lady Aylesford Ave","Direction":"TwoWay","Flow":null,"Protection":null,"Ownership":null,"YearBuilt":null,"Borough":"Harrow","LengthInMetres":17,"stroke":"#1A73E8","stroke-width":4},"geometry":{"type":"LineString","coordinates":[[-0.3156857,51.61442],[-0.3158788,51.61433]]}},{"type":"Feature","properties":{"Title":"Lady Aylesford Ave","Direction":"TwoWay","Flow":null,"Protection":null,"Ownership":null,"YearBuilt":null,"Borough":"Harrow","LengthInMetres":43,"stroke":"#1A73E8","stroke-width":4},"geometry":{"type":"LineString","coordinates":[[-0.3158788,51.61433],[-0.3162811,51.61404]]}},{"type":"Feature","properties":{"Title":"Lady Aylesford Ave","Direction":"TwoWay","Flow":null,"Protection":null,"Ownership":null,"YearBuilt":null,"Borough":"Harrow","LengthInMetres":17,"stroke":"#1A73E8","stroke-width":4},"geometry":{"type":"LineString","coordinates":[[-0.3148166,51.61447],[-0.3145886,51.61443],[-0.3145942,51.61443]]}},{"type":"Feature","properties":{"Title":"Lady Aylesford Ave","Direction":"TwoWay","Flow":null,"Protection":null,"Ownership":null,"YearBuilt":null,"Borough":"Harrow","LengthInMetres":98,"stroke":"#1A73E8","stroke-width":4},"geometry":{"type":"LineString","coordinates":[[-0.3145942,51.61443],[-0.3148274,51.61453],[-0.3150849,51.61466],[-0.3154335,51.61478],[-0.3157903,51.6149]]}},{"type":"Feature","properties":{"Title":"Lady Aylesford Ave","Direction":"TwoWay","Flow":null,"Protection":null,"Ownership":null,"YearBuilt":null,"Borough":"Harrow","LengthInMetres":17,"stroke":"#1A73E8","stroke-width":4},"geometry":{"type":"LineString","coordinates":[[-0.3157903,51.6149],[-0.315742,51.61475]]}},{"type":"Feature","properties":{"Title":"Lady Aylesford Ave","Direction":"TwoWay","Flow":null,"Protection":null,"Ownership":null,"YearBuilt":null,"Borough":"Harrow","LengthInMetres":19,"stroke":"#1A73E8","stroke-width":4},"geometry":{"type":"LineString","coordinates":[[-0.315742,51.61475],[-0.3157339,51.61458],[-0.315734,51.61458]]}},{"type":"Feature","properties":{"Title":"Lady Aylesford Ave","Direction":"TwoWay","Flow":null,"Protection":null,"Ownership":null,"YearBuilt":null,"Borough":"Harrow","LengthInMetres":3,"stroke":"#1A73E8","stroke-width":4},"geometry":{"type":"LineString","coordinates":[[-0.315734,51.61458],[-0.3157422,51.61455]]}},{"type":"Feature","properties":{"Title":"Lady Aylesford Ave","Direction":"TwoWay","Flow":null,"Protection":null,"Ownership":null,"YearBuilt":null,"Borough":"Harrow","LengthInMetres":27,"stroke":"#1A73E8","stroke-width":4},"geometry":{"type":"LineString","coordinates":[[-0.3157422,51.61455],[-0.3157822,51.61442],[-0.3158788,51.61433]]}},{"type":"Feature","properties":{"Title":"Lady Aylesford Ave","Direction":"TwoWay","Flow":null,"Protection":null,"Ownership":null,"YearBuilt":null,"Borough":"Harrow","LengthInMetres":27,"stroke":"#1A73E8","stroke-width":4},"geometry":{"type":"LineString","coordinates":[[-0.3158788,51.61433],[-0.3157849,51.61442],[-0.3157422,51.61455]]}},{"type":"Feature","properties":{"Title":"Lady Aylesford Ave","Direction":"TwoWay","Flow":null,"Protection":null,"Ownership":null,"YearBuilt":null,"Borough":"Harrow","LengthInMetres":3,"stroke":"#1A73E8","stroke-width":4},"geometry":{"type":"LineString","coordinates":[[-0.3157422,51.61455],[-0.3157339,51.61458],[-0.315734,51.61458]]}},{"type":"Feature","properties":{"Title":"Lady Aylesford Ave","Direction":"TwoWay","Flow":null,"Protection":null,"Ownership":null,"YearBuilt":null,"Borough":"Harrow","LengthInMetres":19,"stroke":"#1A73E8","stroke-width":4},"geometry":{"type":"LineString","coordinates":[[-0.315734,51.61458],[-0.315742,51.61475]]}},{"type":"Feature","properties":{"Title":"Lady Aylesford Ave","Direction":"TwoWay","Flow":null,"Protection":null,"Ownership":null,"YearBuilt":null,"Borough":"Harrow","LengthInMetres":96,"stroke":"#1A73E8","stroke-width":4},"geometry":{"type":"LineString","coordinates":[[-0.3157903,51.6149],[-0.3158922,51.61504],[-0.3161416,51.61535],[-0.3162275,51.61541],[-0.3164581,51.61543],[-0.3165654,51.61546],[-0.3166083,51.61552]]}},{"type":"Feature","properties":{"Title":"Lady Aylesford Ave","Direction":"TwoWay","Flow":null,"Protection":null,"Ownership":null,"YearBuilt":null,"Borough":"Harrow","LengthInMetres":112,"stroke":"#1A73E8","stroke-width":4},"geometry":{"type":"LineString","coordinates":[[-0.3166083,51.61552],[-0.3163401,51.61563],[-0.3158922,51.61575],[-0.3163428,51.61564],[-0.3166083,51.61552]]}},{"type":"Feature","properties":{"Title":"Lady Aylesford Ave","Direction":"TwoWay","Flow":null,"Protection":null,"Ownership":null,"YearBuilt":null,"Borough":"Harrow","LengthInMetres":11,"stroke":"#1A73E8","stroke-width":4},"geometry":{"type":"LineString","coordinates":[[-0.3166083,51.61552],[-0.3167264,51.61558]]}},{"type":"Feature","properties":{"Title":"Lady Aylesford Ave","Direction":"TwoWay","Flow":null,"Protection":null,"Ownership":null,"YearBuilt":null,"Borough":"Harrow","LengthInMetres":35,"stroke":"#1A73E8","stroke-width":4},"geometry":{"type":"LineString","coordinates":[[-0.3167264,51.61558],[-0.317177,51.61544]]}},{"type":"Feature","properties":{"Title":"Lady Aylesford Ave","Direction":"TwoWay","Flow":null,"Protection":null,"Ownership":null,"YearBuilt":null,"Borough":"Harrow","LengthInMetres":58,"stroke":"#1A73E8","stroke-width":4},"geometry":{"type":"LineString","coordinates":[[-0.317177,51.61544],[-0.317354,51.61534],[-0.3175042,51.61528],[-0.3173567,51.61534],[-0.317177,51.61544]]}},{"type":"Feature","properties":{"Title":"Lady Aylesford Ave","Direction":"TwoWay","Flow":null,"Protection":null,"Ownership":null,"YearBuilt":null,"Borough":"Harrow","LengthInMetres":158,"stroke":"#1A73E8","stroke-width":4},"geometry":{"type":"LineString","coordinates":[[-0.3167264,51.61558],[-0.3168793,51.61573],[-0.3170147,51.61585],[-0.3171233,51.61597],[-0.3172306,51.61612],[-0.3172172,51.61621],[-0.3171716,51.6163],[-0.3169651,51.61643],[-0.3165735,51.61662],[-0.3164421,51.61671]]}},{"type":"Feature","properties":{"Title":"Long Elmes","Direction":"OneWay","Flow":null,"Protection":null,"Ownership":null,"YearBuilt":null,"Borough":"Harrow","LengthInMetres":165,"stroke":"#1A73E8","stroke-width":2},"geometry":{"type":"LineString","coordinates":[[-0.352419,51.60392],[-0.3500372,51.60401]]}},{"type":"Feature","properties":{"Title":"Imperial Drive","Direction":"OneWay","Flow":null,"Protection":null,"Ownership":null,"YearBuilt":null,"Borough":"Harrow","LengthInMetres":298,"stroke":"#1A73E8","stroke-width":2},"geometry":{"type":"LineString","coordinates":[[-0.3705033,51.57558],[-0.3700849,51.57618],[-0.3695913,51.57672],[-0.369012,51.57742],[-0.3688296,51.57766],[-0.3685506,51.57796]]}},{"type":"Feature","properties":{"Title":"Rayners Lane","Direction":"TwoWay","Flow":null,"Protection":null,"Ownership":null,"YearBuilt":null,"Borough":"Harrow","LengthInMetres":140,"stroke":"#1A73E8","stroke-width":4},"geometry":{"type":"LineString","coordinates":[[-0.3713079,51.57708],[-0.3712167,51.577],[-0.3711256,51.5764],[-0.3710612,51.57606],[-0.3709861,51.57585]]}},{"type":"Feature","properties":{"Title":"Rayners Lane","Direction":"TwoWay","Flow":null,"Protection":null,"Ownership":null,"YearBuilt":null,"Borough":"Harrow","LengthInMetres":37,"stroke":"#1A73E8","stroke-width":4},"geometry":{"type":"LineString","coordinates":[[-0.3709485,51.5757],[-0.3708412,51.57548],[-0.3707876,51.57538]]}},{"type":"Feature","properties":{"Title":"Rayners Lane","Direction":"TwoWay","Flow":null,"Protection":null,"Ownership":null,"YearBuilt":null,"Borough":"Harrow","LengthInMetres":57,"stroke":"#1A73E8","stroke-width":4},"geometry":{"type":"LineString","coordinates":[[-0.3707447,51.57528],[-0.3706749,51.57512],[-0.3708412,51.57479]]}},{"type":"Feature","properties":{"Title":"Rayners Lane","Direction":"TwoWay","Flow":null,"Protection":null,"Ownership":null,"YearBuilt":null,"Borough":"Harrow","LengthInMetres":40,"stroke":"#1A73E8","stroke-width":4},"geometry":{"type":"LineString","coordinates":[[-0.3708842,51.5747],[-0.3709914,51.5745],[-0.371147,51.57439]]}},{"type":"Feature","properties":{"Title":"Alexandra Avenue","Direction":"TwoWay","Flow":null,"Protection":null,"Ownership":null,"YearBuilt":null,"Borough":"Harrow","LengthInMetres":90,"stroke":"#1A73E8","stroke-width":4},"geometry":{"type":"LineString","coordinates":[[-0.3711846,51.57429],[-0.3711577,51.57417],[-0.3712811,51.5738],[-0.3713401,51.57349]]}},{"type":"Feature","properties":{"Title":"Alexandra Avenue","Direction":"TwoWay","Flow":null,"Protection":null,"Ownership":null,"YearBuilt":null,"Borough":"Harrow","LengthInMetres":79,"stroke":"#1A73E8","stroke-width":4},"geometry":{"type":"LineString","coordinates":[[-0.3713723,51.57333],[-0.3713991,51.57299],[-0.3714045,51.5728],[-0.3714742,51.57263]]}},{"type":"Feature","properties":{"Title":"Alexandra Avenue","Direction":"TwoWay","Flow":null,"Protection":null,"Ownership":null,"YearBuilt":null,"Borough":"Harrow","LengthInMetres":52,"stroke":"#1A73E8","stroke-width":4},"geometry":{"type":"LineString","coordinates":[[-0.3714742,51.57252],[-0.3714206,51.57244],[-0.3713938,51.57216],[-0.371383,51.57206]]}},{"type":"Feature","properties":{"Title":"Alexandra Avenue","Direction":"TwoWay","Flow":null,"Protection":null,"Ownership":null,"YearBuilt":null,"Borough":"Harrow","LengthInMetres":111,"stroke":"#1A73E8","stroke-width":4},"geometry":{"type":"LineString","coordinates":[[-0.371367,51.57199],[-0.3713133,51.57174],[-0.3712221,51.57143],[-0.3710987,51.57109],[-0.3710612,51.57101]]}},{"type":"Feature","properties":{"Title":"Alexandra Avenue","Direction":"TwoWay","Flow":null,"Protection":null,"Ownership":null,"YearBuilt":null,"Borough":"Harrow","LengthInMetres":83,"stroke":"#1A73E8","stroke-width":4},"geometry":{"type":"LineString","coordinates":[[-0.3710183,51.57093],[-0.3708144,51.57058],[-0.3706964,51.57033],[-0.3706267,51.57023]]}},{"type":"Feature","properties":{"Title":"Alexandra Avenue","Direction":"TwoWay","Flow":null,"Protection":null,"Ownership":null,"YearBuilt":null,"Borough":"Harrow","LengthInMetres":113,"stroke":"#1A73E8","stroke-width":4},"geometry":{"type":"LineString","coordinates":[[-0.3705569,51.57013],[-0.3698488,51.56922]]}},{"type":"Feature","properties":{"Title":"Alexandra Avenue","Direction":"TwoWay","Flow":null,"Protection":null,"Ownership":null,"YearBuilt":null,"Borough":"Harrow","LengthInMetres":111,"stroke":"#1A73E8","stroke-width":4},"geometry":{"type":"LineString","coordinates":[[-0.3697791,51.56913],[-0.3690817,51.56823]]}},{"type":"Feature","properties":{"Title":"Alexandra Avenue","Direction":"TwoWay","Flow":null,"Protection":null,"Ownership":null,"YearBuilt":null,"Borough":"Harrow","LengthInMetres":42,"stroke":"#1A73E8","stroke-width":4},"geometry":{"type":"LineString","coordinates":[[-0.3690173,51.56814],[-0.3687598,51.5678]]}},{"type":"Feature","properties":{"Title":"Alexandra Avenue","Direction":"TwoWay","Flow":null,"Protection":null,"Ownership":null,"YearBuilt":null,"Borough":"Harrow","LengthInMetres":54,"stroke":"#1A73E8","stroke-width":4},"geometry":{"type":"LineString","coordinates":[[-0.3686579,51.56769],[-0.3683066,51.56726]]}},{"type":"Feature","properties":{"Title":"Alexandra Avenue","Direction":"TwoWay","Flow":null,"Protection":null,"Ownership":null,"YearBuilt":null,"Borough":"Harrow","LengthInMetres":43,"stroke":"#1A73E8","stroke-width":4},"geometry":{"type":"LineString","coordinates":[[-0.3682583,51.56719],[-0.3679793,51.56684]]}},{"type":"Feature","properties":{"Title":"Alexandra Avenue","Direction":"TwoWay","Flow":null,"Protection":null,"Ownership":null,"YearBuilt":null,"Borough":"Harrow","LengthInMetres":92,"stroke":"#1A73E8","stroke-width":4},"geometry":{"type":"LineString","coordinates":[[-0.3678881,51.56672],[-0.3675421,51.5663],[-0.3673866,51.56612],[-0.3673034,51.56598]]}},{"type":"Feature","properties":{"Title":"Alexandra Avenue","Direction":"TwoWay","Flow":null,"Protection":null,"Ownership":null,"YearBuilt":null,"Borough":"Harrow","LengthInMetres":42,"stroke":"#1A73E8","stroke-width":4},"geometry":{"type":"LineString","coordinates":[[-0.3672283,51.56589],[-0.3671049,51.56578],[-0.3669815,51.56562],[-0.3669413,51.56556]]}},{"type":"Feature","properties":{"Title":"Alexandra Avenue","Direction":"TwoWay","Flow":null,"Protection":null,"Ownership":null,"YearBuilt":null,"Borough":"Harrow","LengthInMetres":54,"stroke":"#1A73E8","stroke-width":4},"geometry":{"type":"LineString","coordinates":[[-0.3668796,51.56549],[-0.3665363,51.56505]]}},{"type":"Feature","properties":{"Title":"Alexandra Avenue","Direction":"TwoWay","Flow":null,"Protection":null,"Ownership":null,"YearBuilt":null,"Borough":"Harrow","LengthInMetres":14,"stroke":"#1A73E8","stroke-width":4},"geometry":{"type":"LineString","coordinates":[[-0.3664558,51.56496],[-0.3663727,51.56485]]}},{"type":"Feature","properties":{"Title":"Alexandra Avenue","Direction":"TwoWay","Flow":null,"Protection":null,"Ownership":null,"YearBuilt":null,"Borough":"Harrow","LengthInMetres":27,"stroke":"#1A73E8","stroke-width":4},"geometry":{"type":"LineString","coordinates":[[-0.3663056,51.56478],[-0.3661232,51.56457]]}},{"type":"Feature","properties":{"Title":"Alexandra Avenue","Direction":"TwoWay","Flow":null,"Protection":null,"Ownership":null,"YearBuilt":null,"Borough":"Harrow","LengthInMetres":52,"stroke":"#1A73E8","stroke-width":4},"geometry":{"type":"LineString","coordinates":[[-0.3660213,51.56446],[-0.365965,51.56432],[-0.365914,51.56421],[-0.3658067,51.56408],[-0.3657853,51.56402]]}},{"type":"Feature","properties":{"Title":"Alexandra Avenue","Direction":"TwoWay","Flow":null,"Protection":null,"Ownership":null,"YearBuilt":null,"Borough":"Harrow","LengthInMetres":55,"stroke":"#1A73E8","stroke-width":4},"geometry":{"type":"LineString","coordinates":[[-0.3655653,51.56378],[-0.3652032,51.56334]]}},{"type":"Feature","properties":{"Title":"London Road/Stonegrove","Direction":"TwoWay","Flow":null,"Protection":null,"Ownership":null,"YearBuilt":null,"Borough":"Harrow","LengthInMetres":133,"stroke":"#1A73E8","stroke-width":4},"geometry":{"type":"LineString","coordinates":[[-0.2938063,51.62138],[-0.2937043,51.62143],[-0.2935943,51.62147],[-0.2932939,51.62153],[-0.2929694,51.62156],[-0.2928246,51.62157],[-0.2927227,51.62157],[-0.2926631,51.62155],[-0.292585,51.62153],[-0.2924586,51.62149],[-0.2924122,51.62146],[-0.2921567,51.62126]]}},{"type":"Feature","properties":{"Title":"Kenton Road","Direction":"OneWay","Flow":null,"Protection":null,"Ownership":null,"YearBuilt":null,"Borough":"Harrow","LengthInMetres":103,"stroke":"#1A73E8","stroke-width":2},"geometry":{"type":"LineString","coordinates":[[-0.3331283,51.57717],[-0.3320662,51.57729],[-0.3317014,51.5774]]}},{"type":"Feature","properties":{"Title":"Greenhill Way","Direction":"TwoWay","Flow":null,"Protection":null,"Ownership":null,"YearBuilt":null,"Borough":"Harrow","LengthInMetres":155,"stroke":"#1A73E8","stroke-width":4},"geometry":{"type":"LineString","coordinates":[[-0.3425472,51.58086],[-0.3425076,51.58086],[-0.3424084,51.58085],[-0.3423219,51.58085],[-0.3422676,51.58085],[-0.3422126,51.58085],[-0.3421144,51.58085],[-0.3420148,51.58083],[-0.3419595,51.58083],[-0.3419055,51.58084],[-0.3417982,51.58086],[-0.341648,51.5809],[-0.34153,51.58095],[-0.3414301,51.581],[-0.3413335,51.58109],[-0.3412504,51.58116],[-0.3409351,51.58148],[-0.340916,51.5815],[-0.340873,51.5815],[-0.3408527,51.5815],[-0.3408306,51.58149]]}},{"type":"Feature","properties":{"Title":"Harrow Underpass Link","Direction":"TwoWay","Flow":null,"Protection":null,"Ownership":null,"YearBuilt":null,"Borough":"Harrow","LengthInMetres":21,"stroke":"#1A73E8","stroke-width":4},"geometry":{"type":"LineString","coordinates":[[-0.3419222,51.58088],[-0.3419101,51.58084],[-0.3419149,51.58081],[-0.3419222,51.58078],[-0.3419296,51.58075],[-0.3419417,51.58069]]}},{"type":"Feature","properties":{"Title":"Harrow Underpass Link","Direction":"TwoWay","Flow":null,"Protection":null,"Ownership":null,"YearBuilt":null,"Borough":"Harrow","LengthInMetres":72,"stroke":"#1A73E8","stroke-width":4},"geometry":{"type":"LineString","coordinates":[[-0.3419417,51.58069],[-0.3419095,51.58068],[-0.341882,51.58067],[-0.3418595,51.58065],[-0.3418458,51.58062],[-0.3418427,51.5806],[-0.3418479,51.58057],[-0.3418612,51.58054],[-0.341884,51.58053],[-0.3419108,51.58051],[-0.3419437,51.5805],[-0.3419903,51.5805],[-0.3420423,51.5805],[-0.3420839,51.58051],[-0.3421234,51.58052],[-0.342155,51.58055],[-0.342169,51.58057],[-0.342174,51.5806],[-0.3421685,51.58062],[-0.3421563,51.58064],[-0.3421395,51.58066],[-0.342109,51.58068],[-0.3420765,51.58069],[-0.3420326,51.5807],[-0.341986,51.5807],[-0.3419417,51.58069]]}},{"type":"Feature","properties":{"Title":"Harrow Underpass Link","Direction":"TwoWay","Flow":null,"Protection":null,"Ownership":null,"YearBuilt":null,"Borough":"Harrow","LengthInMetres":13,"stroke":"#1A73E8","stroke-width":4},"geometry":{"type":"LineString","coordinates":[[-0.3422866,51.58047],[-0.342155,51.58055]]}},{"type":"Feature","properties":{"Title":"Harrow Underpass Link","Direction":"TwoWay","Flow":null,"Protection":null,"Ownership":null,"YearBuilt":null,"Borough":"Harrow","LengthInMetres":15,"stroke":"#1A73E8","stroke-width":4},"geometry":{"type":"LineString","coordinates":[[-0.3418612,51.58054],[-0.3416554,51.58049]]}},{"type":"Feature","properties":{"Title":"High Street/Masons Avenue","Direction":"OneWay","Flow":null,"Protection":null,"Ownership":null,"YearBuilt":null,"Borough":"Harrow","LengthInMetres":12,"stroke":"#1A73E8","stroke-width":2},"geometry":{"type":"LineString","coordinates":[[-0.3348673,51.59298],[-0.3348473,51.59295],[-0.3348178,51.59293],[-0.3347789,51.59292],[-0.334744,51.59292]]}},{"type":"Feature","properties":{"Title":"Belmont Circus","Direction":"TwoWay","Flow":null,"Protection":null,"Ownership":null,"YearBuilt":null,"Borough":"Harrow","LengthInMetres":44,"stroke":"#1A73E8","stroke-width":4},"geometry":{"type":"LineString","coordinates":[[-0.317659,51.60099],[-0.317718,51.60101],[-0.3178038,51.60103],[-0.3179379,51.60102],[-0.3180238,51.601],[-0.3180989,51.601],[-0.3182008,51.60099],[-0.3182759,51.601]]}},{"type":"Feature","properties":{"Title":"Belmont Circus","Direction":"TwoWay","Flow":null,"Protection":null,"Ownership":null,"YearBuilt":null,"Borough":"Harrow","LengthInMetres":21,"stroke":"#1A73E8","stroke-width":4},"geometry":{"type":"LineString","coordinates":[[-0.3184154,51.60105],[-0.3184744,51.60108],[-0.3185495,51.60109],[-0.3186943,51.60111]]}},{"type":"Feature","properties":{"Title":"Belmont Circus","Direction":"TwoWay","Flow":null,"Protection":null,"Ownership":null,"YearBuilt":null,"Borough":"Harrow","LengthInMetres":153,"stroke":"#1A73E8","stroke-width":4},"geometry":{"type":"LineString","coordinates":[[-0.3187855,51.60121],[-0.3187211,51.60123],[-0.3186541,51.60127],[-0.3186192,51.6013],[-0.318579,51.60135],[-0.3185575,51.60141],[-0.3185253,51.60145],[-0.3184797,51.60149],[-0.3184315,51.60152],[-0.3183724,51.60156],[-0.3182893,51.60159],[-0.3181927,51.6016],[-0.318064,51.60161],[-0.3179728,51.6016],[-0.3178548,51.60157],[-0.3177797,51.60153],[-0.3177019,51.60148],[-0.3176456,51.60141],[-0.3175892,51.60135],[-0.3175892,51.60129],[-0.3176,51.60122],[-0.3176134,51.60116],[-0.3176107,51.60111],[-0.3175919,51.60106],[-0.3175732,51.60105]]}},{"type":"Feature","properties":{"Title":"Harrow Courtenay Ave roundabout","Direction":"TwoWay","Flow":null,"Protection":null,"Ownership":null,"YearBuilt":null,"Borough":"Harrow","LengthInMetres":83,"stroke":"#1A73E8","stroke-width":4},"geometry":{"type":"LineString","coordinates":[[-0.355243,51.60904],[-0.3553235,51.60919],[-0.3554254,51.60929],[-0.355522,51.60934],[-0.3556614,51.60936],[-0.3558277,51.60935],[-0.3560101,51.60933],[-0.3561335,51.60931]]}},{"type":"Feature","properties":{"Title":"Harrow Courtenay Ave roundabout","Direction":"TwoWay","Flow":null,"Protection":null,"Ownership":null,"YearBuilt":null,"Borough":"Harrow","LengthInMetres":52,"stroke":"#1A73E8","stroke-width":4},"geometry":{"type":"LineString","coordinates":[[-0.3561389,51.6096],[-0.3560638,51.60967],[-0.3559833,51.60974],[-0.355935,51.60985],[-0.3559189,51.60995],[-0.3559136,51.61003]]}},{"type":"Feature","properties":{"Title":"Harrow Courtenay Ave roundabout","Direction":"TwoWay","Flow":null,"Protection":null,"Ownership":null,"YearBuilt":null,"Borough":"Harrow","LengthInMetres":95,"stroke":"#1A73E8","stroke-width":4},"geometry":{"type":"LineString","coordinates":[[-0.3555542,51.61018],[-0.3553557,51.61011],[-0.3552001,51.61008],[-0.3549855,51.61002],[-0.3548085,51.60999],[-0.3545832,51.60997],[-0.354256,51.60996]]}},{"type":"Feature","properties":{"Title":"Harrow Headstone Lane roundabout","Direction":"OneWay","Flow":null,"Protection":null,"Ownership":null,"YearBuilt":null,"Borough":"Harrow","LengthInMetres":39,"stroke":"#1A73E8","stroke-width":2},"geometry":{"type":"LineString","coordinates":[[-0.3590491,51.60852],[-0.3590786,51.60854],[-0.3591188,51.60858],[-0.3591564,51.60859],[-0.3592073,51.60859],[-0.3592744,51.60858],[-0.3593227,51.60855],[-0.3593548,51.60851],[-0.3593951,51.60847],[-0.359438,51.60844]]}},{"type":"Feature","properties":{"Title":"Harrow Headstone Lane roundabout","Direction":"OneWay","Flow":null,"Protection":null,"Ownership":null,"YearBuilt":null,"Borough":"Harrow","LengthInMetres":3,"stroke":"#1A73E8","stroke-width":2},"geometry":{"type":"LineString","coordinates":[[-0.3596097,51.60837],[-0.3596553,51.60837]]}},{"type":"Feature","properties":{"Title":"Harrow Headstone Lane roundabout","Direction":"OneWay","Flow":null,"Protection":null,"Ownership":null,"YearBuilt":null,"Borough":"Harrow","LengthInMetres":28,"stroke":"#1A73E8","stroke-width":2},"geometry":{"type":"LineString","coordinates":[[-0.3597706,51.60838],[-0.3598671,51.60842],[-0.3600039,51.60847],[-0.3600764,51.60849],[-0.3601193,51.6085]]}},{"type":"Feature","properties":{"Title":"Roxteth Green Avenue","Direction":"TwoWay","Flow":null,"Protection":null,"Ownership":null,"YearBuilt":null,"Borough":"Harrow","LengthInMetres":73,"stroke":"#1A73E8","stroke-width":4},"geometry":{"type":"LineString","coordinates":[[-0.3612141,51.5654],[-0.3609056,51.56558],[-0.360632,51.56574],[-0.3604529,51.56585]]}},{"type":"Feature","properties":{"Title":"Roxteth Green Avenue","Direction":"TwoWay","Flow":null,"Protection":null,"Ownership":null,"YearBuilt":null,"Borough":"Harrow","LengthInMetres":118,"stroke":"#1A73E8","stroke-width":4},"geometry":{"type":"LineString","coordinates":[[-0.3604294,51.56587],[-0.3603474,51.56592],[-0.360218,51.56599],[-0.360104,51.56606],[-0.3599834,51.56613],[-0.3598627,51.5662],[-0.3596911,51.56632],[-0.3596086,51.56638],[-0.3594671,51.56649],[-0.3594114,51.56654],[-0.3592867,51.56665]]}},{"type":"Feature","properties":{"Title":"Roxteth Green Avenue","Direction":"TwoWay","Flow":null,"Protection":null,"Ownership":null,"YearBuilt":null,"Borough":"Harrow","LengthInMetres":86,"stroke":"#1A73E8","stroke-width":4},"geometry":{"type":"LineString","coordinates":[[-0.3592297,51.5667],[-0.3591177,51.56679],[-0.3590178,51.56688],[-0.3588401,51.56705],[-0.3586597,51.56722],[-0.3585551,51.5673],[-0.3585223,51.56733]]}},{"type":"Feature","properties":{"Title":"Roxteth Green Avenue","Direction":"TwoWay","Flow":null,"Protection":null,"Ownership":null,"YearBuilt":null,"Borough":"Harrow","LengthInMetres":88,"stroke":"#1A73E8","stroke-width":4},"geometry":{"type":"LineString","coordinates":[[-0.3584245,51.56739],[-0.3583354,51.56745],[-0.3581148,51.56758],[-0.3580316,51.56763],[-0.3578606,51.56772],[-0.3577473,51.56778],[-0.3575495,51.56788],[-0.357475,51.56791]]}},{"type":"Feature","properties":{"Title":"Roxteth Green Avenue","Direction":"TwoWay","Flow":null,"Protection":null,"Ownership":null,"YearBuilt":null,"Borough":"Harrow","LengthInMetres":22,"stroke":"#1A73E8","stroke-width":4},"geometry":{"type":"LineString","coordinates":[[-0.3573664,51.56796],[-0.3572135,51.56802],[-0.3570962,51.56807]]}},{"type":"Feature","properties":{"Title":"Roxteth Green Avenue","Direction":"TwoWay","Flow":null,"Protection":null,"Ownership":null,"YearBuilt":null,"Borough":"Harrow","LengthInMetres":150,"stroke":"#1A73E8","stroke-width":4},"geometry":{"type":"LineString","coordinates":[[-0.3564618,51.56835],[-0.3563713,51.56839],[-0.3562949,51.56843],[-0.3561889,51.56849],[-0.3561212,51.56854],[-0.356026,51.5686],[-0.3559502,51.56866],[-0.3558758,51.56873],[-0.355798,51.56879],[-0.3557464,51.56884],[-0.3556478,51.56895],[-0.3555747,51.56906],[-0.3555371,51.56911],[-0.3554855,51.56919],[-0.3554278,51.56937],[-0.3554044,51.56944],[-0.3554097,51.56946],[-0.3554164,51.56948]]}},{"type":"Feature","properties":{"Title":"Roxteth Green Avenue","Direction":"TwoWay","Flow":null,"Protection":null,"Ownership":null,"YearBuilt":null,"Borough":"Harrow","LengthInMetres":83,"stroke":"#1A73E8","stroke-width":4},"geometry":{"type":"LineString","coordinates":[[-0.355393,51.56953],[-0.3553662,51.56957],[-0.355342,51.56962],[-0.3553239,51.56968],[-0.3553025,51.56978],[-0.3552931,51.56984],[-0.3552998,51.56996],[-0.3553152,51.57012],[-0.3553273,51.57027]]}},{"type":"Feature","properties":{"Title":"Roxteth Green Avenue","Direction":"TwoWay","Flow":null,"Protection":null,"Ownership":null,"YearBuilt":null,"Borough":"Harrow","LengthInMetres":125,"stroke":"#1A73E8","stroke-width":4},"geometry":{"type":"LineString","coordinates":[[-0.3553221,51.57034],[-0.355308,51.57043],[-0.3552919,51.57053],[-0.3552685,51.57064],[-0.3552544,51.5707],[-0.3552142,51.57081],[-0.3551625,51.57095],[-0.3551236,51.57104],[-0.3550559,51.57119],[-0.3550023,51.57128],[-0.3549761,51.57133],[-0.3549003,51.57143]]}},{"type":"Feature","properties":{"Title":"Roxteth Green Avenue","Direction":"TwoWay","Flow":null,"Protection":null,"Ownership":null,"YearBuilt":null,"Borough":"Harrow","LengthInMetres":32,"stroke":"#1A73E8","stroke-width":4},"geometry":{"type":"LineString","coordinates":[[-0.3548277,51.57153],[-0.354774,51.57159],[-0.354703,51.57166],[-0.3546553,51.57171],[-0.3546064,51.57175],[-0.3545823,51.57177]]}},{"type":"Feature","properties":{"Title":"Roxteth Green Avenue","Direction":"TwoWay","Flow":null,"Protection":null,"Ownership":null,"YearBuilt":null,"Borough":"Harrow","LengthInMetres":15,"stroke":"#1A73E8","stroke-width":4},"geometry":{"type":"LineString","coordinates":[[-0.3545119,51.57182],[-0.3544093,51.57189],[-0.3543583,51.57192]]}},{"type":"Feature","properties":{"Title":"Lowlands Road","Direction":"TwoWay","Flow":null,"Protection":null,"Ownership":null,"YearBuilt":null,"Borough":"Harrow","LengthInMetres":122,"stroke":"#1A73E8","stroke-width":4},"geometry":{"type":"LineString","coordinates":[[-0.3421082,51.5795],[-0.3419341,51.57953],[-0.341674,51.57956],[-0.3414487,51.57957],[-0.3411456,51.57959],[-0.340956,51.57959],[-0.3409042,51.57944],[-0.3408103,51.57936],[-0.340711,51.57931],[-0.3406494,51.5793]]}},{"type":"Feature","properties":{"Title":"Lowlands Road","Direction":"OneWay","Flow":null,"Protection":null,"Ownership":null,"YearBuilt":null,"Borough":"Harrow","LengthInMetres":167,"stroke":"#1A73E8","stroke-width":2},"geometry":{"type":"LineString","coordinates":[[-0.3417061,51.57998],[-0.3417893,51.57993],[-0.3418107,51.57985],[-0.3418107,51.57975],[-0.3417973,51.5797],[-0.3417356,51.57967],[-0.3414272,51.57965],[-0.3412502,51.57965],[-0.3410624,51.57965],[-0.3409954,51.57965],[-0.3409659,51.57963],[-0.340956,51.57959],[-0.3405796,51.57961],[-0.3402738,51.57963],[-0.3401022,51.57962],[-0.3399815,51.57959]]}},{"type":"Feature","properties":{"Title":"Lowlands Road","Direction":"TwoWay","Flow":null,"Protection":null,"Ownership":null,"YearBuilt":null,"Borough":"Harrow","LengthInMetres":46,"stroke":"#1A73E8","stroke-width":4},"geometry":{"type":"LineString","coordinates":[[-0.3421082,51.5795],[-0.3422289,51.5795],[-0.3423576,51.5795],[-0.3423965,51.5795],[-0.342414,51.57947],[-0.3424314,51.5793],[-0.3424341,51.57927]]}},{"type":"Feature","properties":{"Title":"Pinner Road","Direction":"TwoWay","Flow":null,"Protection":null,"Ownership":null,"YearBuilt":null,"Borough":"Harrow","LengthInMetres":98,"stroke":"#1A73E8","stroke-width":4},"geometry":{"type":"LineString","coordinates":[[-0.3424971,51.57921],[-0.3424327,51.57925],[-0.3423737,51.57925],[-0.3423416,51.57929],[-0.3422772,51.57953],[-0.3422584,51.57964],[-0.3422168,51.57989],[-0.3421981,51.57999],[-0.342194,51.58003]]}},{"type":"Feature","properties":{"Title":"Pinner Road","Direction":"TwoWay","Flow":null,"Protection":null,"Ownership":null,"YearBuilt":null,"Borough":"Harrow","LengthInMetres":71,"stroke":"#1A73E8","stroke-width":4},"geometry":{"type":"LineString","coordinates":[[-0.342194,51.58003],[-0.3421927,51.58004],[-0.3421793,51.58009],[-0.3421551,51.58013],[-0.3421256,51.58018],[-0.3421189,51.58023],[-0.3421283,51.58025],[-0.3421484,51.58028],[-0.3421779,51.58029],[-0.3422222,51.5803],[-0.342253,51.58029],[-0.3422718,51.58026],[-0.3422825,51.58023],[-0.3423067,51.58011],[-0.3423067,51.58008],[-0.3422933,51.58006],[-0.3422691,51.58004],[-0.3422302,51.58003],[-0.3422061,51.58003],[-0.342194,51.58003]]}},{"type":"Feature","properties":{"Title":"Pinner Road","Direction":"TwoWay","Flow":null,"Protection":null,"Ownership":null,"YearBuilt":null,"Borough":"Harrow","LengthInMetres":127,"stroke":"#1A73E8","stroke-width":4},"geometry":{"type":"LineString","coordinates":[[-0.342194,51.58003],[-0.3421565,51.58003],[-0.342127,51.58004],[-0.3421002,51.58006],[-0.34208,51.5801],[-0.3420814,51.58014],[-0.3420961,51.58024],[-0.3421122,51.5803],[-0.3422021,51.58033],[-0.3422651,51.58046],[-0.3423348,51.58051],[-0.3425025,51.58062],[-0.3426715,51.58073],[-0.342882,51.58085],[-0.3429196,51.58086],[-0.3429585,51.58086],[-0.3429947,51.58088]]}},{"type":"Feature","properties":{"Title":"Masons Avenue","Direction":"OneWay","Flow":null,"Protection":null,"Ownership":null,"YearBuilt":null,"Borough":"Harrow","LengthInMetres":3,"stroke":"#1A73E8","stroke-width":2},"geometry":{"type":"LineString","coordinates":[[-0.334709,51.59291],[-0.3346647,51.5929]]}},{"type":"Feature","properties":{"Title":"Queensbury Circus","Direction":"TwoWay","Flow":null,"Protection":null,"Ownership":null,"YearBuilt":null,"Borough":"Harrow","LengthInMetres":119,"stroke":"#1A73E8","stroke-width":4},"geometry":{"type":"LineString","coordinates":[[-0.2935774,51.59507],[-0.2937813,51.5952],[-0.2939315,51.59526],[-0.2939798,51.59527],[-0.2940656,51.59523],[-0.2941997,51.59524],[-0.2943821,51.59529],[-0.2944518,51.59534],[-0.2945001,51.5954],[-0.2945484,51.59548],[-0.294704,51.59553],[-0.2948166,51.59556],[-0.2949132,51.59558]]}},{"type":"Feature","properties":{"Title":"Queensbury Circus","Direction":"TwoWay","Flow":null,"Protection":null,"Ownership":null,"YearBuilt":null,"Borough":"Harrow","LengthInMetres":116,"stroke":"#1A73E8","stroke-width":4},"geometry":{"type":"LineString","coordinates":[[-0.2935077,51.59516],[-0.2936096,51.59525],[-0.2937277,51.59542],[-0.2937223,51.59549],[-0.2937062,51.59559],[-0.2936847,51.59566],[-0.293792,51.59573],[-0.2939959,51.59579],[-0.2941032,51.5958],[-0.2941622,51.59581],[-0.2942695,51.59587],[-0.2943231,51.59593]]}},{"type":"Feature","properties":{"Title":"Queensbury Circus","Direction":"TwoWay","Flow":null,"Protection":null,"Ownership":null,"YearBuilt":null,"Borough":"Harrow","LengthInMetres":53,"stroke":"#1A73E8","stroke-width":4},"geometry":{"type":"LineString","coordinates":[[-0.2946021,51.59594],[-0.2945055,51.59572],[-0.2944948,51.59569],[-0.294543,51.59569],[-0.2947201,51.59569],[-0.2948434,51.59569]]}},{"type":"Feature","properties":{"Title":"North Harrow/Pinner Road","Direction":"TwoWay","Flow":null,"Protection":null,"Ownership":null,"YearBuilt":null,"Borough":"Harrow","LengthInMetres":48,"stroke":"#1A73E8","stroke-width":4},"geometry":{"type":"LineString","coordinates":[[-0.362045,51.5849],[-0.3616963,51.58527]]}},{"type":"Feature","properties":{"Title":"North Harrow/Pinner Road","Direction":"TwoWay","Flow":null,"Protection":null,"Ownership":null,"YearBuilt":null,"Borough":"Harrow","LengthInMetres":56,"stroke":"#1A73E8","stroke-width":4},"geometry":{"type":"LineString","coordinates":[[-0.3616319,51.58535],[-0.3612457,51.58579]]}},{"type":"Feature","properties":{"Title":"North Harrow/Pinner Road","Direction":"TwoWay","Flow":null,"Protection":null,"Ownership":null,"YearBuilt":null,"Borough":"Harrow","LengthInMetres":16,"stroke":"#1A73E8","stroke-width":4},"geometry":{"type":"LineString","coordinates":[[-0.3611867,51.58587],[-0.3611759,51.58591],[-0.3612135,51.58596],[-0.3612564,51.586]]}},{"type":"Feature","properties":{"Title":"North Harrow/Pinner Road","Direction":"TwoWay","Flow":null,"Protection":null,"Ownership":null,"YearBuilt":null,"Borough":"Harrow","LengthInMetres":49,"stroke":"#1A73E8","stroke-width":4},"geometry":{"type":"LineString","coordinates":[[-0.3613047,51.58606],[-0.3616668,51.58644]]}},{"type":"Feature","properties":{"Title":"North Harrow/Pinner Road","Direction":"TwoWay","Flow":null,"Protection":null,"Ownership":null,"YearBuilt":null,"Borough":"Harrow","LengthInMetres":9,"stroke":"#1A73E8","stroke-width":4},"geometry":{"type":"LineString","coordinates":[[-0.3616936,51.58647],[-0.3617526,51.58654]]}},{"type":"Feature","properties":{"Title":"North Harrow/Pinner Road","Direction":"TwoWay","Flow":null,"Protection":null,"Ownership":null,"YearBuilt":null,"Borough":"Harrow","LengthInMetres":25,"stroke":"#1A73E8","stroke-width":4},"geometry":{"type":"LineString","coordinates":[[-0.3617955,51.58659],[-0.361994,51.58678]]}},{"type":"Feature","properties":{"Title":"Canterbury Road","Direction":"TwoWay","Flow":null,"Protection":null,"Ownership":null,"YearBuilt":null,"Borough":"Harrow","LengthInMetres":20,"stroke":"#1A73E8","stroke-width":4},"geometry":{"type":"LineString","coordinates":[[-0.3620235,51.58682],[-0.3617633,51.5869]]}},{"type":"Feature","properties":{"Title":"Canterbury Road","Direction":"TwoWay","Flow":null,"Protection":null,"Ownership":null,"YearBuilt":null,"Borough":"Harrow","LengthInMetres":18,"stroke":"#1A73E8","stroke-width":4},"geometry":{"type":"LineString","coordinates":[[-0.3616721,51.58693],[-0.3614522,51.58701]]}},{"type":"Feature","properties":{"Title":"North Harrow/Pinner Road","Direction":"TwoWay","Flow":null,"Protection":null,"Ownership":null,"YearBuilt":null,"Borough":"Harrow","LengthInMetres":4,"stroke":"#1A73E8","stroke-width":4},"geometry":{"type":"LineString","coordinates":[[-0.3620235,51.58682],[-0.3620482,51.58685]]}},{"type":"Feature","properties":{"Title":"North Harrow/Pinner Road","Direction":"TwoWay","Flow":null,"Protection":null,"Ownership":null,"YearBuilt":null,"Borough":"Harrow","LengthInMetres":63,"stroke":"#1A73E8","stroke-width":4},"geometry":{"type":"LineString","coordinates":[[-0.3620596,51.58686],[-0.362246,51.58705],[-0.3623854,51.58719],[-0.3624766,51.58728],[-0.3625196,51.58732],[-0.362533,51.58734]]}},{"type":"Feature","properties":{"Title":"North Harrow/Pinner Road","Direction":"TwoWay","Flow":null,"Protection":null,"Ownership":null,"YearBuilt":null,"Borough":"Harrow","LengthInMetres":6,"stroke":"#1A73E8","stroke-width":4},"geometry":{"type":"LineString","coordinates":[[-0.3625625,51.58738],[-0.362592,51.58743]]}},{"type":"Feature","properties":{"Title":"North Harrow/Pinner Road","Direction":"TwoWay","Flow":null,"Protection":null,"Ownership":null,"YearBuilt":null,"Borough":"Harrow","LengthInMetres":21,"stroke":"#1A73E8","stroke-width":4},"geometry":{"type":"LineString","coordinates":[[-0.3626134,51.58748],[-0.3626885,51.58766]]}},{"type":"Feature","properties":{"Title":"North Harrow/Pinner Road","Direction":"TwoWay","Flow":null,"Protection":null,"Ownership":null,"YearBuilt":null,"Borough":"Harrow","LengthInMetres":11,"stroke":"#1A73E8","stroke-width":4},"geometry":{"type":"LineString","coordinates":[[-0.3626885,51.58766],[-0.3628441,51.58764]]}},{"type":"Feature","properties":{"Title":"North Harrow/Pinner Road","Direction":"TwoWay","Flow":null,"Protection":null,"Ownership":null,"YearBuilt":null,"Borough":"Harrow","LengthInMetres":27,"stroke":"#1A73E8","stroke-width":4},"geometry":{"type":"LineString","coordinates":[[-0.3626885,51.58766],[-0.3627663,51.5879]]}},{"type":"Feature","properties":{"Title":"North Harrow/Pinner Road","Direction":"TwoWay","Flow":null,"Protection":null,"Ownership":null,"YearBuilt":null,"Borough":"Harrow","LengthInMetres":108,"stroke":"#1A73E8","stroke-width":4},"geometry":{"type":"LineString","coordinates":[[-0.3627851,51.58795],[-0.3628656,51.58819],[-0.3629702,51.58848],[-0.3631204,51.5889]]}},{"type":"Feature","properties":{"Title":"North Harrow/Pinner Road","Direction":"TwoWay","Flow":null,"Protection":null,"Ownership":null,"YearBuilt":null,"Borough":"Harrow","LengthInMetres":10,"stroke":"#1A73E8","stroke-width":4},"geometry":{"type":"LineString","coordinates":[[-0.3631847,51.58908],[-0.3632196,51.58917]]}},{"type":"Feature","properties":{"Title":"North Harrow/Pinner Road","Direction":"TwoWay","Flow":null,"Protection":null,"Ownership":null,"YearBuilt":null,"Borough":"Harrow","LengthInMetres":26,"stroke":"#1A73E8","stroke-width":4},"geometry":{"type":"LineString","coordinates":[[-0.363233,51.58921],[-0.3633242,51.58944]]}},{"type":"Feature","properties":{"Title":"North Harrow/Pinner Road","Direction":"TwoWay","Flow":null,"Protection":null,"Ownership":null,"YearBuilt":null,"Borough":"Harrow","LengthInMetres":3,"stroke":"#1A73E8","stroke-width":4},"geometry":{"type":"LineString","coordinates":[[-0.3633403,51.58948],[-0.3633403,51.58951]]}},{"type":"Feature","properties":{"Title":"A312","Direction":"TwoWay","Flow":null,"Protection":null,"Ownership":null,"YearBuilt":null,"Borough":"Harrow","LengthInMetres":40,"stroke":"#1A73E8","stroke-width":4},"geometry":{"type":"LineString","coordinates":[[-0.3623462,51.55707],[-0.362399,51.55712],[-0.362428,51.55717],[-0.362479,51.55732],[-0.362493,51.55741]]}},{"type":"Feature","properties":{"Title":"Alexandra Avenue","Direction":"TwoWay","Flow":null,"Protection":null,"Ownership":null,"YearBuilt":null,"Borough":"Harrow","LengthInMetres":12,"stroke":"#1A73E8","stroke-width":4},"geometry":{"type":"LineString","coordinates":[[-0.365126,51.5599],[-0.365162,51.56001]]}},{"type":"Feature","properties":{"Title":"Alexandra Avenue","Direction":"TwoWay","Flow":null,"Protection":null,"Ownership":null,"YearBuilt":null,"Borough":"Harrow","LengthInMetres":13,"stroke":"#1A73E8","stroke-width":4},"geometry":{"type":"LineString","coordinates":[[-0.365254,51.56031],[-0.365282,51.56043]]}},{"type":"Feature","properties":{"Title":"Alexandra Avenue","Direction":"TwoWay","Flow":null,"Protection":null,"Ownership":null,"YearBuilt":null,"Borough":"Harrow","LengthInMetres":33,"stroke":"#1A73E8","stroke-width":4},"geometry":{"type":"LineString","coordinates":[[-0.365286,51.56047],[-0.365312,51.56072],[-0.36531,51.56077]]}},{"type":"Feature","properties":{"Title":"Alexandra Avenue","Direction":"TwoWay","Flow":null,"Protection":null,"Ownership":null,"YearBuilt":null,"Borough":"Harrow","LengthInMetres":16,"stroke":"#1A73E8","stroke-width":4},"geometry":{"type":"LineString","coordinates":[[-0.365172,51.56005],[-0.365222,51.56019]]}},{"type":"Feature","properties":{"Title":"Alexandra Avenue","Direction":"TwoWay","Flow":null,"Protection":null,"Ownership":null,"YearBuilt":null,"Borough":"Harrow","LengthInMetres":16,"stroke":"#1A73E8","stroke-width":4},"geometry":{"type":"LineString","coordinates":[[-0.362514,51.55756],[-0.362595,51.55765],[-0.362638,51.55768]]}},{"type":"Feature","properties":{"Title":"Alexandra Avenue","Direction":"TwoWay","Flow":null,"Protection":null,"Ownership":null,"YearBuilt":null,"Borough":"Harrow","LengthInMetres":51,"stroke":"#1A73E8","stroke-width":4},"geometry":{"type":"LineString","coordinates":[[-0.362952,51.5582],[-0.362899,51.55814],[-0.362833,51.55805],[-0.362752,51.55791],[-0.362729,51.55783],[-0.362697,51.55777]]}},{"type":"Feature","properties":{"Title":"Torbay Road","Direction":"TwoWay","Flow":null,"Protection":null,"Ownership":null,"YearBuilt":null,"Borough":"Harrow","LengthInMetres":10,"stroke":"#1A73E8","stroke-width":4},"geometry":{"type":"LineString","coordinates":[[-0.382954,51.56843],[-0.3829559,51.56841],[-0.3829507,51.56838],[-0.3829381,51.56835],[-0.382931,51.56834]]}}]}