{"type":"FeatureCollection","features":[{"type":"Feature","properties":{"Title":"Main Road","Direction":"TwoWay","Flow":null,"Protection":null,"Ownership":null,"YearBuilt":null,"Borough":"Havering","LengthInMetres":240,"stroke":"#FF7043","stroke-width":4},"geometry":{"type":"LineString","coordinates":[[0.2102642,51.59118],[0.2099423,51.59097],[0.2092128,51.59034],[0.2087085,51.58988],[0.2082472,51.58943]]}},{"type":"Feature","properties":{"Title":"Angel Way","Direction":"TwoWay","Flow":null,"Protection":null,"Ownership":null,"YearBuilt":null,"Borough":"Havering","LengthInMetres":160,"stroke":"#FF7043","stroke-width":4},"geometry":{"type":"LineString","coordinates":[[0.1772722,51.5783],[0.1774116,51.57816],[0.1776101,51.57806],[0.1780876,51.57788],[0.1783075,51.57775],[0.1785221,51.57762],[0.1786133,51.57762],[0.1787742,51.57768],[0.1790478,51.57781]]}},{"type":"Feature","properties":{"Title":"Whitelands Way roundabout by-pass","Direction":"OneWay","Flow":null,"Protection":null,"Ownership":null,"YearBuilt":null,"Borough":"Havering","LengthInMetres":28,"stroke":"#FF7043","stroke-width":2},"geometry":{"type":"LineString","coordinates":[[0.2201898,51.59206],[0.2200557,51.592],[0.2199779,51.59199],[0.219829,51.59196]]}}]}