{"type":"FeatureCollection","features":[{"type":"Feature","properties":{"Title":"C9","Direction":"TwoWay","Flow":null,"Protection":null,"Ownership":null,"YearBuilt":null,"Borough":"Hounslow","LengthInMetres":435,"stroke":"#FFA54F","stroke-width":4},"geometry":{"type":"LineString","coordinates":[[-0.2514257,51.49285],[-0.250967,51.49289],[-0.250275,51.49296],[-0.2492289,51.4931],[-0.2485959,51.49319],[-0.24814,51.49325],[-0.2477269,51.49329],[-0.2473299,51.49332],[-0.2467077,51.49336],[-0.2460961,51.49337],[-0.2452316,51.4934]]}},{"type":"Feature","properties":{"Title":"C9","Direction":"TwoWay","Flow":null,"Protection":null,"Ownership":null,"YearBuilt":null,"Borough":"Hounslow","LengthInMetres":785,"stroke":"#FFA54F","stroke-width":4},"geometry":{"type":"LineString","coordinates":[[-0.2626973,51.49247],[-0.2624067,51.49245],[-0.2616932,51.49245],[-0.2608886,51.49244],[-0.2598371,51.49248],[-0.2587804,51.49251],[-0.2575144,51.49259],[-0.2559587,51.49266],[-0.2552452,51.4927],[-0.2545586,51.49273],[-0.2529224,51.49285],[-0.2526005,51.49285],[-0.2522787,51.49284],[-0.2518978,51.49284],[-0.2516403,51.49284],[-0.2514257,51.49285]]}},{"type":"Feature","properties":{"Title":"C9","Direction":"OneWay","Flow":null,"Protection":null,"Ownership":null,"YearBuilt":null,"Borough":"Hounslow","LengthInMetres":121,"stroke":"#FFA54F","stroke-width":2},"geometry":{"type":"LineString","coordinates":[[-0.2870133,51.48927],[-0.287185,51.48911],[-0.2872869,51.489],[-0.2872842,51.48892],[-0.2874318,51.48885],[-0.2876798,51.48879],[-0.287944,51.48875],[-0.2881076,51.48875],[-0.2883248,51.48876]]}},{"type":"Feature","properties":{"Title":"C9","Direction":"OneWay","Flow":null,"Protection":null,"Ownership":null,"YearBuilt":null,"Borough":"Hounslow","LengthInMetres":345,"stroke":"#FFA54F","stroke-width":2},"geometry":{"type":"LineString","coordinates":[[-0.2930508,51.48756],[-0.2930883,51.48754],[-0.2934021,51.48746],[-0.2937991,51.48736],[-0.2940351,51.4873],[-0.2942148,51.48725],[-0.2945099,51.48717],[-0.2947968,51.48708],[-0.2950892,51.487],[-0.2954111,51.48691],[-0.2958215,51.48677],[-0.2961996,51.48665],[-0.2964223,51.48658],[-0.296551,51.48653],[-0.2968836,51.48644],[-0.2971304,51.48637],[-0.2975301,51.48624]]}},{"type":"Feature","properties":{"Title":"C9","Direction":"TwoWay","Flow":null,"Protection":null,"Ownership":null,"YearBuilt":null,"Borough":"Hounslow","LengthInMetres":146,"stroke":"#FFA54F","stroke-width":4},"geometry":{"type":"LineString","coordinates":[[-0.28535,51.49007],[-0.2861999,51.48969],[-0.286731,51.48945],[-0.2870133,51.48927]]}},{"type":"Feature","properties":{"Title":"C9","Direction":"TwoWay","Flow":null,"Protection":null,"Ownership":null,"YearBuilt":null,"Borough":"Hounslow","LengthInMetres":35,"stroke":"#FFA54F","stroke-width":4},"geometry":{"type":"LineString","coordinates":[[-0.2848495,51.49005],[-0.28535,51.49007]]}},{"type":"Feature","properties":{"Title":"C9 - Spur","Direction":"TwoWay","Flow":null,"Protection":null,"Ownership":null,"YearBuilt":null,"Borough":"Hounslow","LengthInMetres":33,"stroke":"#FFA54F","stroke-width":4},"geometry":{"type":"LineString","coordinates":[[-0.28535,51.49007],[-0.28551,51.49021],[-0.2855261,51.49027],[-0.2855502,51.49033]]}},{"type":"Feature","properties":{"Title":"C9 - Spur","Direction":"OneWay","Flow":null,"Protection":null,"Ownership":null,"YearBuilt":null,"Borough":"Hounslow","LengthInMetres":15,"stroke":"#FFA54F","stroke-width":2},"geometry":{"type":"LineString","coordinates":[[-0.2851962,51.49016],[-0.28535,51.49007]]}},{"type":"Feature","properties":{"Title":"C40","Direction":"TwoWay","Flow":null,"Protection":null,"Ownership":null,"YearBuilt":null,"Borough":"Hounslow","LengthInMetres":18,"stroke":"#FFA54F","stroke-width":4},"geometry":{"type":"LineString","coordinates":[[-0.3218917,51.47088],[-0.3219507,51.47085],[-0.3220714,51.47077]]}},{"type":"Feature","properties":{"Title":"C40","Direction":"TwoWay","Flow":null,"Protection":null,"Ownership":null,"YearBuilt":null,"Borough":"Hounslow","LengthInMetres":138,"stroke":"#FFA54F","stroke-width":4},"geometry":{"type":"LineString","coordinates":[[-0.3244465,51.46877],[-0.3249964,51.46869],[-0.325329,51.46864],[-0.3256696,51.4686],[-0.3261846,51.46856],[-0.3261846,51.46848],[-0.3262329,51.46844]]}},{"type":"Feature","properties":{"Title":"LCN 87","Direction":"TwoWay","Flow":null,"Protection":null,"Ownership":null,"YearBuilt":null,"Borough":"Hounslow","LengthInMetres":1026,"stroke":"#FFA54F","stroke-width":4},"geometry":{"type":"LineString","coordinates":[[-0.3248833,51.49592],[-0.3248355,51.4959],[-0.3246189,51.49583],[-0.3228788,51.49523],[-0.3213124,51.49458],[-0.3200893,51.49396],[-0.3193598,51.4936],[-0.3185015,51.49296],[-0.3178577,51.49236],[-0.3176003,51.49195],[-0.3173642,51.49164],[-0.3156691,51.48998],[-0.3150039,51.48936]]}},{"type":"Feature","properties":{"Title":"LCN 87","Direction":"OneWay","Flow":null,"Protection":null,"Ownership":null,"YearBuilt":null,"Borough":"Hounslow","LengthInMetres":73,"stroke":"#FFA54F","stroke-width":2},"geometry":{"type":"LineString","coordinates":[[-0.3142276,51.48878],[-0.313777,51.48855],[-0.3133693,51.4884]]}},{"type":"Feature","properties":{"Title":"Hounslow Road","Direction":"OneWay","Flow":null,"Protection":null,"Ownership":null,"YearBuilt":null,"Borough":"Hounslow","LengthInMetres":439,"stroke":"#FFA54F","stroke-width":2},"geometry":{"type":"LineString","coordinates":[[-0.3886902,51.44102],[-0.3855145,51.44443]]}},{"type":"Feature","properties":{"Title":"Hounslow Road","Direction":"OneWay","Flow":null,"Protection":null,"Ownership":null,"YearBuilt":null,"Borough":"Hounslow","LengthInMetres":224,"stroke":"#FFA54F","stroke-width":2},"geometry":{"type":"LineString","coordinates":[[-0.3891105,51.44058],[-0.3905052,51.43903],[-0.3905803,51.43889],[-0.390634,51.43881]]}},{"type":"Feature","properties":{"Title":"Hounslow Road","Direction":"TwoWay","Flow":null,"Protection":null,"Ownership":null,"YearBuilt":null,"Borough":"Hounslow","LengthInMetres":133,"stroke":"#FFA54F","stroke-width":4},"geometry":{"type":"LineString","coordinates":[[-0.390634,51.43881],[-0.3910202,51.43764]]}},{"type":"Feature","properties":{"Title":"Hounslow Road","Direction":"OneWay","Flow":null,"Protection":null,"Ownership":null,"YearBuilt":null,"Borough":"Hounslow","LengthInMetres":230,"stroke":"#FFA54F","stroke-width":2},"geometry":{"type":"LineString","coordinates":[[-0.3910202,51.43764],[-0.3917068,51.43562]]}},{"type":"Feature","properties":{"Title":"The Parkway","Direction":"TwoWay","Flow":null,"Protection":null,"Ownership":null,"YearBuilt":null,"Borough":"Hounslow","LengthInMetres":463,"stroke":"#FFA54F","stroke-width":4},"geometry":{"type":"LineString","coordinates":[[-0.4087228,51.50017],[-0.4087742,51.50006],[-0.4089244,51.49968],[-0.4091711,51.49907],[-0.4092462,51.49892],[-0.4094286,51.49888],[-0.409729,51.49887],[-0.4100402,51.49873],[-0.4102225,51.49856],[-0.4102655,51.49837],[-0.4100616,51.49831],[-0.4101045,51.4984],[-0.4098792,51.49855],[-0.4096647,51.49867],[-0.4095574,51.4987],[-0.4092462,51.49866],[-0.4088814,51.49856],[-0.4081519,51.49822],[-0.4080446,51.49821],[-0.4078086,51.4982]]}},{"type":"Feature","properties":{"Title":"The Parkway","Direction":"TwoWay","Flow":null,"Protection":null,"Ownership":null,"YearBuilt":null,"Borough":"Hounslow","LengthInMetres":656,"stroke":"#FFA54F","stroke-width":4},"geometry":{"type":"LineString","coordinates":[[-0.4100616,51.49831],[-0.409998,51.49817],[-0.4101482,51.49801],[-0.4099658,51.49787],[-0.4097727,51.4977],[-0.409719,51.49762],[-0.409719,51.4973],[-0.4097405,51.49715],[-0.4098156,51.49704],[-0.4098371,51.49695],[-0.4098263,51.49681],[-0.4098478,51.49654],[-0.4100624,51.49491],[-0.4101696,51.49453],[-0.4102126,51.4943],[-0.4102018,51.4941],[-0.4102984,51.49362],[-0.4104057,51.49336],[-0.4105344,51.4932],[-0.4108777,51.49301],[-0.4108563,51.49294],[-0.4106739,51.49271]]}},{"type":"Feature","properties":{"Title":"The Parkway","Direction":"TwoWay","Flow":null,"Protection":null,"Ownership":null,"YearBuilt":null,"Borough":"Hounslow","LengthInMetres":246,"stroke":"#FFA54F","stroke-width":4},"geometry":{"type":"LineString","coordinates":[[-0.4109421,51.49141],[-0.4111245,51.49136],[-0.4111245,51.49122],[-0.4111352,51.49084],[-0.4111996,51.49031],[-0.4111782,51.49002],[-0.4113498,51.48928]]}},{"type":"Feature","properties":{"Title":"Orchard Path","Direction":"TwoWay","Flow":null,"Protection":null,"Ownership":null,"YearBuilt":null,"Borough":"Hounslow","LengthInMetres":944,"stroke":"#FFA54F","stroke-width":4},"geometry":{"type":"LineString","coordinates":[[-0.4558076,51.44708],[-0.4559524,51.44791],[-0.4560919,51.44867],[-0.4560517,51.4487],[-0.4560061,51.44871],[-0.4550056,51.44878],[-0.4548393,51.44883],[-0.4546784,51.4489],[-0.4545416,51.44899],[-0.4542761,51.44929],[-0.4540347,51.44957],[-0.4539408,51.44972],[-0.4538764,51.44988],[-0.453863,51.45],[-0.4539274,51.4512],[-0.4539435,51.45126],[-0.4540132,51.45149],[-0.4540212,51.45154],[-0.4540159,51.45159],[-0.4539891,51.45197],[-0.453981,51.4521],[-0.4539461,51.45261],[-0.4539381,51.45269],[-0.453914,51.45274],[-0.4538684,51.45278],[-0.4537611,51.4528],[-0.4535599,51.45281],[-0.4534955,51.45284],[-0.4534607,51.45288],[-0.4534473,51.45313],[-0.4534177,51.45362],[-0.4533775,51.45425],[-0.4533587,51.45451]]}},{"type":"Feature","properties":{"Title":"North Hyde Lane","Direction":"TwoWay","Flow":null,"Protection":null,"Ownership":null,"YearBuilt":null,"Borough":"Hounslow","LengthInMetres":376,"stroke":"#FFA54F","stroke-width":4},"geometry":{"type":"LineString","coordinates":[[-0.3856149,51.49289],[-0.3841022,51.49256],[-0.3830615,51.49236],[-0.3815594,51.49214],[-0.3811732,51.49214],[-0.3806475,51.49224],[-0.3804436,51.49232]]}},{"type":"Feature","properties":{"Title":"Richmond Avenue","Direction":"TwoWay","Flow":null,"Protection":null,"Ownership":null,"YearBuilt":null,"Borough":"Hounslow","LengthInMetres":379,"stroke":"#FFA54F","stroke-width":4},"geometry":{"type":"LineString","coordinates":[[-0.4274508,51.45703],[-0.4283198,51.45788],[-0.4290708,51.45869],[-0.4299828,51.45961],[-0.4303368,51.45992]]}},{"type":"Feature","properties":{"Title":"Browells Lane","Direction":"TwoWay","Flow":null,"Protection":null,"Ownership":null,"YearBuilt":null,"Borough":"Hounslow","LengthInMetres":249,"stroke":"#FFA54F","stroke-width":4},"geometry":{"type":"LineString","coordinates":[[-0.4030488,51.44334],[-0.4029147,51.44338],[-0.4020618,51.44392],[-0.4016326,51.44419],[-0.4005651,51.44494]]}},{"type":"Feature","properties":{"Title":"Staines Road","Direction":"TwoWay","Flow":null,"Protection":null,"Ownership":null,"YearBuilt":null,"Borough":"Hounslow","LengthInMetres":558,"stroke":"#FFA54F","stroke-width":4},"geometry":{"type":"LineString","coordinates":[[-0.3955928,51.4605],[-0.3934363,51.46119],[-0.3912583,51.46189],[-0.389295,51.46254],[-0.3884688,51.46281]]}},{"type":"Feature","properties":{"Title":"Bath Road","Direction":"OneWay","Flow":null,"Protection":null,"Ownership":null,"YearBuilt":null,"Borough":"Hounslow","LengthInMetres":64,"stroke":"#FFA54F","stroke-width":2},"geometry":{"type":"LineString","coordinates":[[-0.367216,51.46832],[-0.3663147,51.46821]]}},{"type":"Feature","properties":{"Title":"Lampton Road","Direction":"OneWay","Flow":null,"Protection":null,"Ownership":null,"YearBuilt":null,"Borough":"Hounslow","LengthInMetres":28,"stroke":"#FFA54F","stroke-width":2},"geometry":{"type":"LineString","coordinates":[[-0.3662611,51.46845],[-0.3662396,51.46829],[-0.3662289,51.4682]]}},{"type":"Feature","properties":{"Title":"Hounslow High Street","Direction":"OneWay","Flow":null,"Protection":null,"Ownership":null,"YearBuilt":null,"Borough":"Hounslow","LengthInMetres":395,"stroke":"#FFA54F","stroke-width":2},"geometry":{"type":"LineString","coordinates":[[-0.3624309,51.46883],[-0.3600276,51.46936],[-0.3570879,51.47004]]}},{"type":"Feature","properties":{"Title":"Clayponds Lane","Direction":"TwoWay","Flow":null,"Protection":null,"Ownership":null,"YearBuilt":null,"Borough":"Hounslow","LengthInMetres":78,"stroke":"#FFA54F","stroke-width":4},"geometry":{"type":"LineString","coordinates":[[-0.2983195,51.48996],[-0.2983088,51.4903],[-0.298341,51.49066]]}},{"type":"Feature","properties":{"Title":"Great Chertsey Road / A316","Direction":"TwoWay","Flow":null,"Protection":null,"Ownership":null,"YearBuilt":null,"Borough":"Hounslow","LengthInMetres":418,"stroke":"#FFA54F","stroke-width":4},"geometry":{"type":"LineString","coordinates":[[-0.3671923,51.44174],[-0.3675651,51.44159],[-0.3700328,51.44051],[-0.3721356,51.4396]]}},{"type":"Feature","properties":{"Title":"Great Chertsey Road / A316","Direction":"TwoWay","Flow":null,"Protection":null,"Ownership":null,"YearBuilt":null,"Borough":"Hounslow","LengthInMetres":315,"stroke":"#FFA54F","stroke-width":4},"geometry":{"type":"LineString","coordinates":[[-0.3733993,51.43907],[-0.3743327,51.43868],[-0.3750945,51.43855],[-0.3764034,51.438],[-0.377251,51.43762]]}},{"type":"Feature","properties":{"Title":"Alexandra Road","Direction":"OneWay","Flow":null,"Protection":null,"Ownership":null,"YearBuilt":null,"Borough":"Hounslow","LengthInMetres":66,"stroke":"#FFA54F","stroke-width":2},"geometry":{"type":"LineString","coordinates":[[-0.3043082,51.48463],[-0.3038254,51.48412]]}},{"type":"Feature","properties":{"Title":"Great West Road","Direction":"TwoWay","Flow":null,"Protection":null,"Ownership":null,"YearBuilt":null,"Borough":"Hounslow","LengthInMetres":211,"stroke":"#FFA54F","stroke-width":4},"geometry":{"type":"LineString","coordinates":[[-0.285028,51.49239],[-0.285313,51.49246],[-0.285697,51.49253],[-0.286288,51.49265],[-0.286559,51.49269],[-0.286713,51.49272],[-0.286842,51.49274],[-0.287007,51.49276],[-0.287174,51.49276],[-0.287332,51.49276],[-0.28743,51.49276],[-0.287562,51.49275],[-0.287683,51.49273],[-0.28782,51.49271],[-0.287911,51.4927],[-0.287964,51.49269]]}},{"type":"Feature","properties":{"Title":"Great West Road","Direction":"TwoWay","Flow":null,"Protection":null,"Ownership":null,"YearBuilt":null,"Borough":"Hounslow","LengthInMetres":439,"stroke":"#FFA54F","stroke-width":4},"geometry":{"type":"LineString","coordinates":[[-0.292328,51.49126],[-0.292719,51.49121],[-0.292906,51.49119],[-0.293142,51.49117],[-0.293591,51.49115],[-0.294197,51.49112],[-0.294348,51.49111],[-0.294546,51.4911],[-0.295835,51.49112],[-0.296298,51.49112],[-0.296598,51.49113],[-0.29681,51.49115],[-0.29753,51.49124],[-0.297666,51.49124],[-0.298619,51.49124]]}},{"type":"Feature","properties":{"Title":"Great West Road","Direction":"TwoWay","Flow":null,"Protection":null,"Ownership":null,"YearBuilt":null,"Borough":"Hounslow","LengthInMetres":103,"stroke":"#FFA54F","stroke-width":4},"geometry":{"type":"LineString","coordinates":[[-0.3075,51.49032],[-0.308774,51.48985]]}},{"type":"Feature","properties":{"Title":"Great West Road","Direction":"TwoWay","Flow":null,"Protection":null,"Ownership":null,"YearBuilt":null,"Borough":"Hounslow","LengthInMetres":52,"stroke":"#FFA54F","stroke-width":4},"geometry":{"type":"LineString","coordinates":[[-0.312003,51.48863],[-0.312627,51.48838]]}},{"type":"Feature","properties":{"Title":"Great West Road","Direction":"TwoWay","Flow":null,"Protection":null,"Ownership":null,"YearBuilt":null,"Borough":"Hounslow","LengthInMetres":201,"stroke":"#FFA54F","stroke-width":4},"geometry":{"type":"LineString","coordinates":[[-0.309186,51.48971],[-0.309724,51.48953],[-0.309952,51.48944],[-0.310292,51.48931],[-0.310856,51.4891],[-0.31127,51.48893],[-0.311656,51.48877]]}},{"type":"Feature","properties":{"Title":"Great West Road","Direction":"TwoWay","Flow":null,"Protection":null,"Ownership":null,"YearBuilt":null,"Borough":"Hounslow","LengthInMetres":62,"stroke":"#FFA54F","stroke-width":4},"geometry":{"type":"LineString","coordinates":[[-0.305574,51.49094],[-0.305771,51.49089],[-0.305917,51.49085],[-0.3062,51.49077],[-0.306384,51.49071]]}},{"type":"Feature","properties":{"Title":"Great West Road","Direction":"TwoWay","Flow":null,"Protection":null,"Ownership":null,"YearBuilt":null,"Borough":"Hounslow","LengthInMetres":109,"stroke":"#FFA54F","stroke-width":4},"geometry":{"type":"LineString","coordinates":[[-0.290277,51.49187],[-0.290492,51.4918],[-0.29088,51.49165],[-0.291237,51.49153],[-0.291651,51.4914]]}},{"type":"Feature","properties":{"Title":"Great West Road","Direction":"TwoWay","Flow":null,"Protection":null,"Ownership":null,"YearBuilt":null,"Borough":"Hounslow","LengthInMetres":47,"stroke":"#FFA54F","stroke-width":4},"geometry":{"type":"LineString","coordinates":[[-0.305483,51.49096],[-0.305174,51.49102],[-0.304838,51.49109]]}},{"type":"Feature","properties":{"Title":"Great West Road","Direction":"TwoWay","Flow":null,"Protection":null,"Ownership":null,"YearBuilt":null,"Borough":"Hounslow","LengthInMetres":52,"stroke":"#FFA54F","stroke-width":4},"geometry":{"type":"LineString","coordinates":[[-0.306649,51.49062],[-0.306954,51.49052],[-0.307307,51.49039]]}},{"type":"Feature","properties":{"Title":"Great West Road","Direction":"TwoWay","Flow":null,"Protection":null,"Ownership":null,"YearBuilt":null,"Borough":"Hounslow","LengthInMetres":122,"stroke":"#FFA54F","stroke-width":4},"geometry":{"type":"LineString","coordinates":[[-0.3165065,51.48686],[-0.3166836,51.48679],[-0.3173273,51.48657],[-0.3176519,51.48645],[-0.3180113,51.48629]]}},{"type":"Feature","properties":{"Title":"Great West Road","Direction":"TwoWay","Flow":null,"Protection":null,"Ownership":null,"YearBuilt":null,"Borough":"Hounslow","LengthInMetres":116,"stroke":"#FFA54F","stroke-width":4},"geometry":{"type":"LineString","coordinates":[[-0.313485,51.48806],[-0.314916,51.48753]]}},{"type":"Feature","properties":{"Title":"Great West Road","Direction":"TwoWay","Flow":null,"Protection":null,"Ownership":null,"YearBuilt":null,"Borough":"Hounslow","LengthInMetres":177,"stroke":"#FFA54F","stroke-width":4},"geometry":{"type":"LineString","coordinates":[[-0.288015,51.49268],[-0.288144,51.49264],[-0.288231,51.49262],[-0.288365,51.49257],[-0.288497,51.49253],[-0.288842,51.4924],[-0.289229,51.49226],[-0.290224,51.49189]]}},{"type":"Feature","properties":{"Title":"Great West Road","Direction":"TwoWay","Flow":null,"Protection":null,"Ownership":null,"YearBuilt":null,"Borough":"Hounslow","LengthInMetres":120,"stroke":"#FFA54F","stroke-width":4},"geometry":{"type":"LineString","coordinates":[[-0.3181159,51.48624],[-0.3195562,51.48564]]}},{"type":"Feature","properties":{"Title":"Great West Road","Direction":"TwoWay","Flow":null,"Protection":null,"Ownership":null,"YearBuilt":null,"Borough":"Hounslow","LengthInMetres":59,"stroke":"#FFA54F","stroke-width":4},"geometry":{"type":"LineString","coordinates":[[-0.319634,51.4856],[-0.3203367,51.4853]]}},{"type":"Feature","properties":{"Title":"Great West Road","Direction":"TwoWay","Flow":null,"Protection":null,"Ownership":null,"YearBuilt":null,"Borough":"Hounslow","LengthInMetres":68,"stroke":"#FFA54F","stroke-width":4},"geometry":{"type":"LineString","coordinates":[[-0.3207283,51.48513],[-0.3215196,51.48477]]}},{"type":"Feature","properties":{"Title":"Great West Road","Direction":"TwoWay","Flow":null,"Protection":null,"Ownership":null,"YearBuilt":null,"Borough":"Hounslow","LengthInMetres":61,"stroke":"#FFA54F","stroke-width":4},"geometry":{"type":"LineString","coordinates":[[-0.3218924,51.48461],[-0.3226488,51.48434]]}},{"type":"Feature","properties":{"Title":"Great West Road","Direction":"TwoWay","Flow":null,"Protection":null,"Ownership":null,"YearBuilt":null,"Borough":"Hounslow","LengthInMetres":39,"stroke":"#FFA54F","stroke-width":4},"geometry":{"type":"LineString","coordinates":[[-0.3228875,51.48426],[-0.3233757,51.48409]]}},{"type":"Feature","properties":{"Title":"Great West Road","Direction":"TwoWay","Flow":null,"Protection":null,"Ownership":null,"YearBuilt":null,"Borough":"Hounslow","LengthInMetres":51,"stroke":"#FFA54F","stroke-width":4},"geometry":{"type":"LineString","coordinates":[[-0.3238048,51.48395],[-0.3244683,51.48375]]}},{"type":"Feature","properties":{"Title":"Great West Road","Direction":"TwoWay","Flow":null,"Protection":null,"Ownership":null,"YearBuilt":null,"Borough":"Hounslow","LengthInMetres":34,"stroke":"#FFA54F","stroke-width":4},"geometry":{"type":"LineString","coordinates":[[-0.3283539,51.483],[-0.328842,51.48296]]}},{"type":"Feature","properties":{"Title":"Great West Road","Direction":"TwoWay","Flow":null,"Protection":null,"Ownership":null,"YearBuilt":null,"Borough":"Hounslow","LengthInMetres":512,"stroke":"#FFA54F","stroke-width":4},"geometry":{"type":"LineString","coordinates":[[-0.3290513,51.48294],[-0.3307357,51.48284],[-0.3326722,51.48275],[-0.3363898,51.48256]]}},{"type":"Feature","properties":{"Title":"Great West Road","Direction":"TwoWay","Flow":null,"Protection":null,"Ownership":null,"YearBuilt":null,"Borough":"Hounslow","LengthInMetres":326,"stroke":"#FFA54F","stroke-width":4},"geometry":{"type":"LineString","coordinates":[[-0.3367123,51.48252],[-0.3413875,51.48232]]}},{"type":"Feature","properties":{"Title":"Great West Road","Direction":"TwoWay","Flow":null,"Protection":null,"Ownership":null,"YearBuilt":null,"Borough":"Hounslow","LengthInMetres":19,"stroke":"#FFA54F","stroke-width":4},"geometry":{"type":"LineString","coordinates":[[-0.3415678,51.48231],[-0.3418441,51.48229]]}},{"type":"Feature","properties":{"Title":"Great West Road","Direction":"TwoWay","Flow":null,"Protection":null,"Ownership":null,"YearBuilt":null,"Borough":"Hounslow","LengthInMetres":99,"stroke":"#FFA54F","stroke-width":4},"geometry":{"type":"LineString","coordinates":[[-0.3429277,51.48223],[-0.3434105,51.4822],[-0.3437002,51.48218],[-0.34414,51.48214],[-0.3443412,51.48212]]}},{"type":"Feature","properties":{"Title":"Great West Road","Direction":"TwoWay","Flow":null,"Protection":null,"Ownership":null,"YearBuilt":null,"Borough":"Hounslow","LengthInMetres":179,"stroke":"#FFA54F","stroke-width":4},"geometry":{"type":"LineString","coordinates":[[-0.3445842,51.48208],[-0.3459468,51.48191],[-0.346502,51.4818],[-0.3470707,51.48168]]}},{"type":"Feature","properties":{"Title":"Great West Road","Direction":"TwoWay","Flow":null,"Protection":null,"Ownership":null,"YearBuilt":null,"Borough":"Hounslow","LengthInMetres":699,"stroke":"#FFA54F","stroke-width":4},"geometry":{"type":"LineString","coordinates":[[-0.3473416,51.48163],[-0.347583,51.48159],[-0.3506407,51.48088],[-0.3514668,51.48073],[-0.3531003,51.48044],[-0.3543448,51.48023],[-0.3567588,51.47991],[-0.3569948,51.47988]]}},{"type":"Feature","properties":{"Title":"Great West Road","Direction":"TwoWay","Flow":null,"Protection":null,"Ownership":null,"YearBuilt":null,"Borough":"Hounslow","LengthInMetres":305,"stroke":"#FFA54F","stroke-width":4},"geometry":{"type":"LineString","coordinates":[[-0.3572539,51.47984],[-0.3587211,51.47965],[-0.361161,51.47933],[-0.3615526,51.47928]]}},{"type":"Feature","properties":{"Title":"Great West Road","Direction":"TwoWay","Flow":null,"Protection":null,"Ownership":null,"YearBuilt":null,"Borough":"Hounslow","LengthInMetres":22,"stroke":"#FFA54F","stroke-width":4},"geometry":{"type":"LineString","coordinates":[[-0.3618401,51.47923],[-0.3621505,51.47919]]}},{"type":"Feature","properties":{"Title":"Great West Road","Direction":"TwoWay","Flow":null,"Protection":null,"Ownership":null,"YearBuilt":null,"Borough":"Hounslow","LengthInMetres":52,"stroke":"#FFA54F","stroke-width":4},"geometry":{"type":"LineString","coordinates":[[-0.3624884,51.47914],[-0.363226,51.47904]]}},{"type":"Feature","properties":{"Title":"Great West Road","Direction":"TwoWay","Flow":null,"Protection":null,"Ownership":null,"YearBuilt":null,"Borough":"Hounslow","LengthInMetres":55,"stroke":"#FFA54F","stroke-width":4},"geometry":{"type":"LineString","coordinates":[[-0.363773,51.47897],[-0.3642531,51.4789],[-0.3644891,51.47878]]}},{"type":"Feature","properties":{"Title":"Great West Road","Direction":"TwoWay","Flow":null,"Protection":null,"Ownership":null,"YearBuilt":null,"Borough":"Hounslow","LengthInMetres":70,"stroke":"#FFA54F","stroke-width":4},"geometry":{"type":"LineString","coordinates":[[-0.3659035,51.47867],[-0.3660698,51.47868],[-0.3668959,51.47857]]}},{"type":"Feature","properties":{"Title":"Great West Road","Direction":"TwoWay","Flow":null,"Protection":null,"Ownership":null,"YearBuilt":null,"Borough":"Hounslow","LengthInMetres":229,"stroke":"#FFA54F","stroke-width":4},"geometry":{"type":"LineString","coordinates":[[-0.3682156,51.4784],[-0.3714449,51.47798]]}},{"type":"Feature","properties":{"Title":"Great West Road","Direction":"TwoWay","Flow":null,"Protection":null,"Ownership":null,"YearBuilt":null,"Borough":"Hounslow","LengthInMetres":36,"stroke":"#FFA54F","stroke-width":4},"geometry":{"type":"LineString","coordinates":[[-0.372011,51.47788],[-0.3725099,51.47778]]}},{"type":"Feature","properties":{"Title":"Great West Road","Direction":"TwoWay","Flow":null,"Protection":null,"Ownership":null,"YearBuilt":null,"Borough":"Hounslow","LengthInMetres":174,"stroke":"#FFA54F","stroke-width":4},"geometry":{"type":"LineString","coordinates":[[-0.373454,51.47763],[-0.3748058,51.47749],[-0.3759109,51.47735]]}},{"type":"Feature","properties":{"Title":"Great West Road","Direction":"TwoWay","Flow":null,"Protection":null,"Ownership":null,"YearBuilt":null,"Borough":"Hounslow","LengthInMetres":97,"stroke":"#FFA54F","stroke-width":4},"geometry":{"type":"LineString","coordinates":[[-0.3760793,51.47733],[-0.3774633,51.47719]]}},{"type":"Feature","properties":{"Title":"Great West Road","Direction":"TwoWay","Flow":null,"Protection":null,"Ownership":null,"YearBuilt":null,"Borough":"Hounslow","LengthInMetres":221,"stroke":"#FFA54F","stroke-width":4},"geometry":{"type":"LineString","coordinates":[[-0.3776496,51.47717],[-0.3807717,51.47677]]}},{"type":"Feature","properties":{"Title":"Great West Road","Direction":"TwoWay","Flow":null,"Protection":null,"Ownership":null,"YearBuilt":null,"Borough":"Hounslow","LengthInMetres":109,"stroke":"#FFA54F","stroke-width":4},"geometry":{"type":"LineString","coordinates":[[-0.3810346,51.47673],[-0.3825634,51.47651]]}},{"type":"Feature","properties":{"Title":"Great West Road","Direction":"TwoWay","Flow":null,"Protection":null,"Ownership":null,"YearBuilt":null,"Borough":"Hounslow","LengthInMetres":58,"stroke":"#FFA54F","stroke-width":4},"geometry":{"type":"LineString","coordinates":[[-0.3833331,51.4764],[-0.3838588,51.47633],[-0.3841485,51.47629]]}},{"type":"Feature","properties":{"Title":"Great West Road","Direction":"TwoWay","Flow":null,"Protection":null,"Ownership":null,"YearBuilt":null,"Borough":"Hounslow","LengthInMetres":460,"stroke":"#FFA54F","stroke-width":4},"geometry":{"type":"LineString","coordinates":[[-0.384422,51.47625],[-0.3852911,51.47616],[-0.3864552,51.47602],[-0.3882254,51.47579],[-0.3905536,51.47549],[-0.390913,51.47544]]}},{"type":"Feature","properties":{"Title":"Great West Road","Direction":"TwoWay","Flow":null,"Protection":null,"Ownership":null,"YearBuilt":null,"Borough":"Hounslow","LengthInMetres":31,"stroke":"#FFA54F","stroke-width":4},"geometry":{"type":"LineString","coordinates":[[-0.3913797,51.47538],[-0.3918189,51.47533]]}},{"type":"Feature","properties":{"Title":"Great West Road","Direction":"TwoWay","Flow":null,"Protection":null,"Ownership":null,"YearBuilt":null,"Borough":"Hounslow","LengthInMetres":9,"stroke":"#FFA54F","stroke-width":4},"geometry":{"type":"LineString","coordinates":[[-0.3920656,51.4753],[-0.3921971,51.47528]]}},{"type":"Feature","properties":{"Title":"Great West Road","Direction":"TwoWay","Flow":null,"Protection":null,"Ownership":null,"YearBuilt":null,"Borough":"Hounslow","LengthInMetres":28,"stroke":"#FFA54F","stroke-width":4},"geometry":{"type":"LineString","coordinates":[[-0.3923768,51.47525],[-0.3927764,51.4752]]}},{"type":"Feature","properties":{"Title":"Great West Road","Direction":"TwoWay","Flow":null,"Protection":null,"Ownership":null,"YearBuilt":null,"Borough":"Hounslow","LengthInMetres":19,"stroke":"#FFA54F","stroke-width":4},"geometry":{"type":"LineString","coordinates":[[-0.3929615,51.47518],[-0.3932243,51.47514]]}},{"type":"Feature","properties":{"Title":"Gunnersbury Avenue","Direction":"TwoWay","Flow":null,"Protection":null,"Ownership":null,"YearBuilt":null,"Borough":"Hounslow","LengthInMetres":262,"stroke":"#FFA54F","stroke-width":4},"geometry":{"type":"LineString","coordinates":[[-0.2823459,51.49259],[-0.2824058,51.49313],[-0.282438,51.4934],[-0.2824648,51.49357],[-0.2825077,51.4938],[-0.2825265,51.49404],[-0.2825319,51.49434],[-0.2825211,51.49459],[-0.2824809,51.49482],[-0.2824648,51.49494]]}},{"type":"Feature","properties":{"Title":"Gunnersbury Avenue","Direction":"TwoWay","Flow":null,"Protection":null,"Ownership":null,"YearBuilt":null,"Borough":"Hounslow","LengthInMetres":31,"stroke":"#FFA54F","stroke-width":4},"geometry":{"type":"LineString","coordinates":[[-0.2824514,51.49505],[-0.2824227,51.49533]]}},{"type":"Feature","properties":{"Title":"Gunnersbury Avenue","Direction":"TwoWay","Flow":null,"Protection":null,"Ownership":null,"YearBuilt":null,"Borough":"Hounslow","LengthInMetres":34,"stroke":"#FFA54F","stroke-width":4},"geometry":{"type":"LineString","coordinates":[[-0.2824147,51.49539],[-0.2823419,51.49569]]}},{"type":"Feature","properties":{"Title":"Derby Road","Direction":"TwoWay","Flow":null,"Protection":null,"Ownership":null,"YearBuilt":null,"Borough":"Hounslow","LengthInMetres":10,"stroke":"#FFA54F","stroke-width":4},"geometry":{"type":"LineString","coordinates":[[-0.36567,51.46528],[-0.365594,51.4652]]}},{"type":"Feature","properties":{"Title":"Vine Place","Direction":"TwoWay","Flow":null,"Protection":null,"Ownership":null,"YearBuilt":null,"Borough":"Hounslow","LengthInMetres":16,"stroke":"#FFA54F","stroke-width":4},"geometry":{"type":"LineString","coordinates":[[-0.366504,51.46561],[-0.366308,51.46569]]}},{"type":"Feature","properties":{"Title":"Lascar Close","Direction":"TwoWay","Flow":null,"Protection":null,"Ownership":null,"YearBuilt":null,"Borough":"Hounslow","LengthInMetres":24,"stroke":"#FFA54F","stroke-width":4},"geometry":{"type":"LineString","coordinates":[[-0.376149,51.46776],[-0.376084,51.46755]]}},{"type":"Feature","properties":{"Title":"Swift Road","Direction":"TwoWay","Flow":null,"Protection":null,"Ownership":null,"YearBuilt":null,"Borough":"Hounslow","LengthInMetres":144,"stroke":"#FFA54F","stroke-width":4},"geometry":{"type":"LineString","coordinates":[[-0.383416,51.43567],[-0.383726,51.4356],[-0.383996,51.43554],[-0.384455,51.43545],[-0.384602,51.43542],[-0.384727,51.4354],[-0.385043,51.43532],[-0.385201,51.43529],[-0.385269,51.43527],[-0.385287,51.43527],[-0.385316,51.43527],[-0.38534,51.43527],[-0.385356,51.43528],[-0.385362,51.43529]]}},{"type":"Feature","properties":{"Title":"Great West Road","Direction":"OneWay","Flow":null,"Protection":null,"Ownership":null,"YearBuilt":null,"Borough":"Hounslow","LengthInMetres":45,"stroke":"#FFA54F","stroke-width":2},"geometry":{"type":"LineString","coordinates":[[-0.2919455,51.49147],[-0.2922673,51.49142],[-0.2923424,51.49144],[-0.29238,51.4915],[-0.2924068,51.49158]]}},{"type":"Feature","properties":{"Title":"Great West Road","Direction":"TwoWay","Flow":null,"Protection":null,"Ownership":null,"YearBuilt":null,"Borough":"Hounslow","LengthInMetres":438,"stroke":"#FFA54F","stroke-width":4},"geometry":{"type":"LineString","coordinates":[[-0.2926911,51.49156],[-0.2935602,51.49156],[-0.294279,51.4916],[-0.2948208,51.49165],[-0.2953304,51.49166],[-0.2972267,51.49169],[-0.2989836,51.49162]]}},{"type":"Feature","properties":{"Title":"Occupation Lane","Direction":"TwoWay","Flow":null,"Protection":null,"Ownership":null,"YearBuilt":null,"Borough":"Hounslow","LengthInMetres":6,"stroke":"#FFA54F","stroke-width":4},"geometry":{"type":"LineString","coordinates":[[-0.3014565,51.49521],[-0.3014856,51.49526]]}},{"type":"Feature","properties":{"Title":"Hounslow Road","Direction":"OneWay","Flow":null,"Protection":null,"Ownership":null,"YearBuilt":null,"Borough":"Hounslow","LengthInMetres":17,"stroke":"#FFA54F","stroke-width":2},"geometry":{"type":"LineString","coordinates":[[-0.3915472,51.4356],[-0.3916289,51.43552],[-0.3916691,51.43547]]}},{"type":"Feature","properties":{"Title":"Hounslow Road","Direction":"TwoWay","Flow":null,"Protection":null,"Ownership":null,"YearBuilt":null,"Borough":"Hounslow","LengthInMetres":71,"stroke":"#FFA54F","stroke-width":4},"geometry":{"type":"LineString","coordinates":[[-0.3918141,51.4352],[-0.3918711,51.43497],[-0.3919998,51.43457]]}},{"type":"Feature","properties":{"Title":"Hounslow Road","Direction":"TwoWay","Flow":null,"Protection":null,"Ownership":null,"YearBuilt":null,"Borough":"Hounslow","LengthInMetres":13,"stroke":"#FFA54F","stroke-width":4},"geometry":{"type":"LineString","coordinates":[[-0.3919998,51.43457],[-0.3920749,51.43446]]}},{"type":"Feature","properties":{"Title":"Hounslow Road","Direction":"TwoWay","Flow":null,"Protection":null,"Ownership":null,"YearBuilt":null,"Borough":"Hounslow","LengthInMetres":13,"stroke":"#FFA54F","stroke-width":4},"geometry":{"type":"LineString","coordinates":[[-0.3919998,51.43457],[-0.3919837,51.43445]]}},{"type":"Feature","properties":{"Title":"Hounslow Road","Direction":"OneWay","Flow":null,"Protection":null,"Ownership":null,"YearBuilt":null,"Borough":"Hounslow","LengthInMetres":68,"stroke":"#FFA54F","stroke-width":2},"geometry":{"type":"LineString","coordinates":[[-0.3921696,51.43426],[-0.3923761,51.43381],[-0.3923788,51.43375],[-0.3923788,51.43367]]}},{"type":"Feature","properties":{"Title":"Hounslow Road","Direction":"TwoWay","Flow":null,"Protection":null,"Ownership":null,"YearBuilt":null,"Borough":"Hounslow","LengthInMetres":90,"stroke":"#FFA54F","stroke-width":4},"geometry":{"type":"LineString","coordinates":[[-0.3923788,51.43367],[-0.3923989,51.43356],[-0.3924016,51.43346],[-0.392407,51.43326],[-0.3923748,51.4331],[-0.3923131,51.43297],[-0.392238,51.43288]]}},{"type":"Feature","properties":{"Title":"Dan Mason Drive","Direction":"TwoWay","Flow":null,"Protection":null,"Ownership":null,"YearBuilt":null,"Borough":"Hounslow","LengthInMetres":206,"stroke":"#FFA54F","stroke-width":4},"geometry":{"type":"LineString","coordinates":[[-0.2574946,51.47499],[-0.2577212,51.47483],[-0.2577453,51.4748],[-0.2577252,51.47477],[-0.2576662,51.47473],[-0.25752,51.47464],[-0.25717,51.47442],[-0.256706,51.47411],[-0.2563117,51.47387],[-0.2559872,51.47363]]}},{"type":"Feature","properties":{"Title":"Twickenham Road (LB Hounslow)","Direction":"OneWay","Flow":null,"Protection":null,"Ownership":null,"YearBuilt":null,"Borough":"Hounslow","LengthInMetres":69,"stroke":"#FFA54F","stroke-width":2},"geometry":{"type":"LineString","coordinates":[[-0.3240478,51.47692],[-0.3234899,51.47743]]}},{"type":"Feature","properties":{"Title":"Twickenham Road (LB Hounslow)","Direction":"OneWay","Flow":null,"Protection":null,"Ownership":null,"YearBuilt":null,"Borough":"Hounslow","LengthInMetres":288,"stroke":"#FFA54F","stroke-width":2},"geometry":{"type":"LineString","coordinates":[[-0.3240478,51.47692],[-0.3251636,51.47603],[-0.3266012,51.47488]]}},{"type":"Feature","properties":{"Title":"Twickenham Road (LB Hounslow)","Direction":"TwoWay","Flow":null,"Protection":null,"Ownership":null,"YearBuilt":null,"Borough":"Hounslow","LengthInMetres":266,"stroke":"#FFA54F","stroke-width":4},"geometry":{"type":"LineString","coordinates":[[-0.3266012,51.47488],[-0.327047,51.47449],[-0.3273689,51.47413],[-0.3276049,51.47382],[-0.327798,51.47321],[-0.3279912,51.47269]]}},{"type":"Feature","properties":{"Title":"Bath Road","Direction":"TwoWay","Flow":null,"Protection":null,"Ownership":null,"YearBuilt":null,"Borough":"Hounslow","LengthInMetres":510,"stroke":"#FFA54F","stroke-width":4},"geometry":{"type":"LineString","coordinates":[[-0.393725,51.47506],[-0.391407,51.47449],[-0.389133,51.47387],[-0.387008,51.47322]]}},{"type":"Feature","properties":{"Title":"London Road - LB Hounslow","Direction":"OneWay","Flow":null,"Protection":null,"Ownership":null,"YearBuilt":null,"Borough":"Hounslow","LengthInMetres":96,"stroke":"#FFA54F","stroke-width":2},"geometry":{"type":"LineString","coordinates":[[-0.3321687,51.47593],[-0.3334132,51.47555]]}},{"type":"Feature","properties":{"Title":"London Road - LB Hounslow","Direction":"OneWay","Flow":null,"Protection":null,"Ownership":null,"YearBuilt":null,"Borough":"Hounslow","LengthInMetres":35,"stroke":"#FFA54F","stroke-width":2},"geometry":{"type":"LineString","coordinates":[[-0.3335581,51.47551],[-0.3337887,51.47545],[-0.3340194,51.47539]]}},{"type":"Feature","properties":{"Title":"C9","Direction":"TwoWay","Flow":null,"Protection":null,"Ownership":null,"YearBuilt":null,"Borough":"Hounslow","LengthInMetres":338,"stroke":"#FFA54F","stroke-width":4},"geometry":{"type":"LineString","coordinates":[[-0.292804,51.48767],[-0.2926894,51.4877],[-0.2925875,51.48774],[-0.2924024,51.48782],[-0.2919893,51.48799],[-0.2918043,51.48807],[-0.2914744,51.48817],[-0.2910425,51.4883],[-0.290887,51.48833],[-0.2907958,51.48836],[-0.2905678,51.48841],[-0.2902969,51.48848],[-0.2894493,51.48863],[-0.2892293,51.48867],[-0.2888646,51.48871],[-0.2885454,51.48875],[-0.2883248,51.48876]]}}]}