{"type":"FeatureCollection","features":[{"type":"Feature","properties":{"Title":"C38","Direction":"OneWay","Flow":null,"Protection":null,"Ownership":null,"YearBuilt":null,"Borough":"Islington","LengthInMetres":24,"stroke":"#9C27B0","stroke-width":2},"geometry":{"type":"LineString","coordinates":[[-0.1084379,51.54619],[-0.1085734,51.54639]]}},{"type":"Feature","properties":{"Title":"C38","Direction":"OneWay","Flow":null,"Protection":null,"Ownership":null,"YearBuilt":null,"Borough":"Islington","LengthInMetres":30,"stroke":"#9C27B0","stroke-width":2},"geometry":{"type":"LineString","coordinates":[[-0.1085734,51.54639],[-0.1087429,51.54664]]}},{"type":"Feature","properties":{"Title":"C38","Direction":"OneWay","Flow":null,"Protection":null,"Ownership":null,"YearBuilt":null,"Borough":"Islington","LengthInMetres":6,"stroke":"#9C27B0","stroke-width":2},"geometry":{"type":"LineString","coordinates":[[-0.1089125,51.5469],[-0.1089465,51.54695]]}},{"type":"Feature","properties":{"Title":"C38","Direction":"TwoWay","Flow":null,"Protection":null,"Ownership":null,"YearBuilt":null,"Borough":"Islington","LengthInMetres":67,"stroke":"#9C27B0","stroke-width":4},"geometry":{"type":"LineString","coordinates":[[-0.1076024,51.54485],[-0.107933,51.54542]]}},{"type":"Feature","properties":{"Title":"C38","Direction":"TwoWay","Flow":null,"Protection":null,"Ownership":null,"YearBuilt":null,"Borough":"Islington","LengthInMetres":93,"stroke":"#9C27B0","stroke-width":4},"geometry":{"type":"LineString","coordinates":[[-0.107933,51.54542],[-0.1079676,51.54548],[-0.1084379,51.54619]]}},{"type":"Feature","properties":{"Title":"C38","Direction":"OneWay","Flow":null,"Protection":null,"Ownership":null,"YearBuilt":null,"Borough":"Islington","LengthInMetres":26,"stroke":"#9C27B0","stroke-width":2},"geometry":{"type":"LineString","coordinates":[[-0.1089465,51.54695],[-0.1090405,51.54709],[-0.1090946,51.54716]]}},{"type":"Feature","properties":{"Title":"C38","Direction":"OneWay","Flow":null,"Protection":null,"Ownership":null,"YearBuilt":null,"Borough":"Islington","LengthInMetres":12,"stroke":"#9C27B0","stroke-width":2},"geometry":{"type":"LineString","coordinates":[[-0.1090946,51.54716],[-0.1091717,51.54726]]}},{"type":"Feature","properties":{"Title":"C38","Direction":"OneWay","Flow":null,"Protection":null,"Ownership":null,"YearBuilt":null,"Borough":"Islington","LengthInMetres":27,"stroke":"#9C27B0","stroke-width":2},"geometry":{"type":"LineString","coordinates":[[-0.1096506,51.54791],[-0.109813,51.54813]]}},{"type":"Feature","properties":{"Title":"Percival St","Direction":"TwoWay","Flow":null,"Protection":null,"Ownership":null,"YearBuilt":null,"Borough":"Islington","LengthInMetres":35,"stroke":"#9C27B0","stroke-width":4},"geometry":{"type":"LineString","coordinates":[[-0.1073243,51.52625],[-0.1072114,51.52625],[-0.1068601,51.52621],[-0.1068284,51.5262]]}},{"type":"Feature","properties":{"Title":"Percival St","Direction":"TwoWay","Flow":null,"Protection":null,"Ownership":null,"YearBuilt":null,"Borough":"Islington","LengthInMetres":38,"stroke":"#9C27B0","stroke-width":4},"geometry":{"type":"LineString","coordinates":[[-0.1068284,51.5262],[-0.1067125,51.52617],[-0.1063695,51.52601]]}},{"type":"Feature","properties":{"Title":"Percival St","Direction":"TwoWay","Flow":null,"Protection":null,"Ownership":null,"YearBuilt":null,"Borough":"Islington","LengthInMetres":15,"stroke":"#9C27B0","stroke-width":4},"geometry":{"type":"LineString","coordinates":[[-0.1063695,51.52601],[-0.1061969,51.52593]]}},{"type":"Feature","properties":{"Title":"Percival St","Direction":"TwoWay","Flow":null,"Protection":null,"Ownership":null,"YearBuilt":null,"Borough":"Islington","LengthInMetres":109,"stroke":"#9C27B0","stroke-width":4},"geometry":{"type":"LineString","coordinates":[[-0.1061969,51.52593],[-0.1059508,51.52581],[-0.1056557,51.52571],[-0.1053124,51.52566],[-0.1047786,51.5257],[-0.1047469,51.52571]]}},{"type":"Feature","properties":{"Title":"Percival St","Direction":"TwoWay","Flow":null,"Protection":null,"Ownership":null,"YearBuilt":null,"Borough":"Islington","LengthInMetres":35,"stroke":"#9C27B0","stroke-width":4},"geometry":{"type":"LineString","coordinates":[[-0.1047469,51.52571],[-0.1042663,51.5258]]}},{"type":"Feature","properties":{"Title":"C38","Direction":"TwoWay","Flow":null,"Protection":null,"Ownership":null,"YearBuilt":null,"Borough":"Islington","LengthInMetres":37,"stroke":"#9C27B0","stroke-width":4},"geometry":{"type":"LineString","coordinates":[[-0.1070962,51.53597],[-0.1070558,51.5363]]}},{"type":"Feature","properties":{"Title":"C38","Direction":"TwoWay","Flow":null,"Protection":null,"Ownership":null,"YearBuilt":null,"Borough":"Islington","LengthInMetres":159,"stroke":"#9C27B0","stroke-width":4},"geometry":{"type":"LineString","coordinates":[[-0.1070558,51.5363],[-0.1070557,51.5363],[-0.1069484,51.53765],[-0.1069408,51.53773]]}},{"type":"Feature","properties":{"Title":"C38","Direction":"TwoWay","Flow":null,"Protection":null,"Ownership":null,"YearBuilt":null,"Borough":"Islington","LengthInMetres":132,"stroke":"#9C27B0","stroke-width":4},"geometry":{"type":"LineString","coordinates":[[-0.1069408,51.53773],[-0.1068411,51.53872],[-0.1068304,51.53891]]}},{"type":"Feature","properties":{"Title":"York Way (LB Camden/Islington)","Direction":"TwoWay","Flow":null,"Protection":null,"Ownership":null,"YearBuilt":null,"Borough":"Islington","LengthInMetres":55,"stroke":"#9C27B0","stroke-width":4},"geometry":{"type":"LineString","coordinates":[[-0.1223073,51.53516],[-0.1223019,51.53565]]}},{"type":"Feature","properties":{"Title":"York Way (LB Camden/Islington)","Direction":"TwoWay","Flow":null,"Protection":null,"Ownership":null,"YearBuilt":null,"Borough":"Islington","LengthInMetres":6,"stroke":"#9C27B0","stroke-width":4},"geometry":{"type":"LineString","coordinates":[[-0.1223019,51.53565],[-0.1223014,51.5357]]}},{"type":"Feature","properties":{"Title":"York Way (LB Camden/Islington)","Direction":"TwoWay","Flow":null,"Protection":null,"Ownership":null,"YearBuilt":null,"Borough":"Islington","LengthInMetres":20,"stroke":"#9C27B0","stroke-width":4},"geometry":{"type":"LineString","coordinates":[[-0.1223621,51.53362],[-0.1223552,51.5338]]}},{"type":"Feature","properties":{"Title":"York Way (LB Camden/Islington)","Direction":"TwoWay","Flow":null,"Protection":null,"Ownership":null,"YearBuilt":null,"Borough":"Islington","LengthInMetres":106,"stroke":"#9C27B0","stroke-width":4},"geometry":{"type":"LineString","coordinates":[[-0.1223552,51.5338],[-0.1223196,51.53475]]}},{"type":"Feature","properties":{"Title":"York Way (LB Camden/Islington)","Direction":"TwoWay","Flow":null,"Protection":null,"Ownership":null,"YearBuilt":null,"Borough":"Islington","LengthInMetres":85,"stroke":"#9C27B0","stroke-width":4},"geometry":{"type":"LineString","coordinates":[[-0.1223014,51.5357],[-0.1222978,51.53603],[-0.1223648,51.53646]]}},{"type":"Feature","properties":{"Title":"C38","Direction":"TwoWay","Flow":null,"Protection":null,"Ownership":null,"YearBuilt":null,"Borough":"Islington","LengthInMetres":44,"stroke":"#9C27B0","stroke-width":4},"geometry":{"type":"LineString","coordinates":[[-0.1066694,51.5429],[-0.1066802,51.54292],[-0.1068315,51.54328]]}},{"type":"Feature","properties":{"Title":"C38","Direction":"TwoWay","Flow":null,"Protection":null,"Ownership":null,"YearBuilt":null,"Borough":"Islington","LengthInMetres":47,"stroke":"#9C27B0","stroke-width":4},"geometry":{"type":"LineString","coordinates":[[-0.1072116,51.54417],[-0.1074396,51.54457]]}},{"type":"Feature","properties":{"Title":"C38","Direction":"TwoWay","Flow":null,"Protection":null,"Ownership":null,"YearBuilt":null,"Borough":"Islington","LengthInMetres":64,"stroke":"#9C27B0","stroke-width":4},"geometry":{"type":"LineString","coordinates":[[-0.1064666,51.54234],[-0.1065923,51.54273],[-0.1066694,51.5429]]}},{"type":"Feature","properties":{"Title":"C38","Direction":"TwoWay","Flow":null,"Protection":null,"Ownership":null,"YearBuilt":null,"Borough":"Islington","LengthInMetres":33,"stroke":"#9C27B0","stroke-width":4},"geometry":{"type":"LineString","coordinates":[[-0.1074396,51.54457],[-0.1076024,51.54485]]}},{"type":"Feature","properties":{"Title":"York Way (LB Camden/Islington)","Direction":"TwoWay","Flow":null,"Protection":null,"Ownership":null,"YearBuilt":null,"Borough":"Islington","LengthInMetres":194,"stroke":"#9C27B0","stroke-width":4},"geometry":{"type":"LineString","coordinates":[[-0.1268563,51.54685],[-0.1266537,51.54613],[-0.1264606,51.54545],[-0.1263744,51.54513]]}},{"type":"Feature","properties":{"Title":"York Way (LB Camden/Islington)","Direction":"OneWay","Flow":null,"Protection":null,"Ownership":null,"YearBuilt":null,"Borough":"Islington","LengthInMetres":197,"stroke":"#9C27B0","stroke-width":2},"geometry":{"type":"LineString","coordinates":[[-0.1259979,51.54332],[-0.1258169,51.54265],[-0.1256023,51.54209],[-0.1253674,51.5416]]}},{"type":"Feature","properties":{"Title":"York Way (LB Camden/Islington)","Direction":"TwoWay","Flow":null,"Protection":null,"Ownership":null,"YearBuilt":null,"Borough":"Islington","LengthInMetres":6,"stroke":"#9C27B0","stroke-width":4},"geometry":{"type":"LineString","coordinates":[[-0.1253674,51.5416],[-0.1253448,51.54155],[-0.1253409,51.54155]]}},{"type":"Feature","properties":{"Title":"C38","Direction":"TwoWay","Flow":null,"Protection":null,"Ownership":null,"YearBuilt":null,"Borough":"Islington","LengthInMetres":168,"stroke":"#9C27B0","stroke-width":4},"geometry":{"type":"LineString","coordinates":[[-0.1061115,51.54085],[-0.1060854,51.54101],[-0.1061018,51.54117],[-0.1061744,51.54148],[-0.1063006,51.54183],[-0.1064666,51.54234]]}},{"type":"Feature","properties":{"Title":"C50 - Eastbound","Direction":"OneWay","Flow":null,"Protection":null,"Ownership":null,"YearBuilt":null,"Borough":"Islington","LengthInMetres":7,"stroke":"#9C27B0","stroke-width":2},"geometry":{"type":"LineString","coordinates":[[-0.1091322,51.56264],[-0.1090477,51.56267]]}},{"type":"Feature","properties":{"Title":"C50 - Eastbound","Direction":"OneWay","Flow":null,"Protection":null,"Ownership":null,"YearBuilt":null,"Borough":"Islington","LengthInMetres":29,"stroke":"#9C27B0","stroke-width":2},"geometry":{"type":"LineString","coordinates":[[-0.1090477,51.56267],[-0.1086892,51.5628]]}},{"type":"Feature","properties":{"Title":"C50 - Eastbound","Direction":"OneWay","Flow":null,"Protection":null,"Ownership":null,"YearBuilt":null,"Borough":"Islington","LengthInMetres":29,"stroke":"#9C27B0","stroke-width":2},"geometry":{"type":"LineString","coordinates":[[-0.1086892,51.5628],[-0.1085207,51.56286],[-0.1083308,51.56293]]}},{"type":"Feature","properties":{"Title":"C1","Direction":"TwoWay","Flow":null,"Protection":null,"Ownership":null,"YearBuilt":null,"Borough":"Islington","LengthInMetres":27,"stroke":"#9C27B0","stroke-width":4},"geometry":{"type":"LineString","coordinates":[[-0.0788524,51.54827],[-0.0787907,51.54851]]}},{"type":"Feature","properties":{"Title":"C1","Direction":"TwoWay","Flow":null,"Protection":null,"Ownership":null,"YearBuilt":null,"Borough":"Islington","LengthInMetres":44,"stroke":"#9C27B0","stroke-width":4},"geometry":{"type":"LineString","coordinates":[[-0.0807005,51.54642],[-0.0800696,51.54637]]}},{"type":"Feature","properties":{"Title":"C6 - North-South Cycle Superhighway","Direction":"TwoWay","Flow":null,"Protection":null,"Ownership":null,"YearBuilt":null,"Borough":"Islington","LengthInMetres":137,"stroke":"#9C27B0","stroke-width":4},"geometry":{"type":"LineString","coordinates":[[-0.1056626,51.51976],[-0.1054051,51.51896],[-0.1053139,51.51861],[-0.1053111,51.51855]]}},{"type":"Feature","properties":{"Title":"C6 - North-South Cycle Superhighway","Direction":"OneWay","Flow":null,"Protection":null,"Ownership":null,"YearBuilt":null,"Borough":"Islington","LengthInMetres":3,"stroke":"#9C27B0","stroke-width":2},"geometry":{"type":"LineString","coordinates":[[-0.1056636,51.51976],[-0.1057023,51.51975]]}},{"type":"Feature","properties":{"Title":"C6 - East-West Cycle Superhighway","Direction":"OneWay","Flow":null,"Protection":null,"Ownership":null,"YearBuilt":null,"Borough":"Islington","LengthInMetres":325,"stroke":"#9C27B0","stroke-width":2},"geometry":{"type":"LineString","coordinates":[[-0.1079103,51.52313],[-0.1075723,51.52281],[-0.1072558,51.52251],[-0.1069983,51.52224],[-0.1067408,51.52192],[-0.1065102,51.52162],[-0.1063063,51.52131],[-0.1061615,51.52105],[-0.1060005,51.52072],[-0.105912,51.52051]]}},{"type":"Feature","properties":{"Title":"C6 - North-South Cycle Superhighway","Direction":"OneWay","Flow":null,"Protection":null,"Ownership":null,"YearBuilt":null,"Borough":"Islington","LengthInMetres":74,"stroke":"#9C27B0","stroke-width":2},"geometry":{"type":"LineString","coordinates":[[-0.1089603,51.52303],[-0.1088356,51.52305],[-0.1081811,51.52309],[-0.1079103,51.52313]]}},{"type":"Feature","properties":{"Title":"C11","Direction":"OneWay","Flow":null,"Protection":null,"Ownership":null,"YearBuilt":null,"Borough":"Islington","LengthInMetres":83,"stroke":"#9C27B0","stroke-width":2},"geometry":{"type":"LineString","coordinates":[[-0.0904501,51.52455],[-0.0905086,51.52471],[-0.0906159,51.52498],[-0.0907017,51.52521],[-0.0907231,51.52528]]}},{"type":"Feature","properties":{"Title":"C13","Direction":"TwoWay","Flow":null,"Protection":null,"Ownership":null,"YearBuilt":null,"Borough":"Islington","LengthInMetres":4,"stroke":"#9C27B0","stroke-width":4},"geometry":{"type":"LineString","coordinates":[[-0.0904234,51.52455],[-0.0903644,51.52455]]}},{"type":"Feature","properties":{"Title":"C13","Direction":"OneWay","Flow":null,"Protection":null,"Ownership":null,"YearBuilt":null,"Borough":"Islington","LengthInMetres":16,"stroke":"#9C27B0","stroke-width":2},"geometry":{"type":"LineString","coordinates":[[-0.0892076,51.52459],[-0.0889823,51.5246]]}},{"type":"Feature","properties":{"Title":"C13","Direction":"OneWay","Flow":null,"Protection":null,"Ownership":null,"YearBuilt":null,"Borough":"Islington","LengthInMetres":18,"stroke":"#9C27B0","stroke-width":2},"geometry":{"type":"LineString","coordinates":[[-0.0887698,51.52461],[-0.0885123,51.52462]]}},{"type":"Feature","properties":{"Title":"C13","Direction":"TwoWay","Flow":null,"Protection":null,"Ownership":null,"YearBuilt":null,"Borough":"Islington","LengthInMetres":55,"stroke":"#9C27B0","stroke-width":4},"geometry":{"type":"LineString","coordinates":[[-0.0884184,51.52462],[-0.0881596,51.52463],[-0.0878672,51.52465],[-0.0876232,51.52466]]}},{"type":"Feature","properties":{"Title":"C27","Direction":"OneWay","Flow":null,"Protection":null,"Ownership":null,"YearBuilt":null,"Borough":"Islington","LengthInMetres":271,"stroke":"#9C27B0","stroke-width":2},"geometry":{"type":"LineString","coordinates":[[-0.1128436,51.5264],[-0.1125981,51.5265],[-0.1122508,51.52668],[-0.1116433,51.52699],[-0.1111873,51.52722],[-0.1107018,51.52747],[-0.1104624,51.52762],[-0.110161,51.52781],[-0.1098905,51.52799]]}},{"type":"Feature","properties":{"Title":"C27","Direction":"TwoWay","Flow":null,"Protection":null,"Ownership":null,"YearBuilt":null,"Borough":"Islington","LengthInMetres":21,"stroke":"#9C27B0","stroke-width":4},"geometry":{"type":"LineString","coordinates":[[-0.1065386,51.53045],[-0.1063739,51.53048],[-0.1062465,51.5305]]}},{"type":"Feature","properties":{"Title":"C27","Direction":"OneWay","Flow":null,"Protection":null,"Ownership":null,"YearBuilt":null,"Borough":"Islington","LengthInMetres":13,"stroke":"#9C27B0","stroke-width":2},"geometry":{"type":"LineString","coordinates":[[-0.1059501,51.53053],[-0.1058494,51.53056],[-0.1058078,51.53057],[-0.1057877,51.53059]]}},{"type":"Feature","properties":{"Title":"C27","Direction":"TwoWay","Flow":null,"Protection":null,"Ownership":null,"YearBuilt":null,"Borough":"Islington","LengthInMetres":30,"stroke":"#9C27B0","stroke-width":4},"geometry":{"type":"LineString","coordinates":[[-0.1057635,51.53074],[-0.1056965,51.53076],[-0.1055651,51.5308],[-0.1054537,51.53083],[-0.1053813,51.53086]]}},{"type":"Feature","properties":{"Title":"C27","Direction":"TwoWay","Flow":null,"Protection":null,"Ownership":null,"YearBuilt":null,"Borough":"Islington","LengthInMetres":66,"stroke":"#9C27B0","stroke-width":4},"geometry":{"type":"LineString","coordinates":[[-0.1045914,51.53115],[-0.1045203,51.53123],[-0.1044774,51.53129],[-0.104405,51.53141],[-0.1042843,51.53159],[-0.1042058,51.53169]]}},{"type":"Feature","properties":{"Title":"C27","Direction":"TwoWay","Flow":null,"Protection":null,"Ownership":null,"YearBuilt":null,"Borough":"Islington","LengthInMetres":23,"stroke":"#9C27B0","stroke-width":4},"geometry":{"type":"LineString","coordinates":[[-0.1030358,51.53303],[-0.1029587,51.53323]]}},{"type":"Feature","properties":{"Title":"C27","Direction":"TwoWay","Flow":null,"Protection":null,"Ownership":null,"YearBuilt":null,"Borough":"Islington","LengthInMetres":61,"stroke":"#9C27B0","stroke-width":4},"geometry":{"type":"LineString","coordinates":[[-0.095471,51.53691],[-0.0954243,51.53729],[-0.0953492,51.53745]]}},{"type":"Feature","properties":{"Title":"C27","Direction":"OneWay","Flow":null,"Protection":null,"Ownership":null,"YearBuilt":null,"Borough":"Islington","LengthInMetres":33,"stroke":"#9C27B0","stroke-width":2},"geometry":{"type":"LineString","coordinates":[[-0.0944311,51.53983],[-0.0940751,51.54003]]}},{"type":"Feature","properties":{"Title":"C38","Direction":"OneWay","Flow":null,"Protection":null,"Ownership":null,"YearBuilt":null,"Borough":"Islington","LengthInMetres":237,"stroke":"#9C27B0","stroke-width":2},"geometry":{"type":"LineString","coordinates":[[-0.1049998,51.5535],[-0.1051124,51.55385],[-0.1052385,51.55427],[-0.1053968,51.55476],[-0.1054906,51.55505],[-0.1055336,51.55524],[-0.105547,51.55529],[-0.105547,51.55535],[-0.1055523,51.55538],[-0.1056022,51.5555],[-0.1056534,51.55559]]}},{"type":"Feature","properties":{"Title":"C38","Direction":"TwoWay","Flow":null,"Protection":null,"Ownership":null,"YearBuilt":null,"Borough":"Islington","LengthInMetres":429,"stroke":"#9C27B0","stroke-width":4},"geometry":{"type":"LineString","coordinates":[[-0.1088297,51.55102],[-0.1088112,51.55105],[-0.1087227,51.55114],[-0.10861,51.55121],[-0.1084706,51.55133],[-0.1083418,51.55144],[-0.1082748,51.55149],[-0.1082131,51.55152],[-0.1080548,51.55159],[-0.1079314,51.55164],[-0.1077732,51.55168],[-0.1072689,51.55178],[-0.1065045,51.55191],[-0.1060915,51.552],[-0.1059466,51.55204],[-0.1057884,51.55211],[-0.1055121,51.55226],[-0.1053378,51.55238],[-0.105158,51.55254],[-0.1050776,51.55263],[-0.1049891,51.55278],[-0.1049301,51.55293],[-0.1049032,51.55303],[-0.1049006,51.55309],[-0.1048898,51.55314],[-0.1048952,51.55322],[-0.1049113,51.55328],[-0.1049461,51.55334],[-0.1049998,51.5535]]}},{"type":"Feature","properties":{"Title":"C38 - /LCN 7","Direction":"TwoWay","Flow":null,"Protection":null,"Ownership":null,"YearBuilt":null,"Borough":"Islington","LengthInMetres":56,"stroke":"#9C27B0","stroke-width":4},"geometry":{"type":"LineString","coordinates":[[-0.1079539,51.54896],[-0.107632,51.54928],[-0.1074496,51.54934]]}},{"type":"Feature","properties":{"Title":"C38","Direction":"TwoWay","Flow":null,"Protection":null,"Ownership":null,"YearBuilt":null,"Borough":"Islington","LengthInMetres":155,"stroke":"#9C27B0","stroke-width":4},"geometry":{"type":"LineString","coordinates":[[-0.1113579,51.53261],[-0.1114223,51.53302],[-0.1114759,51.53335],[-0.1115296,51.53386],[-0.1115296,51.534]]}},{"type":"Feature","properties":{"Title":"C-Link","Direction":"TwoWay","Flow":null,"Protection":null,"Ownership":null,"YearBuilt":null,"Borough":"Islington","LengthInMetres":159,"stroke":"#9C27B0","stroke-width":4},"geometry":{"type":"LineString","coordinates":[[-0.085214,51.52035],[-0.0858376,51.52041],[-0.0860898,51.52042],[-0.0870313,51.5205],[-0.0872486,51.52052],[-0.0874846,51.52053]]}},{"type":"Feature","properties":{"Title":"King's Cross","Direction":"TwoWay","Flow":null,"Protection":null,"Ownership":null,"YearBuilt":null,"Borough":"Islington","LengthInMetres":10,"stroke":"#9C27B0","stroke-width":4},"geometry":{"type":"LineString","coordinates":[[-0.1224601,51.53074],[-0.1225281,51.53082]]}},{"type":"Feature","properties":{"Title":"Hornsey Road","Direction":"TwoWay","Flow":null,"Protection":null,"Ownership":null,"YearBuilt":null,"Borough":"Islington","LengthInMetres":117,"stroke":"#9C27B0","stroke-width":4},"geometry":{"type":"LineString","coordinates":[[-0.1106502,51.55441],[-0.1111759,51.55541]]}},{"type":"Feature","properties":{"Title":"LCN 6","Direction":"TwoWay","Flow":null,"Protection":null,"Ownership":null,"YearBuilt":null,"Borough":"Islington","LengthInMetres":21,"stroke":"#9C27B0","stroke-width":4},"geometry":{"type":"LineString","coordinates":[[-0.1277744,51.54815],[-0.1275795,51.5483]]}},{"type":"Feature","properties":{"Title":"Whittington Park / LCN 6","Direction":"TwoWay","Flow":null,"Protection":null,"Ownership":null,"YearBuilt":null,"Borough":"Islington","LengthInMetres":283,"stroke":"#9C27B0","stroke-width":4},"geometry":{"type":"LineString","coordinates":[[-0.127376,51.56327],[-0.1274994,51.56316],[-0.1275101,51.56299],[-0.1275262,51.56291],[-0.1281378,51.56247],[-0.128862,51.56193],[-0.1289693,51.56184],[-0.1289585,51.56176],[-0.1287547,51.56147],[-0.1287386,51.56138],[-0.1287761,51.56126],[-0.128921,51.56114]]}},{"type":"Feature","properties":{"Title":"Highbury & Islington - Safer Junctions","Direction":"TwoWay","Flow":null,"Protection":null,"Ownership":null,"YearBuilt":null,"Borough":"Islington","LengthInMetres":106,"stroke":"#9C27B0","stroke-width":4},"geometry":{"type":"LineString","coordinates":[[-0.1036285,51.54645],[-0.1033602,51.54631],[-0.1032154,51.54625],[-0.1031135,51.54621],[-0.1028975,51.54616],[-0.1025958,51.54612],[-0.1022605,51.54607]]}},{"type":"Feature","properties":{"Title":"Highbury & Islington - Safer Junctions","Direction":"TwoWay","Flow":null,"Protection":null,"Ownership":null,"YearBuilt":null,"Borough":"Islington","LengthInMetres":16,"stroke":"#9C27B0","stroke-width":4},"geometry":{"type":"LineString","coordinates":[[-0.1022605,51.54607],[-0.1020755,51.54615]]}},{"type":"Feature","properties":{"Title":"Highbury & Islington - Safer Junctions","Direction":"TwoWay","Flow":null,"Protection":null,"Ownership":null,"YearBuilt":null,"Borough":"Islington","LengthInMetres":22,"stroke":"#9C27B0","stroke-width":4},"geometry":{"type":"LineString","coordinates":[[-0.1020755,51.54615],[-0.1017617,51.54617]]}},{"type":"Feature","properties":{"Title":"Highbury & Islington - Safer Junctions","Direction":"TwoWay","Flow":null,"Protection":null,"Ownership":null,"YearBuilt":null,"Borough":"Islington","LengthInMetres":58,"stroke":"#9C27B0","stroke-width":4},"geometry":{"type":"LineString","coordinates":[[-0.1022605,51.54607],[-0.102235,51.54595],[-0.102231,51.54577],[-0.1022444,51.54555]]}},{"type":"Feature","properties":{"Title":"Highbury & Islington - Safer Junctions","Direction":"TwoWay","Flow":null,"Protection":null,"Ownership":null,"YearBuilt":null,"Borough":"Islington","LengthInMetres":41,"stroke":"#9C27B0","stroke-width":4},"geometry":{"type":"LineString","coordinates":[[-0.1022444,51.54555],[-0.1019763,51.54522]]}},{"type":"Feature","properties":{"Title":"Highbury & Islington - Safer Junctions","Direction":"TwoWay","Flow":null,"Protection":null,"Ownership":null,"YearBuilt":null,"Borough":"Islington","LengthInMetres":100,"stroke":"#9C27B0","stroke-width":4},"geometry":{"type":"LineString","coordinates":[[-0.1022444,51.54555],[-0.1030491,51.54556],[-0.1031724,51.54548],[-0.1032207,51.54536],[-0.1032637,51.5452]]}},{"type":"Feature","properties":{"Title":"Old St Roundabout - Safer Junctions","Direction":"TwoWay","Flow":null,"Protection":null,"Ownership":null,"YearBuilt":null,"Borough":"Islington","LengthInMetres":136,"stroke":"#9C27B0","stroke-width":4},"geometry":{"type":"LineString","coordinates":[[-0.0883634,51.52556],[-0.08824,51.52558],[-0.0880925,51.52558],[-0.088004,51.52553],[-0.0875842,51.52536],[-0.0874676,51.52535],[-0.087371,51.52536],[-0.0873066,51.52538],[-0.0872409,51.52542],[-0.0871242,51.52554],[-0.0869472,51.52572],[-0.0869244,51.52577],[-0.086923,51.52579]]}},{"type":"Feature","properties":{"Title":"Old St Roundabout - Safer Junctions","Direction":"TwoWay","Flow":null,"Protection":null,"Ownership":null,"YearBuilt":null,"Borough":"Islington","LengthInMetres":4,"stroke":"#9C27B0","stroke-width":4},"geometry":{"type":"LineString","coordinates":[[-0.086923,51.52579],[-0.0868726,51.52581]]}},{"type":"Feature","properties":{"Title":"Old St Roundabout - Safer Junctions","Direction":"TwoWay","Flow":null,"Protection":null,"Ownership":null,"YearBuilt":null,"Borough":"Islington","LengthInMetres":14,"stroke":"#9C27B0","stroke-width":4},"geometry":{"type":"LineString","coordinates":[[-0.086923,51.52579],[-0.087084,51.52586]]}},{"type":"Feature","properties":{"Title":"Archway Road","Direction":"OneWay","Flow":null,"Protection":null,"Ownership":null,"YearBuilt":null,"Borough":"Islington","LengthInMetres":103,"stroke":"#9C27B0","stroke-width":2},"geometry":{"type":"LineString","coordinates":[[-0.1361275,51.56789],[-0.1364869,51.56835],[-0.1366801,51.56858],[-0.1366988,51.56864],[-0.1366962,51.56868],[-0.1367203,51.56873]]}},{"type":"Feature","properties":{"Title":"Archway - Safer Junctions","Direction":"OneWay","Flow":null,"Protection":null,"Ownership":null,"YearBuilt":null,"Borough":"Islington","LengthInMetres":10,"stroke":"#9C27B0","stroke-width":2},"geometry":{"type":"LineString","coordinates":[[-0.1357477,51.56619],[-0.1356807,51.56617],[-0.1356136,51.56615]]}},{"type":"Feature","properties":{"Title":"Archway - Safer Junctions","Direction":"OneWay","Flow":null,"Protection":null,"Ownership":null,"YearBuilt":null,"Borough":"Islington","LengthInMetres":22,"stroke":"#9C27B0","stroke-width":2},"geometry":{"type":"LineString","coordinates":[[-0.1358389,51.56609],[-0.1355895,51.56597]]}},{"type":"Feature","properties":{"Title":"Archway - Safer Junctions","Direction":"TwoWay","Flow":null,"Protection":null,"Ownership":null,"YearBuilt":null,"Borough":"Islington","LengthInMetres":63,"stroke":"#9C27B0","stroke-width":4},"geometry":{"type":"LineString","coordinates":[[-0.1353668,51.56591],[-0.1346373,51.56557]]}},{"type":"Feature","properties":{"Title":"Archway - Safer Junctions","Direction":"OneWay","Flow":null,"Protection":null,"Ownership":null,"YearBuilt":null,"Borough":"Islington","LengthInMetres":11,"stroke":"#9C27B0","stroke-width":2},"geometry":{"type":"LineString","coordinates":[[-0.1346507,51.56536],[-0.1346426,51.56541],[-0.1346024,51.56545]]}},{"type":"Feature","properties":{"Title":"Archway - Safer Junctions","Direction":"OneWay","Flow":null,"Protection":null,"Ownership":null,"YearBuilt":null,"Borough":"Islington","LengthInMetres":50,"stroke":"#9C27B0","stroke-width":2},"geometry":{"type":"LineString","coordinates":[[-0.1336824,51.56518],[-0.1342966,51.56542]]}},{"type":"Feature","properties":{"Title":"Archway - Safer Junctions","Direction":"OneWay","Flow":null,"Protection":null,"Ownership":null,"YearBuilt":null,"Borough":"Islington","LengthInMetres":68,"stroke":"#9C27B0","stroke-width":2},"geometry":{"type":"LineString","coordinates":[[-0.1335322,51.56524],[-0.1335751,51.56528],[-0.1338112,51.56562],[-0.1338219,51.56565],[-0.1338192,51.56581]]}},{"type":"Feature","properties":{"Title":"Archway - Safer Junctions","Direction":"OneWay","Flow":null,"Protection":null,"Ownership":null,"YearBuilt":null,"Borough":"Islington","LengthInMetres":9,"stroke":"#9C27B0","stroke-width":2},"geometry":{"type":"LineString","coordinates":[[-0.1338192,51.56581],[-0.1338702,51.56574]]}},{"type":"Feature","properties":{"Title":"Archway - Safer Junctions","Direction":"OneWay","Flow":null,"Protection":null,"Ownership":null,"YearBuilt":null,"Borough":"Islington","LengthInMetres":7,"stroke":"#9C27B0","stroke-width":2},"geometry":{"type":"LineString","coordinates":[[-0.1338192,51.56581],[-0.1338112,51.56587]]}},{"type":"Feature","properties":{"Title":"Archway - Safer Junctions","Direction":"TwoWay","Flow":null,"Protection":null,"Ownership":null,"YearBuilt":null,"Borough":"Islington","LengthInMetres":77,"stroke":"#9C27B0","stroke-width":4},"geometry":{"type":"LineString","coordinates":[[-0.1336323,51.56639],[-0.1337369,51.5664],[-0.134209,51.56654],[-0.1344799,51.56663],[-0.1346167,51.5667]]}},{"type":"Feature","properties":{"Title":"Archway - Safer Junctions","Direction":"OneWay","Flow":null,"Protection":null,"Ownership":null,"YearBuilt":null,"Borough":"Islington","LengthInMetres":110,"stroke":"#9C27B0","stroke-width":2},"geometry":{"type":"LineString","coordinates":[[-0.135516,51.56751],[-0.1352558,51.56727],[-0.1351056,51.56713],[-0.1350385,51.56706],[-0.1349634,51.56697],[-0.134899,51.5669],[-0.134773,51.5668],[-0.1346167,51.5667]]}},{"type":"Feature","properties":{"Title":"Archway - Safer Junctions","Direction":"OneWay","Flow":null,"Protection":null,"Ownership":null,"YearBuilt":null,"Borough":"Islington","LengthInMetres":4,"stroke":"#9C27B0","stroke-width":2},"geometry":{"type":"LineString","coordinates":[[-0.1346167,51.5667],[-0.1346737,51.56671]]}},{"type":"Feature","properties":{"Title":"Archway - Safer Junctions","Direction":"OneWay","Flow":null,"Protection":null,"Ownership":null,"YearBuilt":null,"Borough":"Islington","LengthInMetres":39,"stroke":"#9C27B0","stroke-width":2},"geometry":{"type":"LineString","coordinates":[[-0.1354193,51.56617],[-0.1351163,51.56644],[-0.1351123,51.56646]]}},{"type":"Feature","properties":{"Title":"Archway - Safer Junctions","Direction":"OneWay","Flow":null,"Protection":null,"Ownership":null,"YearBuilt":null,"Borough":"Islington","LengthInMetres":18,"stroke":"#9C27B0","stroke-width":2},"geometry":{"type":"LineString","coordinates":[[-0.1351123,51.56646],[-0.1351002,51.56654],[-0.1351109,51.56646],[-0.1351123,51.56646]]}},{"type":"Feature","properties":{"Title":"Archway - Safer Junctions","Direction":"OneWay","Flow":null,"Protection":null,"Ownership":null,"YearBuilt":null,"Borough":"Islington","LengthInMetres":31,"stroke":"#9C27B0","stroke-width":2},"geometry":{"type":"LineString","coordinates":[[-0.1351123,51.56646],[-0.1351672,51.56663],[-0.1351987,51.56673]]}},{"type":"Feature","properties":{"Title":"Archway - Safer Junctions","Direction":"OneWay","Flow":null,"Protection":null,"Ownership":null,"YearBuilt":null,"Borough":"Islington","LengthInMetres":16,"stroke":"#9C27B0","stroke-width":2},"geometry":{"type":"LineString","coordinates":[[-0.1351987,51.56673],[-0.1351994,51.56673],[-0.1351404,51.56667],[-0.1351987,51.56673]]}},{"type":"Feature","properties":{"Title":"Archway - Safer Junctions","Direction":"OneWay","Flow":null,"Protection":null,"Ownership":null,"YearBuilt":null,"Borough":"Islington","LengthInMetres":90,"stroke":"#9C27B0","stroke-width":2},"geometry":{"type":"LineString","coordinates":[[-0.1351987,51.56673],[-0.1351994,51.56673],[-0.1354033,51.56698],[-0.1355722,51.56717],[-0.1357171,51.56734],[-0.1357975,51.56745]]}},{"type":"Feature","properties":{"Title":"St George's Ave","Direction":"TwoWay","Flow":null,"Protection":null,"Ownership":null,"YearBuilt":null,"Borough":"Islington","LengthInMetres":9,"stroke":"#9C27B0","stroke-width":4},"geometry":{"type":"LineString","coordinates":[[-0.127168,51.55693],[-0.127076,51.55687]]}},{"type":"Feature","properties":{"Title":"Dalmeney Road","Direction":"TwoWay","Flow":null,"Protection":null,"Ownership":null,"YearBuilt":null,"Borough":"Islington","LengthInMetres":13,"stroke":"#9C27B0","stroke-width":4},"geometry":{"type":"LineString","coordinates":[[-0.12985,51.5557],[-0.129781,51.55559]]}},{"type":"Feature","properties":{"Title":"Marriott Road","Direction":"OneWay","Flow":null,"Protection":null,"Ownership":null,"YearBuilt":null,"Borough":"Islington","LengthInMetres":26,"stroke":"#9C27B0","stroke-width":2},"geometry":{"type":"LineString","coordinates":[[-0.1136614,51.56713],[-0.1134039,51.56696]]}},{"type":"Feature","properties":{"Title":"Back Hill","Direction":"TwoWay","Flow":null,"Protection":null,"Ownership":null,"YearBuilt":null,"Borough":"Islington","LengthInMetres":1,"stroke":"#9C27B0","stroke-width":4},"geometry":{"type":"LineString","coordinates":[[-0.109283,51.52292],[-0.1092892,51.52291]]}},{"type":"Feature","properties":{"Title":"Canonbury Road Crossing","Direction":"OneWay","Flow":null,"Protection":null,"Ownership":null,"YearBuilt":null,"Borough":"Islington","LengthInMetres":15,"stroke":"#9C27B0","stroke-width":2},"geometry":{"type":"LineString","coordinates":[[-0.0979916,51.54177],[-0.097891,51.54172],[-0.0978629,51.54174],[-0.0978414,51.54176]]}},{"type":"Feature","properties":{"Title":"Sans Walk","Direction":"TwoWay","Flow":null,"Protection":null,"Ownership":null,"YearBuilt":null,"Borough":"Islington","LengthInMetres":45,"stroke":"#9C27B0","stroke-width":4},"geometry":{"type":"LineString","coordinates":[[-0.106215,51.52416],[-0.105673,51.52438]]}},{"type":"Feature","properties":{"Title":"Carnoustie Drive","Direction":"TwoWay","Flow":null,"Protection":null,"Ownership":null,"YearBuilt":null,"Borough":"Islington","LengthInMetres":5,"stroke":"#9C27B0","stroke-width":4},"geometry":{"type":"LineString","coordinates":[[-0.11754,51.54046],[-0.11753,51.54042]]}},{"type":"Feature","properties":{"Title":"Brooksby Street","Direction":"TwoWay","Flow":null,"Protection":null,"Ownership":null,"YearBuilt":null,"Borough":"Islington","LengthInMetres":14,"stroke":"#9C27B0","stroke-width":4},"geometry":{"type":"LineString","coordinates":[[-0.109706,51.54167],[-0.10951,51.54169]]}},{"type":"Feature","properties":{"Title":"Bridgeman Road","Direction":"TwoWay","Flow":null,"Protection":null,"Ownership":null,"YearBuilt":null,"Borough":"Islington","LengthInMetres":10,"stroke":"#9C27B0","stroke-width":4},"geometry":{"type":"LineString","coordinates":[[-0.113694,51.54084],[-0.113551,51.54083]]}},{"type":"Feature","properties":{"Title":"Crescent Street","Direction":"TwoWay","Flow":null,"Protection":null,"Ownership":null,"YearBuilt":null,"Borough":"Islington","LengthInMetres":17,"stroke":"#9C27B0","stroke-width":4},"geometry":{"type":"LineString","coordinates":[[-0.115562,51.54257],[-0.115478,51.54243]]}},{"type":"Feature","properties":{"Title":"College Cross","Direction":"TwoWay","Flow":null,"Protection":null,"Ownership":null,"YearBuilt":null,"Borough":"Islington","LengthInMetres":13,"stroke":"#9C27B0","stroke-width":4},"geometry":{"type":"LineString","coordinates":[[-0.1062102,51.54162],[-0.106026,51.54164]]}},{"type":"Feature","properties":{"Title":"Baltic Street","Direction":"TwoWay","Flow":null,"Protection":null,"Ownership":null,"YearBuilt":null,"Borough":"Islington","LengthInMetres":10,"stroke":"#9C27B0","stroke-width":4},"geometry":{"type":"LineString","coordinates":[[-0.096763,51.52332],[-0.096638,51.52337]]}},{"type":"Feature","properties":{"Title":"Rosoman StreetÂ ","Direction":"TwoWay","Flow":null,"Protection":null,"Ownership":null,"YearBuilt":null,"Borough":"Islington","LengthInMetres":15,"stroke":"#9C27B0","stroke-width":4},"geometry":{"type":"LineString","coordinates":[[-0.1078706,51.52649],[-0.107763,51.52661]]}},{"type":"Feature","properties":{"Title":"Northampton Square","Direction":"TwoWay","Flow":null,"Protection":null,"Ownership":null,"YearBuilt":null,"Borough":"Islington","LengthInMetres":108,"stroke":"#9C27B0","stroke-width":4},"geometry":{"type":"LineString","coordinates":[[-0.1029992,51.52719],[-0.102992,51.52721],[-0.102954,51.52725],[-0.10291,51.52734],[-0.102887,51.52741],[-0.102866,51.52743],[-0.102795,51.5275],[-0.102749,51.52754],[-0.102707,51.52757],[-0.102666,51.52759],[-0.102624,51.52761],[-0.102584,51.52763],[-0.102529,51.52764],[-0.102486,51.52764],[-0.10243,51.52765],[-0.10235,51.52764],[-0.102277,51.52763],[-0.102141,51.52761],[-0.102068,51.52759],[-0.1019062,51.52754]]}},{"type":"Feature","properties":{"Title":"Cloudesley Road","Direction":"TwoWay","Flow":null,"Protection":null,"Ownership":null,"YearBuilt":null,"Borough":"Islington","LengthInMetres":4,"stroke":"#9C27B0","stroke-width":4},"geometry":{"type":"LineString","coordinates":[[-0.109419,51.53534],[-0.109379,51.53531]]}},{"type":"Feature","properties":{"Title":"Bride Street","Direction":"TwoWay","Flow":null,"Protection":null,"Ownership":null,"YearBuilt":null,"Borough":"Islington","LengthInMetres":26,"stroke":"#9C27B0","stroke-width":4},"geometry":{"type":"LineString","coordinates":[[-0.111005,51.54639],[-0.110813,51.54644],[-0.110653,51.54648]]}},{"type":"Feature","properties":{"Title":"Danbury Street - LB Islington","Direction":"TwoWay","Flow":null,"Protection":null,"Ownership":null,"YearBuilt":null,"Borough":"Islington","LengthInMetres":38,"stroke":"#9C27B0","stroke-width":4},"geometry":{"type":"LineString","coordinates":[[-0.1001588,51.53275],[-0.1000891,51.53293],[-0.1000193,51.53308]]}},{"type":"Feature","properties":{"Title":"York Way (LB Camden/Islington)","Direction":"TwoWay","Flow":null,"Protection":null,"Ownership":null,"YearBuilt":null,"Borough":"Islington","LengthInMetres":11,"stroke":"#9C27B0","stroke-width":4},"geometry":{"type":"LineString","coordinates":[[-0.1250768,51.54109],[-0.1250229,51.541]]}},{"type":"Feature","properties":{"Title":"York Way (LB Camden/Islington)","Direction":"TwoWay","Flow":null,"Protection":null,"Ownership":null,"YearBuilt":null,"Borough":"Islington","LengthInMetres":149,"stroke":"#9C27B0","stroke-width":4},"geometry":{"type":"LineString","coordinates":[[-0.1224787,51.53719],[-0.1225016,51.53734],[-0.1227591,51.53805],[-0.1230273,51.53844],[-0.1230579,51.53847]]}},{"type":"Feature","properties":{"Title":"York Road (LB Camden/Islington)","Direction":"TwoWay","Flow":null,"Protection":null,"Ownership":null,"YearBuilt":null,"Borough":"Islington","LengthInMetres":21,"stroke":"#9C27B0","stroke-width":4},"geometry":{"type":"LineString","coordinates":[[-0.1249859,51.54081],[-0.1249907,51.54088],[-0.1250229,51.541]]}},{"type":"Feature","properties":{"Title":"Moorgate (City of London)","Direction":"OneWay","Flow":null,"Protection":null,"Ownership":null,"YearBuilt":null,"Borough":"Islington","LengthInMetres":1,"stroke":"#9C27B0","stroke-width":2},"geometry":{"type":"LineString","coordinates":[[-0.0877417,51.51926],[-0.0877376,51.51927]]}},{"type":"Feature","properties":{"Title":"Green Lanes Cycleway - LB Hackney","Direction":"TwoWay","Flow":null,"Protection":null,"Ownership":null,"YearBuilt":null,"Borough":"Islington","LengthInMetres":46,"stroke":"#9C27B0","stroke-width":4},"geometry":{"type":"LineString","coordinates":[[-0.0907435,51.55851],[-0.0906416,51.5583],[-0.0905559,51.55811]]}},{"type":"Feature","properties":{"Title":"C50 - Eastbound","Direction":"OneWay","Flow":null,"Protection":null,"Ownership":null,"YearBuilt":null,"Borough":"Islington","LengthInMetres":92,"stroke":"#9C27B0","stroke-width":2},"geometry":{"type":"LineString","coordinates":[[-0.1203733,51.55709],[-0.1203465,51.55712],[-0.1200086,51.55734],[-0.1195123,51.55772]]}},{"type":"Feature","properties":{"Title":"C50 - Eastbound","Direction":"OneWay","Flow":null,"Protection":null,"Ownership":null,"YearBuilt":null,"Borough":"Islington","LengthInMetres":53,"stroke":"#9C27B0","stroke-width":2},"geometry":{"type":"LineString","coordinates":[[-0.1185736,51.55826],[-0.1179969,51.55857]]}},{"type":"Feature","properties":{"Title":"C50 - Eastbound","Direction":"OneWay","Flow":null,"Protection":null,"Ownership":null,"YearBuilt":null,"Borough":"Islington","LengthInMetres":68,"stroke":"#9C27B0","stroke-width":2},"geometry":{"type":"LineString","coordinates":[[-0.1175136,51.55885],[-0.1171596,51.55904],[-0.1167626,51.55924]]}},{"type":"Feature","properties":{"Title":"C50 - Eastbound","Direction":"OneWay","Flow":null,"Protection":null,"Ownership":null,"YearBuilt":null,"Borough":"Islington","LengthInMetres":119,"stroke":"#9C27B0","stroke-width":2},"geometry":{"type":"LineString","coordinates":[[-0.1163603,51.55946],[-0.1158238,51.55975],[-0.1150621,51.56016]]}},{"type":"Feature","properties":{"Title":"C50 - Eastbound","Direction":"OneWay","Flow":null,"Protection":null,"Ownership":null,"YearBuilt":null,"Borough":"Islington","LengthInMetres":208,"stroke":"#9C27B0","stroke-width":2},"geometry":{"type":"LineString","coordinates":[[-0.1149092,51.56025],[-0.1146034,51.56043],[-0.1142252,51.56064],[-0.1139007,51.56081],[-0.1136325,51.56095],[-0.113375,51.56108],[-0.112986,51.56126],[-0.1127741,51.56136],[-0.1125944,51.56143]]}},{"type":"Feature","properties":{"Title":"C50 - Eastbound","Direction":"OneWay","Flow":null,"Protection":null,"Ownership":null,"YearBuilt":null,"Borough":"Islington","LengthInMetres":75,"stroke":"#9C27B0","stroke-width":2},"geometry":{"type":"LineString","coordinates":[[-0.1123772,51.56151],[-0.1121036,51.5616],[-0.1117308,51.56172],[-0.1114223,51.56182]]}},{"type":"Feature","properties":{"Title":"C50 - Westbound","Direction":"OneWay","Flow":null,"Protection":null,"Ownership":null,"YearBuilt":null,"Borough":"Islington","LengthInMetres":36,"stroke":"#9C27B0","stroke-width":2},"geometry":{"type":"LineString","coordinates":[[-0.1069124,51.5635],[-0.1072276,51.56336],[-0.1072779,51.56333],[-0.1073349,51.56331]]}},{"type":"Feature","properties":{"Title":"C50 - Westbound","Direction":"OneWay","Flow":null,"Protection":null,"Ownership":null,"YearBuilt":null,"Borough":"Islington","LengthInMetres":67,"stroke":"#9C27B0","stroke-width":2},"geometry":{"type":"LineString","coordinates":[[-0.1099479,51.55993],[-0.1100284,51.55987],[-0.1101196,51.55982],[-0.1103073,51.55972],[-0.1106828,51.55954]]}},{"type":"Feature","properties":{"Title":"C50 - Westbound","Direction":"OneWay","Flow":null,"Protection":null,"Ownership":null,"YearBuilt":null,"Borough":"Islington","LengthInMetres":231,"stroke":"#9C27B0","stroke-width":2},"geometry":{"type":"LineString","coordinates":[[-0.1110127,51.55933],[-0.1110878,51.5592],[-0.1111039,51.55911],[-0.1110959,51.55896],[-0.1110664,51.55868],[-0.1110825,51.55859],[-0.1111039,51.55851],[-0.1111603,51.55841],[-0.1112488,51.55831],[-0.1113587,51.55824],[-0.111466,51.55818],[-0.1120266,51.55799],[-0.1126435,51.55778]]}},{"type":"Feature","properties":{"Title":"C50 - Westbound","Direction":"OneWay","Flow":null,"Protection":null,"Ownership":null,"YearBuilt":null,"Borough":"Islington","LengthInMetres":96,"stroke":"#9C27B0","stroke-width":2},"geometry":{"type":"LineString","coordinates":[[-0.1143011,51.55721],[-0.1149985,51.55697],[-0.1155054,51.55679]]}},{"type":"Feature","properties":{"Title":"C50 - Westbound","Direction":"OneWay","Flow":null,"Protection":null,"Ownership":null,"YearBuilt":null,"Borough":"Islington","LengthInMetres":78,"stroke":"#9C27B0","stroke-width":2},"geometry":{"type":"LineString","coordinates":[[-0.11285,51.5577],[-0.1131129,51.5576],[-0.1133194,51.55753],[-0.1138344,51.55736]]}},{"type":"Feature","properties":{"Title":"C50 - Westbound","Direction":"OneWay","Flow":null,"Protection":null,"Ownership":null,"YearBuilt":null,"Borough":"Islington","LengthInMetres":90,"stroke":"#9C27B0","stroke-width":2},"geometry":{"type":"LineString","coordinates":[[-0.1157602,51.55668],[-0.116007,51.55654],[-0.1162377,51.55641],[-0.1164067,51.55632],[-0.1167446,51.55616]]}},{"type":"Feature","properties":{"Title":"C50 - Westbound","Direction":"OneWay","Flow":null,"Protection":null,"Ownership":null,"YearBuilt":null,"Borough":"Islington","LengthInMetres":42,"stroke":"#9C27B0","stroke-width":2},"geometry":{"type":"LineString","coordinates":[[-0.117163,51.55607],[-0.117442,51.55597],[-0.1176941,51.55588]]}},{"type":"Feature","properties":{"Title":"C50 - Westbound","Direction":"OneWay","Flow":null,"Protection":null,"Ownership":null,"YearBuilt":null,"Borough":"Islington","LengthInMetres":11,"stroke":"#9C27B0","stroke-width":2},"geometry":{"type":"LineString","coordinates":[[-0.109795,51.56007],[-0.1098808,51.55999]]}},{"type":"Feature","properties":{"Title":"C50 - Westbound","Direction":"OneWay","Flow":null,"Protection":null,"Ownership":null,"YearBuilt":null,"Borough":"Islington","LengthInMetres":345,"stroke":"#9C27B0","stroke-width":2},"geometry":{"type":"LineString","coordinates":[[-0.1074328,51.56323],[-0.1075387,51.56315],[-0.1075991,51.56308],[-0.107642,51.563],[-0.1076796,51.5629],[-0.1077225,51.56263],[-0.1077734,51.56238],[-0.1077976,51.56227],[-0.1078405,51.56218],[-0.1079075,51.56211],[-0.108098,51.56195],[-0.1082053,51.56186],[-0.1083421,51.56171],[-0.1085432,51.56149],[-0.1087122,51.56131],[-0.1088705,51.56111],[-0.1093801,51.56056],[-0.1094847,51.56046]]}},{"type":"Feature","properties":{"Title":"C50 - Eastbound","Direction":"OneWay","Flow":null,"Protection":null,"Ownership":null,"YearBuilt":null,"Borough":"Islington","LengthInMetres":127,"stroke":"#9C27B0","stroke-width":2},"geometry":{"type":"LineString","coordinates":[[-0.1111621,51.5619],[-0.1108971,51.56199],[-0.110535,51.56212],[-0.1102775,51.56221],[-0.1098913,51.56236],[-0.1095828,51.56248]]}},{"type":"Feature","properties":{"Title":"New Route","Direction":"OneWay","Flow":null,"Protection":null,"Ownership":null,"YearBuilt":null,"Borough":"Islington","LengthInMetres":190,"stroke":"#9C27B0","stroke-width":2},"geometry":{"type":"LineString","coordinates":[[-0.126348,51.54513],[-0.12593,51.54344]]}},{"type":"Feature","properties":{"Title":"New Route","Direction":"OneWay","Flow":null,"Protection":null,"Ownership":null,"YearBuilt":null,"Borough":"Islington","LengthInMetres":49,"stroke":"#9C27B0","stroke-width":2},"geometry":{"type":"LineString","coordinates":[[-0.122352,51.53517],[-0.12233,51.53473]]}},{"type":"Feature","properties":{"Title":"New Route","Direction":"OneWay","Flow":null,"Protection":null,"Ownership":null,"YearBuilt":null,"Borough":"Islington","LengthInMetres":142,"stroke":"#9C27B0","stroke-width":2},"geometry":{"type":"LineString","coordinates":[[-0.107138,51.53591],[-0.107224,51.5353],[-0.107256,51.53492],[-0.10717,51.53464]]}},{"type":"Feature","properties":{"Title":"New Route","Direction":"OneWay","Flow":null,"Protection":null,"Ownership":null,"YearBuilt":null,"Borough":"Islington","LengthInMetres":47,"stroke":"#9C27B0","stroke-width":2},"geometry":{"type":"LineString","coordinates":[[-0.108393,51.52689],[-0.108018,51.52654]]}},{"type":"Feature","properties":{"Title":"New Route","Direction":"TwoWay","Flow":null,"Protection":null,"Ownership":null,"YearBuilt":null,"Borough":"Islington","LengthInMetres":44,"stroke":"#9C27B0","stroke-width":4},"geometry":{"type":"LineString","coordinates":[[-0.107567,51.52615],[-0.107342,51.52578]]}},{"type":"Feature","properties":{"Title":"New Route","Direction":"TwoWay","Flow":null,"Protection":null,"Ownership":null,"YearBuilt":null,"Borough":"Islington","LengthInMetres":10,"stroke":"#9C27B0","stroke-width":4},"geometry":{"type":"LineString","coordinates":[[-0.095213,51.53854],[-0.095251,51.53845]]}},{"type":"Feature","properties":{"Title":"New Route","Direction":"OneWay","Flow":null,"Protection":null,"Ownership":null,"YearBuilt":null,"Borough":"Islington","LengthInMetres":0,"stroke":"#9C27B0","stroke-width":2},"geometry":{"type":"LineString","coordinates":[[-0.091635,51.55992]]}},{"type":"Feature","properties":{"Title":"New Route","Direction":"OneWay","Flow":null,"Protection":null,"Ownership":null,"YearBuilt":null,"Borough":"Islington","LengthInMetres":173,"stroke":"#9C27B0","stroke-width":2},"geometry":{"type":"LineString","coordinates":[[-0.091635,51.55991],[-0.09082,51.55844]]}},{"type":"Feature","properties":{"Title":"New Route","Direction":"OneWay","Flow":null,"Protection":null,"Ownership":null,"YearBuilt":null,"Borough":"Islington","LengthInMetres":33,"stroke":"#9C27B0","stroke-width":2},"geometry":{"type":"LineString","coordinates":[[-0.10937,51.54741],[-0.109155,51.54715]]}},{"type":"Feature","properties":{"Title":"New Route","Direction":"OneWay","Flow":null,"Protection":null,"Ownership":null,"YearBuilt":null,"Borough":"Islington","LengthInMetres":87,"stroke":"#9C27B0","stroke-width":2},"geometry":{"type":"LineString","coordinates":[[-0.107278,51.54416],[-0.106934,51.54341]]}}]}