{"type":"FeatureCollection","features":[{"type":"Feature","properties":{"Name":"Kensington and Chelsea","description":null,"timestamp":null,"begin":null,"end":null,"altitudeMode":null,"tessellate":-1,"extrude":0,"visibility":-1,"drawOrder":"NA","icon":null,"ltla22cd":"E09000020","ltla22nm":"Kensington and Chelsea","ltla22nmw":null,"label":"E92000001E12000007E09000020","stroke-opacity":0.2,"stroke-width":0.25,"stroke":"#F44336","fill-opacity":0.1,"fill":"#F44336","LengthInMetres":435,"Title":null,"Direction":null,"Flow":null,"Protection":null,"RoadOwnership":null,"YearBuilt":null,"Borough":null},"geometry":{"type":"Polygon","coordinates":[[[-0.2144309,51.5011539],[-0.2144418,51.5011723],[-0.2144502,51.5011865],[-0.214482,51.5012403],[-0.2144906,51.5012548],[-0.214505,51.5012793],[-0.2145069,51.5012824],[-0.2145222,51.5013083],[-0.2145435,51.5013444],[-0.2145557,51.501365],[-0.214559,51.5013706],[-0.2145622,51.5013759],[-0.2145644,51.5013797],[-0.2146094,51.5014559],[-0.2146158,51.5014666],[-0.214638,51.5015044],[-0.2146589,51.5015396],[-0.2147034,51.501615],[-0.2147066,51.5016205],[-0.2147097,51.5016256],[-0.2147204,51.5016437],[-0.2147332,51.5016615],[-0.2147474,51.5016811],[-0.2147914,51.5017419],[-0.2148006,51.5017546],[-0.2148042,51.5017596],[-0.2148332,51.5017996],[-0.2148522,51.5018259],[-0.214856,51.5018311],[-0.2148767,51.5018597],[-0.2148856,51.5018722],[-0.2149095,51.5019051],[-0.2149416,51.5019496],[-0.2149469,51.5019569],[-0.214955,51.5019681],[-0.2149612,51.5019766],[-0.2149912,51.5020181],[-0.215074,51.5021326],[-0.2150927,51.5021585],[-0.2150956,51.5021625],[-0.2151043,51.5021744],[-0.2151159,51.5021922],[-0.2151888,51.5023036],[-0.2151906,51.5023065],[-0.2152587,51.5024108],[-0.2152757,51.5024366],[-0.2153314,51.5025217],[-0.2153538,51.502556],[-0.215397,51.502622],[-0.2154332,51.5026776],[-0.2154391,51.5026838],[-0.2155056,51.5027551],[-0.2155509,51.5028038],[-0.2155989,51.5028553],[-0.2156477,51.5029076],[-0.2156627,51.5029237],[-0.2156748,51.5029367],[-0.2157008,51.5029646],[-0.2157416,51.5030084],[-0.2157556,51.5030234],[-0.2157724,51.5030414],[-0.215806,51.5030775],[-0.2158157,51.5030878],[-0.2158274,51.5031004],[-0.2158656,51.5031414],[-0.2158792,51.503156],[-0.2158899,51.5031674],[-0.2159371,51.5032181],[-0.2159451,51.5032267],[-0.2159578,51.5032403],[-0.2159733,51.5032569],[-0.2160236,51.5033108],[-0.2160487,51.5033378],[-0.216087,51.5033789],[-0.2161332,51.5034285],[-0.2161382,51.5034343],[-0.2161493,51.5034473],[-0.2161678,51.5034691],[-0.2162466,51.5035622],[-0.216265,51.5035839],[-0.2162701,51.50359],[-0.2162836,51.503606],[-0.2162899,51.5036134],[-0.216317,51.5036454],[-0.2163189,51.5036476],[-0.2163483,51.5036824],[-0.2163836,51.5037241],[-0.2163872,51.5037284],[-0.2163999,51.5037229],[-0.2164551,51.5036984],[-0.2164851,51.5037395],[-0.2165221,51.5037903],[-0.2165376,51.5038114],[-0.2165417,51.503817],[-0.216581,51.5038709],[-0.2165906,51.5038841],[-0.216604,51.5039024],[-0.216609,51.5039093],[-0.2166323,51.5039413],[-0.2167169,51.5040571],[-0.2167224,51.5040648],[-0.2167248,51.504068],[-0.2167284,51.504073],[-0.216738,51.5040861],[-0.2167581,51.5041136],[-0.2168395,51.5042252],[-0.2168612,51.5042549],[-0.2170404,51.5045003],[-0.2171082,51.504598],[-0.2172257,51.504767],[-0.2173175,51.5048991],[-0.2173278,51.5049139],[-0.2174114,51.5050342],[-0.2176407,51.505364],[-0.2176461,51.5053717],[-0.2176534,51.5053822],[-0.2176544,51.5053868],[-0.2176667,51.5054383],[-0.2176677,51.5054426],[-0.2176729,51.5054653],[-0.2176523,51.505471],[-0.2175463,51.5055004],[-0.2175529,51.5055106],[-0.2175624,51.5055251],[-0.2175666,51.5055317],[-0.2175853,51.5055603],[-0.21761,51.5055982],[-0.2176329,51.5056334],[-0.2176625,51.5056788],[-0.2176837,51.5057114],[-0.2177279,51.5057791],[-0.2177405,51.5058006],[-0.2177591,51.5058323],[-0.2177628,51.5058387],[-0.2178021,51.5059057],[-0.2178861,51.5060493],[-0.2178947,51.5060639],[-0.2179161,51.5061023],[-0.217872,51.5061116],[-0.2178439,51.5061176],[-0.2177211,51.5061436],[-0.217553,51.5061792],[-0.2174673,51.5061973],[-0.2172564,51.5062423],[-0.2170861,51.506278],[-0.2170218,51.5062903],[-0.2170082,51.5062929],[-0.2168955,51.5063144],[-0.2168907,51.5063153],[-0.2168331,51.5063262],[-0.2168126,51.5063302],[-0.2167757,51.5063372],[-0.216651,51.506361],[-0.2163655,51.5064154],[-0.2163462,51.5064191],[-0.216329,51.5063818],[-0.2163109,51.5063426],[-0.2162955,51.5063091],[-0.2162524,51.5063164],[-0.216089,51.5063441],[-0.2160593,51.5063491],[-0.2159979,51.5063595],[-0.2159412,51.5063691],[-0.2159352,51.5063701],[-0.2159428,51.5063914],[-0.2159483,51.5064052],[-0.2159854,51.5065039],[-0.2160013,51.506546],[-0.2161035,51.506749],[-0.216168,51.5068772],[-0.21617,51.5068811],[-0.216169,51.506943],[-0.216167,51.5070226],[-0.2161667,51.5070319],[-0.2161634,51.5071646],[-0.2161624,51.5072049],[-0.2161694,51.507395],[-0.216167,51.507408],[-0.2161629,51.5074297],[-0.2161624,51.5074328],[-0.2161564,51.5074649],[-0.2161525,51.5074698],[-0.2161407,51.5074823],[-0.2161271,51.5074965],[-0.2160834,51.5075196],[-0.2160732,51.5075212],[-0.2160006,51.50753],[-0.21591,51.5075232],[-0.2158004,51.507515],[-0.2157928,51.5075159],[-0.2157579,51.5075201],[-0.2157515,51.5075209],[-0.2156857,51.5075345],[-0.2155503,51.5075626],[-0.2155448,51.5075638],[-0.2153892,51.507596],[-0.2152302,51.507639],[-0.2152237,51.5076407],[-0.2152116,51.5076441],[-0.2152047,51.5076474],[-0.2152347,51.5077116],[-0.2152516,51.5077484],[-0.2152753,51.5078],[-0.215297,51.5078473],[-0.2153167,51.5078902],[-0.2153366,51.5079334],[-0.215358,51.50798],[-0.2153927,51.5080556],[-0.2154013,51.5080779],[-0.2154056,51.508089],[-0.2154379,51.5081726],[-0.2154533,51.5082125],[-0.2154643,51.508241],[-0.2154717,51.5082601],[-0.2154947,51.5083197],[-0.2155045,51.508345],[-0.2155221,51.5083906],[-0.2155257,51.5083997],[-0.2155427,51.5084439],[-0.2155542,51.5084737],[-0.2155629,51.5084961],[-0.2155915,51.5085702],[-0.2156281,51.5086649],[-0.2156704,51.5087745],[-0.215676,51.5087887],[-0.2157704,51.5090332],[-0.2158035,51.5091188],[-0.2158093,51.5091189],[-0.215836,51.5091193],[-0.2160812,51.5091228],[-0.2160866,51.5091228],[-0.2160892,51.5091365],[-0.2160937,51.5091598],[-0.2162357,51.5091433],[-0.2162426,51.5091425],[-0.216336,51.5091317],[-0.2164303,51.5091208],[-0.2164393,51.5091448],[-0.2164645,51.5092118],[-0.2166031,51.5092969],[-0.2166099,51.5093012],[-0.2166763,51.5093419],[-0.2166954,51.5093537],[-0.2168158,51.5094278],[-0.2168792,51.5094668],[-0.2168767,51.5095082],[-0.2168757,51.5095232],[-0.2168725,51.5095754],[-0.2168703,51.5096099],[-0.2168689,51.5096329],[-0.2168684,51.5096407],[-0.2168741,51.5096522],[-0.2168792,51.5096625],[-0.2168945,51.5096936],[-0.2169087,51.5097225],[-0.2169122,51.5097296],[-0.2169359,51.5097778],[-0.2169377,51.5097818],[-0.2169389,51.5097846],[-0.2169426,51.5097933],[-0.216949,51.5098086],[-0.2169501,51.5098111],[-0.2169525,51.5098168],[-0.2169655,51.5098562],[-0.216967,51.5098607],[-0.2169706,51.5098717],[-0.2169718,51.5098762],[-0.2169726,51.5098793],[-0.2169857,51.5099298],[-0.2169869,51.5099367],[-0.2169903,51.5099562],[-0.2169914,51.5099627],[-0.2169927,51.509974],[-0.2169982,51.5100196],[-0.2169993,51.5100482],[-0.217,51.5100647],[-0.2170004,51.5100767],[-0.2169993,51.5100935],[-0.2169964,51.5101336],[-0.2170645,51.5102076],[-0.2170733,51.5102173],[-0.2171438,51.5102941],[-0.217199,51.5103541],[-0.2172016,51.510357],[-0.2172056,51.5103613],[-0.217228,51.5103856],[-0.2174034,51.5103341],[-0.2174795,51.5103117],[-0.2174915,51.5103082],[-0.2175004,51.5103056],[-0.2175088,51.5103031],[-0.2175211,51.5102993],[-0.2175376,51.5102943],[-0.2175564,51.5102886],[-0.2175919,51.5102781],[-0.2176005,51.5102757],[-0.2176461,51.5102658],[-0.217687,51.5102615],[-0.2176926,51.51026],[-0.2177944,51.5102497],[-0.2178414,51.5102456],[-0.218053,51.5102296],[-0.2180504,51.5102219],[-0.2179993,51.5100759],[-0.2179733,51.5100018],[-0.2179346,51.5098917],[-0.2179197,51.5098493],[-0.2179035,51.5098032],[-0.2178885,51.5097597],[-0.218034,51.509741],[-0.2181111,51.5097311],[-0.2181214,51.5097298],[-0.2182377,51.5097149],[-0.2183366,51.5097022],[-0.2183608,51.5096991],[-0.2184683,51.5096853],[-0.2185743,51.5096716],[-0.2187026,51.5096552],[-0.218846,51.5096367],[-0.218951,51.5096219],[-0.2190026,51.5096147],[-0.2190865,51.5096028],[-0.2192089,51.5095856],[-0.2192089,51.5095856],[-0.2192747,51.5095763],[-0.2192863,51.5095752],[-0.2193012,51.5096157],[-0.2194695,51.510074],[-0.219473,51.5100836],[-0.2195182,51.5102066],[-0.2195291,51.5102342],[-0.2195599,51.5103123],[-0.2195711,51.5103406],[-0.2195866,51.5103778],[-0.2196446,51.5105162],[-0.219655,51.5105408],[-0.21977,51.5108156],[-0.2197911,51.5108655],[-0.2198362,51.510973],[-0.2198689,51.5110463],[-0.2198832,51.5110785],[-0.2199381,51.5111834],[-0.2200066,51.5112901],[-0.2200421,51.5113455],[-0.2201391,51.5115035],[-0.22021,51.5116254],[-0.2202694,51.5117287],[-0.2203046,51.5117876],[-0.2203472,51.5118604],[-0.2204709,51.5120937],[-0.2205287,51.5122026],[-0.2205381,51.5122203],[-0.2207109,51.5124977],[-0.2208108,51.5126581],[-0.2208867,51.5127798],[-0.2210552,51.5130503],[-0.2211648,51.5132574],[-0.22117,51.5132673],[-0.2212193,51.5133606],[-0.2212269,51.5133749],[-0.2212603,51.5134381],[-0.2213078,51.513528],[-0.2213962,51.5136952],[-0.2214034,51.5137043],[-0.2214068,51.5137086],[-0.2214151,51.5137192],[-0.2214352,51.5137482],[-0.2214515,51.5137801],[-0.2214566,51.5137924],[-0.2214651,51.5138112],[-0.2214804,51.5138942],[-0.221757,51.5143301],[-0.2218892,51.5145292],[-0.2219111,51.5145622],[-0.2220319,51.5147441],[-0.222083,51.5148147],[-0.2222772,51.5150831],[-0.2223195,51.5151379],[-0.2223778,51.5152134],[-0.2224167,51.5152638],[-0.222491,51.5153599],[-0.2224939,51.5153637],[-0.2225067,51.5153803],[-0.2225524,51.5154395],[-0.2225857,51.5154826],[-0.2225944,51.5154938],[-0.2226134,51.5155188],[-0.2226775,51.5156014],[-0.2227111,51.515645],[-0.2228279,51.5157903],[-0.2229281,51.5159149],[-0.2231242,51.5161478],[-0.2231531,51.516182],[-0.2232318,51.5162755],[-0.223393,51.5164669],[-0.2234545,51.5165349],[-0.2236281,51.5167269],[-0.2238678,51.516992],[-0.223878,51.5170033],[-0.2239524,51.5170856],[-0.2240349,51.5171768],[-0.2240427,51.5171856],[-0.2241067,51.5172563],[-0.224143,51.5172965],[-0.2241743,51.517331],[-0.2242195,51.5173811],[-0.2242914,51.5174606],[-0.224324,51.5174967],[-0.2243386,51.5175129],[-0.2243574,51.517534],[-0.2243884,51.5175685],[-0.2244065,51.5175887],[-0.2244212,51.5176051],[-0.2244287,51.5176134],[-0.2244612,51.5176497],[-0.2244656,51.5176546],[-0.2245112,51.5177056],[-0.2245619,51.5177623],[-0.2245724,51.5177741],[-0.2246529,51.5178643],[-0.2246875,51.5179029],[-0.224697,51.5179136],[-0.2247048,51.5179231],[-0.2247231,51.5179428],[-0.2247274,51.5179476],[-0.2247488,51.5179716],[-0.2249051,51.5181384],[-0.2249308,51.5181658],[-0.2249911,51.5182302],[-0.2250352,51.5182772],[-0.225042,51.5182846],[-0.2250444,51.5182869],[-0.2251026,51.5183439],[-0.2251651,51.5184051],[-0.2252271,51.5184658],[-0.2252299,51.5184685],[-0.2252752,51.5185108],[-0.22544,51.5186646],[-0.2254642,51.5186872],[-0.2255457,51.5187633],[-0.2256339,51.5188455],[-0.225641,51.5188522],[-0.2256637,51.5188734],[-0.225673,51.5188821],[-0.2256789,51.5188875],[-0.2256908,51.5188983],[-0.2257262,51.5189303],[-0.2257393,51.5189422],[-0.2258003,51.5189973],[-0.2258369,51.5190304],[-0.2258782,51.5190677],[-0.2258958,51.5190836],[-0.2259087,51.5190945],[-0.2259998,51.5191715],[-0.2260036,51.5191747],[-0.2260499,51.5192139],[-0.2260725,51.519233],[-0.2261499,51.5192983],[-0.2262252,51.519362],[-0.2262496,51.5193826],[-0.2263666,51.5194815],[-0.2263979,51.5194673],[-0.2264031,51.519465],[-0.2264088,51.5194624],[-0.2264835,51.5195324],[-0.2265706,51.5194944],[-0.2265948,51.5195142],[-0.2266297,51.5195427],[-0.2266376,51.5195492],[-0.2266608,51.5195672],[-0.2267044,51.5196015],[-0.226628,51.5196315],[-0.2267075,51.5197144],[-0.2266707,51.5197365],[-0.2267258,51.5197723],[-0.2267728,51.5198119],[-0.2268549,51.5198809],[-0.226885,51.5199062],[-0.2269196,51.5199352],[-0.226959,51.5199684],[-0.2269979,51.5200011],[-0.2270117,51.5200127],[-0.2270543,51.5200485],[-0.2270898,51.5200784],[-0.2271429,51.520123],[-0.2271749,51.5201499],[-0.2272184,51.5201866],[-0.2273179,51.5202709],[-0.2273502,51.5202973],[-0.2274142,51.5203512],[-0.2274491,51.5203805],[-0.2274774,51.5204043],[-0.2275462,51.5204622],[-0.2275807,51.5204911],[-0.2276277,51.5205306],[-0.2276676,51.5205642],[-0.227739,51.5206242],[-0.2278076,51.5206819],[-0.2278467,51.5207148],[-0.2278916,51.5207525],[-0.2278952,51.5207556],[-0.2279418,51.5207947],[-0.2279512,51.5208026],[-0.2279849,51.520831],[-0.2279931,51.5208378],[-0.2281038,51.5209309],[-0.2281194,51.520944],[-0.2281653,51.5209826],[-0.2282551,51.5210581],[-0.2283014,51.5210972],[-0.2280788,51.5211965],[-0.2280753,51.5212847],[-0.2280732,51.5213412],[-0.2280718,51.5213566],[-0.2279713,51.521403],[-0.2279459,51.5214147],[-0.2279155,51.5214288],[-0.2277122,51.5215227],[-0.2276419,51.5215552],[-0.2275808,51.5215834],[-0.2275295,51.5216071],[-0.2274163,51.5216594],[-0.2272806,51.5217221],[-0.2272656,51.521729],[-0.2271741,51.5217713],[-0.2270879,51.5218112],[-0.2269903,51.5218563],[-0.2269431,51.5218781],[-0.2268289,51.5219308],[-0.2268218,51.5219341],[-0.2267871,51.5219496],[-0.2267662,51.5219589],[-0.2267296,51.5219758],[-0.2267298,51.5219913],[-0.2267339,51.5223521],[-0.2267315,51.5224006],[-0.2267308,51.5224191],[-0.2267192,51.5226679],[-0.226719,51.5226715],[-0.226711,51.5228431],[-0.2267107,51.5228497],[-0.2267026,51.5230228],[-0.2267024,51.5230272],[-0.2266941,51.523207],[-0.2266938,51.523212],[-0.2266859,51.5233823],[-0.2266855,51.5233901],[-0.2266785,51.5235406],[-0.2266782,51.5235463],[-0.2266677,51.5237731],[-0.2266653,51.5238249],[-0.2266593,51.5239529],[-0.2266507,51.5241371],[-0.2266505,51.5241414],[-0.2266475,51.5242069],[-0.2266418,51.524326],[-0.22664,51.5243676],[-0.2266338,51.524501],[-0.2266335,51.5245065],[-0.2266201,51.5247942],[-0.227195,51.5247928],[-0.227207,51.5248513],[-0.2272078,51.5248553],[-0.2272719,51.5251677],[-0.22729,51.5252672],[-0.227299,51.5253167],[-0.2273306,51.5255332],[-0.2273753,51.5258397],[-0.2273855,51.5259051],[-0.2273937,51.5259617],[-0.2274178,51.5262477],[-0.2273508,51.5271015],[-0.2273496,51.5272281],[-0.227349,51.5272875],[-0.2273572,51.5275054],[-0.2273601,51.5275326],[-0.227378,51.5277025],[-0.2274121,51.5278914],[-0.2274581,51.5280504],[-0.2274828,51.5281124],[-0.2275078,51.5281754],[-0.2275168,51.5281923],[-0.2275829,51.5283158],[-0.2275901,51.5283294],[-0.2277422,51.5285433],[-0.2278282,51.5286494],[-0.228019,51.5288514],[-0.2282091,51.5290143],[-0.2282651,51.5290749],[-0.228271,51.5290812],[-0.2282831,51.5290966],[-0.2283251,51.5291494],[-0.2283668,51.5292122],[-0.2283948,51.5292638],[-0.2284923,51.5294433],[-0.2286973,51.5298208],[-0.228728,51.5298772],[-0.228657,51.5300276],[-0.22865,51.5300424],[-0.2286424,51.5300583],[-0.2285532,51.5302473],[-0.2285378,51.5302799],[-0.2285044,51.5303504],[-0.2285032,51.530353],[-0.2284857,51.5303459],[-0.2284778,51.5303426],[-0.2283728,51.5302991],[-0.2283119,51.530282],[-0.2282405,51.5302618],[-0.2282324,51.5302595],[-0.2281638,51.5302402],[-0.2281079,51.5302285],[-0.22801,51.5302081],[-0.2278471,51.5301802],[-0.2278392,51.5301793],[-0.2277818,51.5301728],[-0.2277202,51.5301652],[-0.2275913,51.5301543],[-0.2276568,51.5300104],[-0.2276951,51.5299263],[-0.2275732,51.5299356],[-0.2274644,51.5299438],[-0.2272444,51.5299606],[-0.2267233,51.5300002],[-0.2266583,51.5300022],[-0.2264652,51.530008],[-0.226248,51.5300145],[-0.2261528,51.5300173],[-0.2261387,51.5300177],[-0.2260477,51.5300205],[-0.2254544,51.5300382],[-0.2254541,51.5300447],[-0.2254496,51.5301443],[-0.2254491,51.5301549],[-0.2254475,51.5301692],[-0.2250182,51.5301352],[-0.2250016,51.5301335],[-0.2247685,51.5301098],[-0.2247583,51.5301088],[-0.2247091,51.5301038],[-0.2246511,51.5300979],[-0.2245272,51.5300853],[-0.2244923,51.5300807],[-0.2244644,51.5300769],[-0.2244496,51.530075],[-0.2243666,51.5300639],[-0.2243263,51.5300585],[-0.2242804,51.5300524],[-0.2242336,51.5300462],[-0.2239622,51.5300044],[-0.2239539,51.5300032],[-0.2237786,51.5299762],[-0.2237457,51.5299698],[-0.223727,51.5299661],[-0.2236599,51.5299531],[-0.2235042,51.5299167],[-0.2235034,51.5299165],[-0.2234173,51.5298965],[-0.2233645,51.5298842],[-0.2232545,51.529853],[-0.2231498,51.5298232],[-0.2229737,51.5297732],[-0.222828,51.5297255],[-0.2228154,51.5297213],[-0.2228104,51.5297194],[-0.2226915,51.5296734],[-0.2224574,51.5295642],[-0.2224384,51.5295553],[-0.2223792,51.529532],[-0.2223671,51.5295272],[-0.2222964,51.5294994],[-0.2222528,51.5294863],[-0.2222123,51.5294741],[-0.2221528,51.5294563],[-0.2220827,51.5294353],[-0.2217383,51.5293482],[-0.2216945,51.5293371],[-0.2216775,51.5293328],[-0.2215747,51.5293068],[-0.2215219,51.5292934],[-0.2213334,51.5292534],[-0.22128,51.529242],[-0.2212395,51.5292334],[-0.2212214,51.5292306],[-0.2209755,51.5291929],[-0.2208418,51.5291724],[-0.2207169,51.52915],[-0.2206358,51.5291354],[-0.2205424,51.5291187],[-0.2205195,51.5291146],[-0.2204389,51.5291001],[-0.2202919,51.5290737],[-0.2200719,51.5290343],[-0.2200621,51.5290325],[-0.2198254,51.5289903],[-0.2197623,51.5289787],[-0.2197169,51.5289706],[-0.2197045,51.5289684],[-0.2193522,51.5289051],[-0.2192718,51.5288907],[-0.2190589,51.5288525],[-0.2190395,51.5288495],[-0.2189802,51.5288404],[-0.218926,51.528832],[-0.2188021,51.5288129],[-0.2187141,51.5287994],[-0.2186775,51.5287922],[-0.2186551,51.5287878],[-0.2186394,51.5287848],[-0.2184327,51.5287443],[-0.2182613,51.5287107],[-0.2182188,51.5287002],[-0.2181725,51.5286886],[-0.2179801,51.5286406],[-0.2179649,51.5286362],[-0.2179606,51.528635],[-0.2178651,51.5286077],[-0.2178406,51.5286007],[-0.217835,51.5285991],[-0.2177998,51.528589],[-0.2176111,51.528535],[-0.2175433,51.5285156],[-0.2174045,51.5284759],[-0.2173332,51.5284555],[-0.2173099,51.5284475],[-0.2171391,51.5283889],[-0.2170682,51.5283645],[-0.2170615,51.5283618],[-0.2167972,51.5282544],[-0.2166815,51.5282074],[-0.2166656,51.5282009],[-0.2166038,51.5281739],[-0.216397,51.5280836],[-0.2163922,51.5280815],[-0.2163164,51.5280493],[-0.2163086,51.528046],[-0.2162186,51.5280077],[-0.2161823,51.5279923],[-0.2160747,51.5279466],[-0.2160472,51.5279349],[-0.2160301,51.5279282],[-0.2160111,51.5279201],[-0.215985,51.5279098],[-0.2159792,51.5279075],[-0.215967,51.5279027],[-0.2159467,51.5278947],[-0.2159155,51.5278823],[-0.2158984,51.5278756],[-0.2158505,51.5278566],[-0.2158327,51.5278528],[-0.2157756,51.5278406],[-0.2157799,51.5278345],[-0.2157876,51.5278242],[-0.2157905,51.5278202],[-0.215797,51.5278114],[-0.2158373,51.5277569],[-0.2158895,51.5276864],[-0.2158915,51.5276837],[-0.2159057,51.5276615],[-0.2159088,51.5276566],[-0.2159298,51.527622],[-0.215953,51.5275836],[-0.2159388,51.5275129],[-0.2159323,51.5274807],[-0.2158917,51.5274111],[-0.215873,51.527379],[-0.2158497,51.5273391],[-0.2158397,51.5273219],[-0.2158165,51.5272822],[-0.2158151,51.5272796],[-0.2157554,51.5271772],[-0.2157241,51.5271237],[-0.2156952,51.5270642],[-0.2156864,51.5270459],[-0.2156804,51.5270336],[-0.215632,51.5269342],[-0.2155605,51.5268139],[-0.2155528,51.5268027],[-0.2155251,51.5267565],[-0.2155134,51.5267369],[-0.2155071,51.526737],[-0.2153744,51.5267513],[-0.215223,51.5267675],[-0.2151706,51.5267733],[-0.215129,51.5267778],[-0.2149293,51.5268037],[-0.2148847,51.5268095],[-0.2148523,51.5268137],[-0.2148403,51.5268153],[-0.2145135,51.5268576],[-0.21428,51.5268685],[-0.2141598,51.5268741],[-0.2139397,51.5268842],[-0.2138854,51.5268867],[-0.2137666,51.5268927],[-0.2137564,51.5268932],[-0.2136626,51.5268979],[-0.2135012,51.5269059],[-0.2134404,51.5269089],[-0.2133826,51.5269118],[-0.2130805,51.5269029],[-0.2129703,51.5268997],[-0.2128231,51.5268953],[-0.2127201,51.5268923],[-0.2127036,51.5268918],[-0.2126884,51.5268908],[-0.2126234,51.5268868],[-0.2125824,51.5268843],[-0.2125276,51.5268809],[-0.2123575,51.5268703],[-0.212327,51.5268684],[-0.2123165,51.5268678],[-0.2122057,51.5268613],[-0.2121574,51.5268585],[-0.2118326,51.5268378],[-0.2117387,51.5268289],[-0.2117317,51.5268282],[-0.2116088,51.5268167],[-0.2110377,51.5267628],[-0.2109068,51.5267515],[-0.2106196,51.5267263],[-0.2105559,51.5267207],[-0.2104883,51.5267148],[-0.2102187,51.5266913],[-0.2102138,51.5266908],[-0.2101024,51.5266759],[-0.210043,51.5266679],[-0.2099615,51.5266569],[-0.2099547,51.526656],[-0.2097567,51.5266294],[-0.2096554,51.5266158],[-0.2096384,51.5266132],[-0.2096226,51.5266108],[-0.2094794,51.5265888],[-0.2093318,51.5265662],[-0.2092279,51.5265502],[-0.2091238,51.5265343],[-0.2091023,51.526531],[-0.2090263,51.5265193],[-0.2089712,51.5265108],[-0.2089044,51.526496],[-0.2087884,51.5264703],[-0.2087136,51.5264538],[-0.2086184,51.5264327],[-0.2085779,51.5264237],[-0.2083985,51.526384],[-0.2083307,51.526369],[-0.2083219,51.5263673],[-0.2083091,51.5263648],[-0.2081251,51.526329],[-0.2080991,51.526324],[-0.2080347,51.5263146],[-0.2079972,51.5263092],[-0.207814,51.5262826],[-0.2077766,51.5262837],[-0.2077331,51.526285],[-0.2076787,51.5262859],[-0.2076709,51.526286],[-0.2076351,51.5262859],[-0.2076078,51.5262859],[-0.2075847,51.5262851],[-0.2075457,51.5262839],[-0.2074959,51.5262824],[-0.2074845,51.526282],[-0.2074667,51.5262808],[-0.2074225,51.526278],[-0.2074058,51.5262769],[-0.2073892,51.5262758],[-0.2073596,51.5262739],[-0.2073514,51.5262729],[-0.2073104,51.526268],[-0.2073059,51.526268],[-0.2072376,51.526261],[-0.207164,51.5262514],[-0.207091,51.5262401],[-0.2070754,51.5262377],[-0.2070029,51.5262239],[-0.2069551,51.5262143],[-0.2069287,51.526209],[-0.2069213,51.5262072],[-0.2068565,51.5261909],[-0.2067833,51.5261729],[-0.206712,51.526154],[-0.2066425,51.526133],[-0.2065633,51.526109],[-0.2065072,51.526091],[-0.2064618,51.526076],[-0.2064183,51.526061],[-0.2063739,51.526045],[-0.2063321,51.5260289],[-0.2062896,51.526012],[-0.206247,51.525994],[-0.206201,51.5259721],[-0.2061551,51.5259491],[-0.2061172,51.525928],[-0.2060898,51.5259124],[-0.2060798,51.5259068],[-0.2060432,51.525885],[-0.206008,51.5258621],[-0.2059896,51.5258494],[-0.2059805,51.5258431],[-0.2059747,51.5258391],[-0.2059414,51.5258151],[-0.2058774,51.5257545],[-0.2058701,51.5257476],[-0.2058637,51.5257415],[-0.2058443,51.5257231],[-0.205774,51.5256564],[-0.2056469,51.5255361],[-0.2054982,51.5253626],[-0.2054834,51.5253453],[-0.2054715,51.5253314],[-0.2054336,51.5252872],[-0.2054262,51.5252785],[-0.2054237,51.5252756],[-0.2054082,51.5252575],[-0.2054002,51.5252481],[-0.205351,51.5251908],[-0.2053467,51.5251857],[-0.2052562,51.5250802],[-0.2052266,51.5250456],[-0.2052062,51.5250218],[-0.2051902,51.5250031],[-0.2051473,51.524953],[-0.2050983,51.5248712],[-0.205057,51.5248036],[-0.2050489,51.5247904],[-0.2050212,51.5247451],[-0.2050054,51.5247214],[-0.2049636,51.5246587],[-0.2049387,51.5246212],[-0.20492,51.5245945],[-0.2048526,51.5244982],[-0.2048026,51.5244303],[-0.2047968,51.5244224],[-0.2047627,51.5243761],[-0.2047429,51.5243514],[-0.2047401,51.5243478],[-0.2046814,51.5242748],[-0.2046768,51.524269],[-0.2046666,51.5242562],[-0.2046109,51.5241878],[-0.2046055,51.5241812],[-0.2046013,51.524176],[-0.20456,51.5241252],[-0.2045503,51.5241135],[-0.204546,51.5241083],[-0.2045144,51.5240703],[-0.2044661,51.5240153],[-0.2044187,51.5239613],[-0.2043658,51.5239084],[-0.2043631,51.5239058],[-0.2043605,51.5239034],[-0.2043114,51.5238576],[-0.2042998,51.5238468],[-0.2042432,51.5237963],[-0.2042396,51.5237933],[-0.2042313,51.523786],[-0.204206,51.5237641],[-0.204197,51.5237563],[-0.2041481,51.5237163],[-0.2040992,51.5236784],[-0.204072,51.5236578],[-0.2040475,51.5236393],[-0.204025,51.5236228],[-0.2039959,51.5236013],[-0.2039868,51.5235952],[-0.2039545,51.5235735],[-0.2039423,51.5235654],[-0.2039377,51.5235624],[-0.2039212,51.5235516],[-0.203887,51.5235294],[-0.2038731,51.5235211],[-0.2038606,51.5235137],[-0.2038425,51.5235029],[-0.2038298,51.5234954],[-0.203821,51.5234901],[-0.2037931,51.5234733],[-0.2037717,51.5234603],[-0.2037302,51.5234383],[-0.2037176,51.523432],[-0.2036366,51.5233914],[-0.2035945,51.5233723],[-0.2035392,51.5233463],[-0.2034788,51.5233206],[-0.2034663,51.5233152],[-0.2034409,51.5233044],[-0.2033388,51.5232641],[-0.2032619,51.5232356],[-0.2032502,51.5232313],[-0.2032367,51.5232263],[-0.2032215,51.5232207],[-0.2032068,51.5232153],[-0.2032024,51.5232136],[-0.2031275,51.5231859],[-0.2030237,51.5231503],[-0.2030182,51.5231484],[-0.202953,51.523127],[-0.2029114,51.5231133],[-0.2028434,51.5230926],[-0.2028314,51.5230889],[-0.2028037,51.5230805],[-0.2027626,51.5230682],[-0.202696,51.5230483],[-0.2026324,51.5230313],[-0.2025845,51.5230185],[-0.2025414,51.5230067],[-0.2024037,51.5229688],[-0.2023614,51.5229572],[-0.2023021,51.5229409],[-0.2015845,51.5227437],[-0.2015133,51.5224208],[-0.2015003,51.5223617],[-0.2014861,51.5222974],[-0.2015082,51.522173],[-0.2015133,51.5221446],[-0.2015183,51.5221167],[-0.2015293,51.5220559],[-0.2015368,51.5220141],[-0.2015382,51.5220062],[-0.2015412,51.5219896],[-0.2014668,51.5219061],[-0.2014028,51.5218342],[-0.2013813,51.52181],[-0.201333,51.5217559],[-0.201247,51.5216593],[-0.2012358,51.5216467],[-0.2012158,51.5216243],[-0.2011509,51.5215517],[-0.2011029,51.5214976],[-0.2010763,51.5214642],[-0.2010594,51.5214432],[-0.2010097,51.5213812],[-0.2007168,51.5210157],[-0.2005976,51.5208665],[-0.2005346,51.5207879],[-0.2005442,51.5207655],[-0.2005947,51.5206493],[-0.2007717,51.5206792],[-0.2008029,51.5206846],[-0.2008251,51.520781],[-0.2008257,51.5207836],[-0.200924,51.5207882],[-0.2010597,51.5207945],[-0.2012978,51.5208056],[-0.201357,51.5208107],[-0.2015053,51.5208217],[-0.201623,51.5208287],[-0.2016318,51.5208292],[-0.2016553,51.5208306],[-0.2017336,51.5208346],[-0.201846,51.5208386],[-0.2019576,51.5208426],[-0.2020702,51.5208436],[-0.2021206,51.5208437],[-0.2021441,51.5208437],[-0.2021547,51.5208437],[-0.2022044,51.5208437],[-0.2022666,51.5208422],[-0.2022873,51.5208417],[-0.2023703,51.5208386],[-0.2024363,51.5208355],[-0.2024534,51.5208347],[-0.2024644,51.5208338],[-0.2025139,51.5208297],[-0.2025953,51.5208237],[-0.2026428,51.5208191],[-0.2026545,51.520818],[-0.2026785,51.5208157],[-0.2027608,51.5208057],[-0.203003,51.5207509],[-0.2031099,51.5207268],[-0.2031307,51.5207215],[-0.20314,51.5207191],[-0.2033724,51.5206602],[-0.2035321,51.5206197],[-0.2035885,51.5206057],[-0.2036766,51.5205837],[-0.2035363,51.5204358],[-0.2035115,51.5204097],[-0.2034584,51.5203187],[-0.2034244,51.5202072],[-0.203419,51.5201896],[-0.2034182,51.520187],[-0.2034106,51.5201621],[-0.2033914,51.5200988],[-0.2033785,51.5200691],[-0.2033644,51.5200368],[-0.2033631,51.5200338],[-0.2033343,51.5199677],[-0.2033232,51.519947],[-0.2033172,51.5199359],[-0.2032804,51.5198679],[-0.2032523,51.5198257],[-0.2032339,51.519798],[-0.2032044,51.5197559],[-0.203189,51.5197373],[-0.2031633,51.5197063],[-0.2030397,51.5195572],[-0.2030083,51.519519],[-0.2029865,51.5194927],[-0.2029831,51.5194886],[-0.20297,51.5194728],[-0.202877,51.5193742],[-0.2028567,51.5193527],[-0.2028196,51.5193134],[-0.2027597,51.5192499],[-0.2027554,51.5192453],[-0.202745,51.5192343],[-0.2026666,51.5191512],[-0.2026198,51.5191016],[-0.2026009,51.5190816],[-0.202577,51.5190563],[-0.2025515,51.5190292],[-0.2025289,51.5190053],[-0.2024709,51.5189438],[-0.2024051,51.5188741],[-0.2023957,51.5188641],[-0.2023876,51.5188555],[-0.2023794,51.5188468],[-0.2023618,51.5188261],[-0.2023406,51.5188011],[-0.2023294,51.5187879],[-0.2023153,51.5187713],[-0.2022698,51.5187177],[-0.2022408,51.5186835],[-0.2022247,51.5186645],[-0.2021825,51.5186148],[-0.2021461,51.5185719],[-0.202115,51.5185353],[-0.2020952,51.5185119],[-0.2020672,51.518479],[-0.2020268,51.5184314],[-0.2019966,51.5183958],[-0.2019856,51.5183829],[-0.2019754,51.5183709],[-0.2019383,51.5183271],[-0.2019241,51.5183104],[-0.2018643,51.5182405],[-0.2018625,51.5182379],[-0.2017975,51.5181613],[-0.2017266,51.5180777],[-0.2017091,51.5180571],[-0.2016962,51.5180419],[-0.201564,51.5178861],[-0.2015152,51.5178287],[-0.2014878,51.5177987],[-0.2014518,51.5178071],[-0.2013891,51.5178223],[-0.2012632,51.5178527],[-0.2012523,51.5178553],[-0.2012159,51.5178641],[-0.2011933,51.5178696],[-0.2010829,51.5178962],[-0.2010727,51.5178987],[-0.2010573,51.5179024],[-0.201032,51.5179085],[-0.2010148,51.5179127],[-0.2009194,51.5179358],[-0.2008301,51.5179573],[-0.2007753,51.5179706],[-0.2007487,51.5179767],[-0.2006479,51.5178348],[-0.2006429,51.5178278],[-0.2006011,51.517769],[-0.2005897,51.517753],[-0.2005669,51.5177209],[-0.2005588,51.5177095],[-0.2004899,51.5176125],[-0.2004825,51.5176028],[-0.2004794,51.5175977],[-0.2004346,51.5175347],[-0.2004099,51.5175],[-0.2003814,51.5174599],[-0.2003533,51.5174204],[-0.2003179,51.5173706],[-0.2002889,51.5173297],[-0.2002736,51.5173082],[-0.2002181,51.5172301],[-0.2002119,51.5172214],[-0.2001898,51.5171903],[-0.2001748,51.5171693],[-0.2001589,51.5171469],[-0.2001466,51.5171295],[-0.2001227,51.5170958],[-0.2001103,51.5170785],[-0.2000941,51.5170556],[-0.1999854,51.5169028],[-0.1999546,51.5168594],[-0.1999463,51.5168482],[-0.1999388,51.5168372],[-0.1999336,51.5168298],[-0.1999184,51.5168085],[-0.1998954,51.5167762],[-0.1998546,51.5166454],[-0.1998437,51.5166085],[-0.199815,51.5165153],[-0.1998129,51.5165085],[-0.1998059,51.5164859],[-0.1998025,51.5164748],[-0.1997846,51.5164167],[-0.1997817,51.5164076],[-0.1997784,51.5163967],[-0.1997764,51.5163902],[-0.1997633,51.5163479],[-0.1997616,51.5163424],[-0.199752,51.5163112],[-0.1997508,51.5163073],[-0.1997441,51.5162856],[-0.1997352,51.5162566],[-0.1997253,51.5162246],[-0.1997239,51.5162199],[-0.1997228,51.5162163],[-0.19972,51.5162075],[-0.1997106,51.5161767],[-0.1996862,51.5160977],[-0.1996718,51.5160511],[-0.1996621,51.5160197],[-0.1996411,51.5159517],[-0.1996349,51.5159314],[-0.1996189,51.5158796],[-0.19961,51.5158506],[-0.1996063,51.5158386],[-0.1996043,51.5158323],[-0.1995993,51.5158161],[-0.1995896,51.5157844],[-0.1995741,51.5157343],[-0.1995631,51.5156985],[-0.1995531,51.5156662],[-0.1995473,51.5156473],[-0.1995417,51.5156293],[-0.1995277,51.5155838],[-0.1995154,51.5155439],[-0.1995119,51.5155358],[-0.1995092,51.5155291],[-0.1994676,51.5153941],[-0.1994398,51.5153041],[-0.1994382,51.515299],[-0.1994337,51.5152831],[-0.199417,51.5152248],[-0.1994094,51.5152002],[-0.1993953,51.5151545],[-0.1993945,51.515152],[-0.1993821,51.5151118],[-0.1993806,51.5151067],[-0.1993659,51.5150591],[-0.1993634,51.5150511],[-0.1993556,51.5150257],[-0.1993488,51.5150036],[-0.1993427,51.5149838],[-0.1993365,51.5149639],[-0.1993319,51.5149489],[-0.1993289,51.514939],[-0.1993278,51.5149357],[-0.1992836,51.5147902],[-0.1992103,51.5145515],[-0.1991252,51.5145614],[-0.1990962,51.5145648],[-0.1989737,51.5145792],[-0.1989574,51.5145811],[-0.1987529,51.5146051],[-0.1987391,51.5146067],[-0.1986879,51.5146127],[-0.1986111,51.5146218],[-0.1985577,51.514628],[-0.1985401,51.5146301],[-0.1985098,51.5146336],[-0.1984907,51.5146359],[-0.1984841,51.5146367],[-0.1984006,51.5146465],[-0.1983687,51.5146502],[-0.1982486,51.5146643],[-0.1981929,51.5146708],[-0.1981264,51.5146787],[-0.1980865,51.5146833],[-0.1980745,51.5146848],[-0.1980155,51.5146917],[-0.1978592,51.51471],[-0.1978473,51.5147114],[-0.1977918,51.5147179],[-0.1977514,51.5147227],[-0.1976981,51.5147289],[-0.1974982,51.5147524],[-0.1974932,51.514753],[-0.1974745,51.5147552],[-0.1973486,51.51477],[-0.1973418,51.5147708],[-0.1973158,51.5147738],[-0.1971781,51.51479],[-0.1971557,51.5147926],[-0.1971364,51.5147951],[-0.1970438,51.5148058],[-0.1967758,51.5148372],[-0.1967239,51.5148433],[-0.1966695,51.5148497],[-0.1966102,51.5148566],[-0.1965881,51.5148593],[-0.1964587,51.5148744],[-0.1964341,51.5148773],[-0.1963836,51.5148833],[-0.1962816,51.5148952],[-0.1962439,51.5148996],[-0.196223,51.5149021],[-0.1961136,51.5149149],[-0.1960436,51.5149232],[-0.1959587,51.5149331],[-0.1958397,51.5149471],[-0.1957851,51.5149535],[-0.1957687,51.5149554],[-0.195573,51.5149768],[-0.1955059,51.5149849],[-0.1954861,51.514987],[-0.195316,51.5150058],[-0.1951949,51.5150191],[-0.1950763,51.5150316],[-0.1950722,51.5150315],[-0.1950687,51.5150198],[-0.1950671,51.5150146],[-0.1950583,51.514986],[-0.1950426,51.5149344],[-0.1950312,51.5148966],[-0.195028,51.5148863],[-0.195012,51.5148333],[-0.1949461,51.514616],[-0.1949193,51.5145274],[-0.1949166,51.5145188],[-0.1948787,51.5143936],[-0.1948761,51.5143849],[-0.1948548,51.5143148],[-0.1948512,51.514303],[-0.1948322,51.5142401],[-0.1948199,51.5141997],[-0.1948141,51.5141804],[-0.1947694,51.514033],[-0.1947479,51.5139621],[-0.1947403,51.5139369],[-0.1947388,51.5139318],[-0.1947242,51.5138838],[-0.1947195,51.5138684],[-0.1947039,51.513817],[-0.1946932,51.5137816],[-0.1946834,51.5137492],[-0.1946767,51.5137272],[-0.1946724,51.5137131],[-0.194652,51.5136454],[-0.1946411,51.5136097],[-0.1946283,51.5135674],[-0.1946221,51.513547],[-0.1946189,51.5135364],[-0.1946173,51.5135312],[-0.1946132,51.5135174],[-0.1946033,51.5134851],[-0.194597,51.5134643],[-0.1945784,51.5134028],[-0.1945646,51.5133581],[-0.1945517,51.5133147],[-0.1945329,51.5132525],[-0.1945298,51.5132425],[-0.1945187,51.5132058],[-0.1945119,51.5131835],[-0.1945041,51.5131575],[-0.1944959,51.5131305],[-0.1944915,51.5131161],[-0.1944722,51.5130523],[-0.1944568,51.5130014],[-0.1944484,51.5129737],[-0.1944408,51.5129486],[-0.1944362,51.5129336],[-0.1944217,51.5128857],[-0.1943919,51.5127875],[-0.1943809,51.512751],[-0.1943771,51.5127383],[-0.1943683,51.5127127],[-0.1943626,51.5126916],[-0.1942699,51.5124007],[-0.1942516,51.5123434],[-0.194248,51.5123321],[-0.1941935,51.5121609],[-0.1941569,51.5120459],[-0.1941528,51.5120332],[-0.1941505,51.512026],[-0.1941091,51.511896],[-0.1941038,51.5118792],[-0.1940988,51.5118635],[-0.1940831,51.5118145],[-0.1940648,51.5117568],[-0.1939224,51.5117342],[-0.193748,51.5117066],[-0.1936676,51.5116938],[-0.1936548,51.5116918],[-0.1936178,51.5116985],[-0.1935868,51.5117041],[-0.1934816,51.5117231],[-0.1934635,51.5117264],[-0.1934245,51.5117334],[-0.1933859,51.5117404],[-0.1933807,51.5117414],[-0.1933689,51.5117435],[-0.1933377,51.5117491],[-0.1931021,51.5117918],[-0.1929853,51.5118129],[-0.1929622,51.5117594],[-0.1928948,51.5116033],[-0.1928698,51.5115455],[-0.1928591,51.5115206],[-0.1928427,51.5114826],[-0.1928383,51.5114725],[-0.1928241,51.5114395],[-0.1927888,51.5113579],[-0.1927684,51.5113107],[-0.1927584,51.5112876],[-0.1927465,51.5112599],[-0.1927435,51.5112531],[-0.1927406,51.5112462],[-0.1927121,51.5111803],[-0.1926779,51.5111012],[-0.1926395,51.5110134],[-0.192638,51.5110088],[-0.1926247,51.5109779],[-0.1926013,51.5109239],[-0.1925863,51.5108891],[-0.1925812,51.5108772],[-0.1925706,51.5108526],[-0.1925473,51.5107988],[-0.1925358,51.510772],[-0.1925291,51.5107566],[-0.1925271,51.5107519],[-0.1925069,51.5107051],[-0.1925012,51.5106921],[-0.1924998,51.5106887],[-0.1924883,51.510662],[-0.1924801,51.5106431],[-0.192478,51.5106382],[-0.1924483,51.5105696],[-0.192446,51.5105641],[-0.1924281,51.5105227],[-0.1924194,51.5105026],[-0.1924068,51.5104735],[-0.1923906,51.510436],[-0.1923823,51.5104166],[-0.1923801,51.5104115],[-0.1923767,51.5104038],[-0.192352,51.5103465],[-0.1923473,51.5103357],[-0.1923463,51.5103332],[-0.1923404,51.5103197],[-0.1923319,51.5103],[-0.1923228,51.510279],[-0.1923205,51.5102736],[-0.192315,51.5102609],[-0.1923061,51.5102403],[-0.1922905,51.5102041],[-0.1922729,51.5101635],[-0.1921768,51.509941],[-0.1921486,51.5098757],[-0.1921448,51.5098682],[-0.192047,51.5098849],[-0.1919832,51.5098959],[-0.1918741,51.5099145],[-0.1918054,51.5099263],[-0.1917246,51.5099401],[-0.1915775,51.5099549],[-0.1913497,51.5099779],[-0.1911535,51.5099976],[-0.191146,51.5099984],[-0.191068,51.5100062],[-0.1910398,51.510009],[-0.1909762,51.5100154],[-0.1909544,51.5100168],[-0.1909374,51.5100186],[-0.1908996,51.5100203],[-0.190858,51.510023],[-0.1908246,51.5100246],[-0.190618,51.5100342],[-0.1904853,51.5100404],[-0.1902353,51.5100521],[-0.1900835,51.5100592],[-0.1900637,51.5100601],[-0.1900581,51.5100604],[-0.1900398,51.5100612],[-0.1897736,51.5100737],[-0.1897206,51.5100762],[-0.1896349,51.5100822],[-0.1896215,51.5100831],[-0.1894288,51.5100966],[-0.1893933,51.5100991],[-0.1892127,51.5101117],[-0.1891513,51.510116],[-0.1889968,51.5101269],[-0.1889904,51.5101273],[-0.1889784,51.5101281],[-0.1889734,51.5101285],[-0.1889423,51.5101307],[-0.1889369,51.5101311],[-0.1889209,51.5101322],[-0.188906,51.5101332],[-0.1886017,51.5101545],[-0.1885632,51.5101572],[-0.188522,51.5101586],[-0.1883196,51.5101657],[-0.1882977,51.5101665],[-0.1879789,51.5101776],[-0.1879349,51.510179],[-0.1870424,51.5081345],[-0.186884,51.5077714],[-0.1862986,51.5064342],[-0.1856231,51.5048908],[-0.1855681,51.5047647],[-0.1852451,51.5040241],[-0.1851559,51.5038196],[-0.1844106,51.5021111],[-0.1843033,51.501882],[-0.1842616,51.501793],[-0.1841692,51.5017745],[-0.1840801,51.5017573],[-0.1837967,51.5017028],[-0.1837247,51.501689],[-0.1831411,51.5015767],[-0.1830816,51.5015652],[-0.1830766,51.5015645],[-0.1826492,51.5015031],[-0.1826151,51.5014982],[-0.1825877,51.5014954],[-0.1825448,51.501491],[-0.1825348,51.50149],[-0.1824743,51.5014839],[-0.1824353,51.50148],[-0.1824088,51.5014773],[-0.1822805,51.5014665],[-0.1820632,51.5014482],[-0.181967,51.5014418],[-0.1818858,51.5014364],[-0.1818701,51.5014353],[-0.1816842,51.501423],[-0.1816573,51.5014212],[-0.1815239,51.5014251],[-0.1815101,51.5014255],[-0.1814825,51.5014263],[-0.181461,51.5014269],[-0.1813795,51.5014292],[-0.1813751,51.5014294],[-0.1813705,51.5014293],[-0.1813266,51.5014285],[-0.1811187,51.5014246],[-0.1811097,51.5014248],[-0.1809313,51.5014216],[-0.1807029,51.5014367],[-0.1804261,51.5014549],[-0.180413,51.5014559],[-0.1803406,51.5014606],[-0.1803363,51.5014608],[-0.180335,51.5014547],[-0.180318,51.5013741],[-0.180287,51.501227],[-0.1802698,51.5011455],[-0.1802573,51.5010862],[-0.180231,51.5009614],[-0.1802216,51.5009168],[-0.1801904,51.5007688],[-0.1801802,51.5007209],[-0.1801634,51.5006409],[-0.1801605,51.5006275],[-0.1801522,51.5005882],[-0.180144,51.5005489],[-0.1801395,51.5005276],[-0.1801378,51.5005196],[-0.1801285,51.5004755],[-0.1801279,51.5004729],[-0.180114,51.5004069],[-0.1801099,51.5003873],[-0.180091,51.5002977],[-0.1800744,51.5002191],[-0.1800719,51.5002071],[-0.1800417,51.5000642],[-0.1800053,51.4998913],[-0.1800035,51.4998827],[-0.1800004,51.4998683],[-0.1799976,51.4998552],[-0.1799888,51.4998134],[-0.1799605,51.4996788],[-0.1799584,51.4996692],[-0.1799543,51.4996494],[-0.1799451,51.4996059],[-0.1799432,51.4995972],[-0.1799391,51.4995774],[-0.1799228,51.4995004],[-0.1799138,51.4994576],[-0.1799132,51.4994549],[-0.1799056,51.4994188],[-0.1799035,51.4994087],[-0.1799021,51.499402],[-0.1798869,51.49933],[-0.179861,51.4992074],[-0.1798581,51.4991935],[-0.1798546,51.4991769],[-0.1798015,51.4989252],[-0.1797958,51.4988984],[-0.1797886,51.4988641],[-0.1797852,51.4988481],[-0.1797509,51.4986855],[-0.1797167,51.498513],[-0.1797121,51.49849],[-0.1797049,51.4984538],[-0.1796792,51.498324],[-0.1796693,51.4982744],[-0.1796631,51.4982432],[-0.1796408,51.4981307],[-0.1796057,51.4979537],[-0.1796036,51.4979431],[-0.1796011,51.4979306],[-0.1795819,51.4978337],[-0.1795709,51.4977786],[-0.1794525,51.4977874],[-0.1785694,51.4978524],[-0.178554,51.4978536],[-0.1776564,51.4979197],[-0.1773209,51.4979444],[-0.1773011,51.4979458],[-0.1763356,51.4980169],[-0.1762936,51.49802],[-0.1758367,51.4980537],[-0.1756747,51.4980656],[-0.1749153,51.4981215],[-0.1744538,51.4981555],[-0.1741181,51.4981802],[-0.1741113,51.4981807],[-0.1737549,51.498207],[-0.1735671,51.4982209],[-0.1735617,51.4982763],[-0.1735615,51.4982789],[-0.1735595,51.4982998],[-0.1735272,51.4983025],[-0.1734148,51.498312],[-0.1732928,51.4983223],[-0.1731999,51.4983302],[-0.173113,51.4983376],[-0.1730825,51.4983401],[-0.1730617,51.4983419],[-0.1729025,51.4983554],[-0.1728926,51.4983562],[-0.1727189,51.4983709],[-0.1727148,51.4983713],[-0.1726863,51.4983737],[-0.1726176,51.4983795],[-0.1725997,51.498381],[-0.1725818,51.4983825],[-0.1725408,51.498386],[-0.1724842,51.4983913],[-0.172479,51.4984251],[-0.1724731,51.4984625],[-0.1724724,51.4984676],[-0.1722085,51.4984936],[-0.1722034,51.4984941],[-0.1721854,51.4984958],[-0.1721589,51.4984983],[-0.1721476,51.4984994],[-0.1720807,51.4985057],[-0.1720476,51.4985088],[-0.1719344,51.4985195],[-0.1718353,51.4985292],[-0.1718092,51.4985313],[-0.1718051,51.4985317],[-0.1718024,51.4985847],[-0.1718011,51.4986068],[-0.1716511,51.4986464],[-0.1715715,51.4986675],[-0.1714991,51.4986867],[-0.1714504,51.4986923],[-0.1714362,51.4986939],[-0.171333,51.4987059],[-0.1712677,51.4987135],[-0.1712305,51.4987178],[-0.1711867,51.4987229],[-0.1710923,51.4987338],[-0.1709697,51.4987481],[-0.1709005,51.4987561],[-0.1708323,51.498764],[-0.1706611,51.4987839],[-0.1706571,51.4987843],[-0.1705549,51.4987962],[-0.1705425,51.4987976],[-0.1705326,51.4987988],[-0.1704434,51.4988091],[-0.1704266,51.498811],[-0.1703088,51.4988247],[-0.1702183,51.4988352],[-0.1702075,51.4988365],[-0.1701651,51.4988414],[-0.1700909,51.49885],[-0.1700831,51.4988509],[-0.1699742,51.4988635],[-0.16997,51.498864],[-0.1696454,51.4989017],[-0.1696305,51.4989033],[-0.169559,51.49891],[-0.1695492,51.498911],[-0.1694089,51.4989245],[-0.1692343,51.4989414],[-0.1691797,51.4989467],[-0.1691268,51.4989518],[-0.1691163,51.4989529],[-0.1691111,51.4989534],[-0.1689717,51.4989669],[-0.1689,51.4989738],[-0.1688923,51.4989745],[-0.1688782,51.4989759],[-0.1687909,51.4989845],[-0.1686172,51.4990012],[-0.1685366,51.4990089],[-0.1685288,51.4990097],[-0.1684817,51.4990143],[-0.1684749,51.4990149],[-0.1684151,51.4990207],[-0.1683936,51.4990183],[-0.1683784,51.4990165],[-0.1683503,51.4990134],[-0.1683461,51.4990129],[-0.1683301,51.4990111],[-0.1683165,51.4990095],[-0.1682035,51.4989968],[-0.1681189,51.4989329],[-0.1681146,51.4989302],[-0.1680523,51.4988827],[-0.1680504,51.498877],[-0.1680434,51.4988562],[-0.1680424,51.498853],[-0.1680253,51.4988022],[-0.1680237,51.4987973],[-0.1680165,51.4987758],[-0.1680144,51.4987697],[-0.1680112,51.4987602],[-0.1680089,51.4987533],[-0.1680043,51.4987395],[-0.1679989,51.4987234],[-0.1679961,51.498715],[-0.167994,51.4987088],[-0.167992,51.4987029],[-0.1679908,51.4986992],[-0.1679898,51.4986962],[-0.1679675,51.49863],[-0.1679658,51.4986249],[-0.1679598,51.4986069],[-0.1679571,51.4985988],[-0.16795,51.4985779],[-0.1679489,51.4985745],[-0.1679471,51.4985691],[-0.1679405,51.4985495],[-0.1679309,51.4985209],[-0.1679283,51.4985188],[-0.1679182,51.498511],[-0.1678945,51.4984927],[-0.1678486,51.4984571],[-0.1677752,51.4984003],[-0.1676707,51.4983195],[-0.1676661,51.4983159],[-0.1676447,51.4983001],[-0.1676346,51.4983053],[-0.1675112,51.4983684],[-0.1674791,51.4983847],[-0.1674413,51.498404],[-0.1674251,51.4984123],[-0.1674214,51.4984142],[-0.1673942,51.4984281],[-0.167376,51.4984374],[-0.1673164,51.4984679],[-0.1673086,51.4984719],[-0.1673033,51.4984746],[-0.1672742,51.4984895],[-0.1672662,51.4984935],[-0.1672154,51.4985195],[-0.1672118,51.4985213],[-0.1671884,51.4985333],[-0.1671759,51.4985397],[-0.1671697,51.4985428],[-0.1671209,51.4985678],[-0.1671168,51.4985698],[-0.1671103,51.4985732],[-0.1670651,51.4985963],[-0.1670619,51.4985979],[-0.1669698,51.498645],[-0.1669077,51.4986767],[-0.1667662,51.498749],[-0.1667444,51.4987601],[-0.1667281,51.4987685],[-0.1665786,51.4988448],[-0.166474,51.4988983],[-0.1664687,51.498901],[-0.1664345,51.4989185],[-0.1664184,51.4989267],[-0.1664122,51.4989299],[-0.1663751,51.4989489],[-0.166345,51.4989642],[-0.1662233,51.4990264],[-0.1662059,51.4990353],[-0.1659822,51.4991496],[-0.1659271,51.4991777],[-0.165913,51.4991849],[-0.1658125,51.4992363],[-0.1658038,51.4992391],[-0.1657836,51.4992036],[-0.1656904,51.499033],[-0.165682,51.4990176],[-0.1656747,51.4990043],[-0.1655824,51.4988354],[-0.1655546,51.4987845],[-0.1655259,51.4987319],[-0.1655224,51.4987269],[-0.1655041,51.4986974],[-0.1654189,51.498743],[-0.1654109,51.4987473],[-0.1653701,51.4987694],[-0.1653076,51.4988032],[-0.1653045,51.4988049],[-0.1652231,51.498849],[-0.1649859,51.4989774],[-0.1649201,51.499013],[-0.1649024,51.4990226],[-0.1648377,51.4990576],[-0.1647375,51.4991118],[-0.1647162,51.4991233],[-0.1645147,51.4992324],[-0.1641977,51.4994043],[-0.1638824,51.4995746],[-0.163878,51.499577],[-0.163837,51.4995992],[-0.1637366,51.4996536],[-0.1635189,51.4997714],[-0.1634211,51.4998243],[-0.1634163,51.4998269],[-0.1632308,51.4999273],[-0.1629426,51.5000833],[-0.1629277,51.5000914],[-0.1628588,51.5001287],[-0.1628444,51.5001377],[-0.1627436,51.500201],[-0.1627084,51.5002231],[-0.1626592,51.500254],[-0.1625992,51.5002917],[-0.1625844,51.5003031],[-0.1625006,51.5003679],[-0.1623678,51.5004706],[-0.1623297,51.5005067],[-0.1622094,51.5006206],[-0.1621536,51.5006735],[-0.1621053,51.5007193],[-0.1620542,51.5007677],[-0.1620205,51.5007997],[-0.1618772,51.5009354],[-0.1618746,51.5009379],[-0.1618139,51.5009954],[-0.1617964,51.501012],[-0.1617879,51.5010201],[-0.1617525,51.5010536],[-0.1617248,51.5010798],[-0.1616834,51.5011191],[-0.1616653,51.5011362],[-0.1616243,51.5011751],[-0.1616062,51.5011922],[-0.161571,51.5012255],[-0.1615171,51.5012659],[-0.1614422,51.5013221],[-0.1614304,51.5013309],[-0.1613454,51.5013945],[-0.1612326,51.5014658],[-0.1611874,51.5014946],[-0.1611472,51.5015179],[-0.1610251,51.5015885],[-0.160944,51.5016288],[-0.1609065,51.5016475],[-0.1608882,51.5016566],[-0.1607819,51.5017025],[-0.1607117,51.5017256],[-0.1606867,51.5017339],[-0.1606761,51.5017374],[-0.1605903,51.5017656],[-0.160489,51.5017896],[-0.1604572,51.5017971],[-0.160073,51.5018883],[-0.1600366,51.501897],[-0.1599594,51.5019153],[-0.1599028,51.5019287],[-0.1598664,51.5019374],[-0.1597884,51.5019559],[-0.1597488,51.5019653],[-0.1595629,51.5020094],[-0.1591746,51.5021015],[-0.1590492,51.5021304],[-0.1588116,51.5021851],[-0.1586592,51.5022202],[-0.1586011,51.5022336],[-0.1585712,51.5022372],[-0.1585419,51.502241],[-0.1585379,51.5022415],[-0.158496,51.5022466],[-0.1584913,51.5022475],[-0.1584753,51.5022488],[-0.1584739,51.5022384],[-0.1584748,51.5022165],[-0.1584753,51.5022051],[-0.1584897,51.5018579],[-0.1584911,51.5018241],[-0.1584952,51.5017253],[-0.1584955,51.5017177],[-0.1585027,51.5015447],[-0.1585032,51.5015148],[-0.1585062,51.5015016],[-0.1585077,51.5014919],[-0.1585119,51.5014755],[-0.1585219,51.5014322],[-0.1585261,51.5014127],[-0.1585261,51.5014078],[-0.1585259,51.501369],[-0.1585259,51.5013623],[-0.1585259,51.5013561],[-0.1585258,51.5013306],[-0.1585236,51.5013127],[-0.1585175,51.5012645],[-0.158517,51.5012603],[-0.1585147,51.501252],[-0.1585009,51.5012042],[-0.1584954,51.5011935],[-0.158459,51.5011226],[-0.1584369,51.5010796],[-0.1584335,51.5010671],[-0.1584325,51.5010637],[-0.1584215,51.5010231],[-0.1583853,51.5008903],[-0.1583825,51.5008798],[-0.1583297,51.500686],[-0.158327,51.5006759],[-0.1583187,51.5006457],[-0.1583141,51.5006287],[-0.1582952,51.5005594],[-0.1582609,51.5004332],[-0.158227,51.5003087],[-0.1582257,51.5003042],[-0.1582241,51.5002979],[-0.15822,51.5002832],[-0.158209,51.5002426],[-0.1581941,51.5001877],[-0.1581427,51.5000003],[-0.1581364,51.4999758],[-0.1581349,51.4999705],[-0.1581332,51.4999643],[-0.1581135,51.4998918],[-0.1580987,51.4998376],[-0.1580834,51.4997812],[-0.1580724,51.499741],[-0.1580713,51.4997367],[-0.1580378,51.4996137],[-0.1580348,51.4996029],[-0.1580232,51.49956],[-0.1579803,51.4994025],[-0.1579219,51.4991883],[-0.1579148,51.4991619],[-0.1579073,51.4991345],[-0.1578755,51.4990178],[-0.1576753,51.4988747],[-0.1576642,51.4988669],[-0.1576259,51.4988397],[-0.1576188,51.4988346],[-0.1576017,51.4988224],[-0.157574,51.4988027],[-0.1573826,51.4986668],[-0.1573722,51.4986594],[-0.157367,51.4986557],[-0.157296,51.4986052],[-0.1572621,51.4985812],[-0.1572406,51.4985659],[-0.157168,51.4985148],[-0.1571038,51.4984696],[-0.1570859,51.498457],[-0.1569784,51.4983813],[-0.1569659,51.4983724],[-0.156816,51.4982668],[-0.1567843,51.4982445],[-0.156713,51.4981943],[-0.1565974,51.4981129],[-0.1565917,51.4981088],[-0.156506,51.4980485],[-0.1565021,51.4980458],[-0.1564972,51.4980423],[-0.1564922,51.4980387],[-0.1564326,51.4979968],[-0.1563786,51.4979587],[-0.1563564,51.4979431],[-0.1563505,51.4979397],[-0.156345,51.4979351],[-0.1563103,51.4979106],[-0.1562326,51.4978559],[-0.1562037,51.4978356],[-0.1561803,51.4978191],[-0.1561746,51.4978151],[-0.1561361,51.4977879],[-0.156098,51.4977611],[-0.1560927,51.4977346],[-0.1560865,51.4977032],[-0.1560738,51.497639],[-0.156071,51.4976249],[-0.1560486,51.4975118],[-0.1560072,51.4973012],[-0.1559871,51.4971986],[-0.155978,51.4971525],[-0.1559696,51.4971097],[-0.1559656,51.4970893],[-0.1559223,51.4968686],[-0.1559157,51.4968347],[-0.155915,51.4968312],[-0.1558987,51.4967484],[-0.1558958,51.4967335],[-0.1558865,51.4966862],[-0.155885,51.4966782],[-0.1558536,51.4965186],[-0.1558472,51.4964858],[-0.1558418,51.4964583],[-0.1558237,51.4963662],[-0.1558137,51.4963149],[-0.1558127,51.4963102],[-0.1558015,51.4962529],[-0.1557921,51.4962048],[-0.1557913,51.496201],[-0.1557903,51.496196],[-0.155783,51.4961589],[-0.1557784,51.4961352],[-0.155774,51.4961127],[-0.1557398,51.4959387],[-0.1557393,51.4959357],[-0.155734,51.4959091],[-0.1557292,51.4958843],[-0.1557249,51.4958625],[-0.1557127,51.4958003],[-0.1557066,51.4957692],[-0.1557057,51.4957659],[-0.1556963,51.495717],[-0.1556853,51.4956607],[-0.1556827,51.4956476],[-0.1556797,51.4956323],[-0.1556789,51.4956283],[-0.1556446,51.4955338],[-0.1556327,51.4955013],[-0.1556095,51.4954562],[-0.1556019,51.4954414],[-0.1555867,51.4954118],[-0.1555479,51.4953368],[-0.1555091,51.49529],[-0.1554425,51.4952099],[-0.1554332,51.4951987],[-0.1553209,51.4950634],[-0.1554458,51.4949909],[-0.1554581,51.4949837],[-0.1554686,51.4949776],[-0.1555463,51.4949326],[-0.1555523,51.4949291],[-0.1556047,51.4948987],[-0.155638,51.4948794],[-0.1556427,51.4948761],[-0.1556496,51.4948713],[-0.1556706,51.4948567],[-0.1557101,51.4948292],[-0.1557217,51.4948212],[-0.1557251,51.4948188],[-0.155728,51.4948168],[-0.1557787,51.4947815],[-0.1557816,51.4947795],[-0.155816,51.4947518],[-0.1558218,51.4947472],[-0.1558307,51.49474],[-0.1558477,51.4947264],[-0.1558766,51.4946979],[-0.1559181,51.4946569],[-0.155922,51.494653],[-0.1559341,51.494641],[-0.1559386,51.4946365],[-0.155964,51.4945886],[-0.1560011,51.4945183],[-0.1560041,51.4945126],[-0.1560062,51.4945087],[-0.1560137,51.4944943],[-0.1560032,51.4944876],[-0.1559355,51.4944443],[-0.1558555,51.4943932],[-0.1558496,51.4943894],[-0.1558377,51.4943818],[-0.1558281,51.4943757],[-0.155819,51.4943698],[-0.1557489,51.494325],[-0.1557198,51.4943063],[-0.1556774,51.4942792],[-0.1556636,51.4942704],[-0.1556499,51.4942616],[-0.1556428,51.4942571],[-0.1556357,51.4942525],[-0.1555516,51.4941987],[-0.1555412,51.4941921],[-0.1555219,51.4941797],[-0.1554918,51.4941605],[-0.1554687,51.4941457],[-0.1554246,51.4941175],[-0.1554212,51.4941153],[-0.1553365,51.4940611],[-0.1553298,51.4940569],[-0.1553025,51.4940394],[-0.1552678,51.4940172],[-0.1552237,51.493989],[-0.1552078,51.4939788],[-0.1550206,51.49386],[-0.1550158,51.4938567],[-0.1550198,51.4938542],[-0.1550456,51.4938375],[-0.1550645,51.4938251],[-0.1550877,51.4938099],[-0.1551657,51.4937587],[-0.1551907,51.4937423],[-0.1551981,51.4937375],[-0.1552485,51.4937044],[-0.1552558,51.4936996],[-0.1553467,51.4936401],[-0.1553724,51.4936232],[-0.1554144,51.4935956],[-0.1554256,51.4935882],[-0.1554317,51.4935843],[-0.155557,51.4935021],[-0.1555945,51.4934774],[-0.1555985,51.4934748],[-0.1556512,51.4934403],[-0.1557575,51.4933705],[-0.1557614,51.493368],[-0.1557951,51.4933459],[-0.1558057,51.4933389],[-0.1559047,51.493274],[-0.1559098,51.4932707],[-0.1559937,51.4932156],[-0.1560001,51.4932108],[-0.1559903,51.4932005],[-0.1558575,51.4930602],[-0.1557699,51.4929673],[-0.1557656,51.4929628],[-0.1557145,51.4929087],[-0.1557094,51.4929033],[-0.1556557,51.4928465],[-0.1556246,51.4928136],[-0.1556203,51.4928091],[-0.1556173,51.4928058],[-0.1555553,51.4927403],[-0.1555283,51.4927117],[-0.1554975,51.4926791],[-0.1554888,51.49267],[-0.1554698,51.4926498],[-0.1554646,51.4926443],[-0.1554419,51.4926203],[-0.1554196,51.4925968],[-0.1554005,51.4925765],[-0.1553787,51.4925535],[-0.155353,51.4925262],[-0.1553397,51.4925122],[-0.1553335,51.4925056],[-0.1552878,51.4924573],[-0.1552571,51.4924247],[-0.1552545,51.492422],[-0.1552453,51.4924123],[-0.1552355,51.492402],[-0.155177,51.49234],[-0.1551686,51.4923311],[-0.1551485,51.4923099],[-0.1551444,51.4923056],[-0.1551371,51.4922978],[-0.1551269,51.4922871],[-0.1551069,51.4922659],[-0.1551038,51.4922626],[-0.1550981,51.4922566],[-0.1550683,51.4922251],[-0.1550625,51.4922189],[-0.15506,51.4922163],[-0.1550495,51.4922052],[-0.155028,51.4921824],[-0.1550072,51.4921604],[-0.154992,51.4921443],[-0.1549509,51.4921008],[-0.1549479,51.4920977],[-0.1548923,51.4920389],[-0.1548194,51.4919617],[-0.1548262,51.4919583],[-0.154832,51.4919554],[-0.1548388,51.4919519],[-0.1550555,51.4918411],[-0.1551521,51.4917917],[-0.1555918,51.4915669],[-0.1557174,51.4915027],[-0.1557802,51.4914706],[-0.1557838,51.4914687],[-0.1558076,51.4914566],[-0.1558201,51.4914502],[-0.1558049,51.4913972],[-0.1557896,51.4913457],[-0.1557438,51.4911915],[-0.1557421,51.4911861],[-0.1557191,51.4911086],[-0.1557117,51.4910855],[-0.1556987,51.4910503],[-0.1556678,51.4909368],[-0.1556674,51.4909319],[-0.1556566,51.4908948],[-0.1556543,51.4908889],[-0.1556532,51.4908859],[-0.1556514,51.4908812],[-0.1556458,51.4908666],[-0.1556396,51.4908504],[-0.1556028,51.4907565],[-0.1555716,51.4906723],[-0.1555703,51.4906689],[-0.1555676,51.4906635],[-0.1555267,51.490581],[-0.155514,51.4905552],[-0.1555119,51.490551],[-0.1555089,51.490545],[-0.1555044,51.4905358],[-0.1554923,51.4905113],[-0.1554668,51.4904599],[-0.1554599,51.4904461],[-0.1554336,51.4904066],[-0.155431,51.4904026],[-0.1554181,51.4903832],[-0.1554069,51.4903662],[-0.1553996,51.4903553],[-0.1553965,51.4903506],[-0.1553263,51.4902447],[-0.1553238,51.490241],[-0.1553145,51.490227],[-0.1552249,51.4900919],[-0.1551965,51.490049],[-0.155201,51.490046],[-0.1552708,51.4900003],[-0.1553688,51.489936],[-0.1554327,51.4898941],[-0.1554607,51.4898757],[-0.1554872,51.4898583],[-0.1555604,51.4898103],[-0.1555842,51.4897947],[-0.1555883,51.4897921],[-0.1558056,51.4896495],[-0.155854,51.4896179],[-0.1558727,51.4896055],[-0.1558701,51.489603],[-0.1553988,51.4893215],[-0.1553712,51.489305],[-0.155002,51.4890844],[-0.1548904,51.4890178],[-0.1548293,51.4889813],[-0.154587,51.4888366],[-0.1541825,51.4885949],[-0.1540877,51.4885383],[-0.1540266,51.4885018],[-0.1534867,51.4881792],[-0.1531425,51.4879606],[-0.152208,51.4873634],[-0.1519673,51.4872098],[-0.1519469,51.4871967],[-0.1517428,51.487067],[-0.1517254,51.4870554],[-0.1515687,51.4869643],[-0.1515646,51.486962],[-0.1514698,51.4869069],[-0.1514441,51.4868919],[-0.151414,51.4868744],[-0.1513469,51.4868333],[-0.1513439,51.4868315],[-0.1512368,51.4867658],[-0.1512326,51.4867632],[-0.1511351,51.4867034],[-0.1511073,51.4866864],[-0.1510225,51.4866344],[-0.1509305,51.486578],[-0.1509253,51.4865748],[-0.1507406,51.4864616],[-0.1503669,51.4862325],[-0.1503111,51.486187],[-0.1502665,51.4861507],[-0.1502275,51.4861188],[-0.1501952,51.4860925],[-0.1501928,51.4860888],[-0.1501207,51.4859765],[-0.1500871,51.4858955],[-0.1500773,51.4858468],[-0.1500755,51.485838],[-0.1495373,51.485796],[-0.1494944,51.4857927],[-0.1493009,51.4857796],[-0.1492208,51.4857741],[-0.149201,51.4856752],[-0.1492404,51.4855212],[-0.1498269,51.4854787],[-0.1500009,51.4854673],[-0.1500017,51.4854673],[-0.1499593,51.4852226],[-0.1499526,51.4851843],[-0.1498934,51.484843],[-0.1498683,51.4846982],[-0.1498442,51.4845594],[-0.1501492,51.4845352],[-0.1502703,51.4845258],[-0.150547,51.4844835],[-0.1528201,51.4841367],[-0.1530456,51.4841248],[-0.1531336,51.4841139],[-0.1531677,51.4841097],[-0.1532042,51.484102],[-0.1532676,51.4840887],[-0.1533218,51.4840744],[-0.1533695,51.4840618],[-0.1534107,51.4840477],[-0.1534872,51.4840216],[-0.1537141,51.4839836],[-0.1537673,51.4839747],[-0.1539308,51.4839378],[-0.1541119,51.4839089],[-0.1541501,51.4839028],[-0.1547749,51.4838398],[-0.1550206,51.4838099],[-0.1551923,51.4837891],[-0.1555327,51.4837478],[-0.1572063,51.4835186],[-0.1574288,51.4834881],[-0.1576307,51.4834605],[-0.1578584,51.4834293],[-0.1579803,51.4834126],[-0.1582487,51.4833847],[-0.1585145,51.4833716],[-0.158596,51.4833676],[-0.1589046,51.4833088],[-0.1589207,51.4833057],[-0.1594275,51.4832308],[-0.1596841,51.4831929],[-0.1597428,51.4831842],[-0.159767,51.4831806],[-0.1603479,51.4830947],[-0.1605704,51.4830667],[-0.1606581,51.4830577],[-0.1609285,51.4830454],[-0.1615157,51.4830186],[-0.1615222,51.483018],[-0.1615501,51.4830154],[-0.1625747,51.4829207],[-0.1627236,51.4829117],[-0.1631025,51.4828887],[-0.1632863,51.4828637],[-0.1634395,51.4828346],[-0.1635867,51.4828014],[-0.1640493,51.4826655],[-0.164524,51.482654],[-0.1647996,51.4826372],[-0.1648239,51.4826357],[-0.1653495,51.4825662],[-0.1654658,51.4825508],[-0.1655844,51.4825351],[-0.1659741,51.4824836],[-0.1660356,51.4824754],[-0.1663894,51.4824287],[-0.1667838,51.482384],[-0.1667976,51.4823815],[-0.1677004,51.4822406],[-0.1679304,51.4822149],[-0.167987,51.4822086],[-0.1680541,51.4821983],[-0.1680696,51.482196],[-0.1680848,51.4821936],[-0.1683152,51.4821056],[-0.1684751,51.4820707],[-0.168544,51.4820557],[-0.1686475,51.4820395],[-0.1686696,51.482036],[-0.1687804,51.4820186],[-0.1689293,51.4820063],[-0.169057,51.4819957],[-0.169166,51.4819867],[-0.1692055,51.481982],[-0.1692849,51.4819726],[-0.1693932,51.4819597],[-0.1694407,51.4819492],[-0.169532,51.4819288],[-0.1696109,51.4819006],[-0.1696205,51.4818972],[-0.169669,51.4818798],[-0.1698741,51.4818141],[-0.169902,51.4818052],[-0.1699663,51.4817847],[-0.170004,51.4817758],[-0.1700344,51.4817687],[-0.1701186,51.4817557],[-0.1702438,51.4817476],[-0.1702739,51.4817456],[-0.1703036,51.481742],[-0.1705136,51.4817168],[-0.1706685,51.4817212],[-0.1706817,51.4817216],[-0.1707147,51.4817189],[-0.1707801,51.4817136],[-0.1709297,51.4816857],[-0.1709765,51.481671],[-0.1711339,51.4816209],[-0.1712702,51.4815777],[-0.1713842,51.4815415],[-0.1714184,51.4815306],[-0.1714628,51.4815173],[-0.171584,51.4814808],[-0.172501,51.4812051],[-0.1725247,51.481198],[-0.1725454,51.4811917],[-0.1725789,51.4811814],[-0.1725918,51.4811773],[-0.1729074,51.4810792],[-0.1730735,51.4810276],[-0.1733698,51.4809354],[-0.1735307,51.4808649],[-0.173565,51.4808498],[-0.1735843,51.4808413],[-0.173809,51.4807424],[-0.1738399,51.4807287],[-0.173942,51.4806838],[-0.1740003,51.4806561],[-0.1742429,51.4805408],[-0.1743665,51.4804795],[-0.1743864,51.4804696],[-0.1746188,51.4803542],[-0.1747804,51.4802741],[-0.1748873,51.480221],[-0.17495,51.4801899],[-0.1749913,51.4801627],[-0.175062,51.480116],[-0.1750767,51.4801063],[-0.1751016,51.4800899],[-0.1751237,51.4800753],[-0.1752532,51.4799899],[-0.1753408,51.479916],[-0.1754643,51.4798116],[-0.1758866,51.479456],[-0.1759034,51.4794392],[-0.1759163,51.4794263],[-0.1763179,51.479024],[-0.1763249,51.479017],[-0.176347,51.4789949],[-0.1763656,51.4789762],[-0.1763709,51.4789709],[-0.1766099,51.4787316],[-0.1766141,51.4787274],[-0.1768395,51.4785017],[-0.1769662,51.4783742],[-0.1770206,51.4783197],[-0.1770379,51.4783023],[-0.1771848,51.478127],[-0.1771916,51.4781189],[-0.1773042,51.4779945],[-0.1773728,51.4779188],[-0.1774603,51.477822],[-0.1774845,51.477801],[-0.1776466,51.4776809],[-0.1777745,51.477586],[-0.1778169,51.4775546],[-0.1779497,51.4775781],[-0.1782248,51.4776311],[-0.1782386,51.4776332],[-0.1791775,51.4777757],[-0.1793297,51.4777981],[-0.1795141,51.4778171],[-0.1795431,51.4778201],[-0.1795675,51.4778215],[-0.1796823,51.477828],[-0.1797076,51.477829],[-0.1798431,51.4778341],[-0.1800489,51.4778419],[-0.1800712,51.4778427],[-0.1800843,51.4778432],[-0.1801363,51.4778452],[-0.1802107,51.477848],[-0.1803694,51.4778348],[-0.1804401,51.4778289],[-0.1804623,51.4778255],[-0.1805895,51.477806],[-0.1807338,51.4777749],[-0.1808447,51.4777448],[-0.1808509,51.4777431],[-0.1809617,51.4777066],[-0.1816714,51.477473],[-0.1819322,51.4773872],[-0.1822392,51.4772861],[-0.182404,51.4772482],[-0.1824261,51.4772431],[-0.1825548,51.4772261],[-0.1826495,51.4772211],[-0.1826973,51.477223],[-0.1828022,51.4772271],[-0.1828257,51.477228],[-0.1828639,51.4772315],[-0.18318,51.4772602],[-0.183423,51.477282],[-0.1836194,51.477321],[-0.1836974,51.4773447],[-0.1837412,51.477358],[-0.1837627,51.4773674],[-0.1838558,51.477408],[-0.183881,51.477419],[-0.1838931,51.4774279],[-0.1839074,51.4774384],[-0.184035,51.477532],[-0.1843234,51.477787],[-0.1843402,51.4778019],[-0.1845448,51.4779896],[-0.184579,51.478021],[-0.1846071,51.4780457],[-0.1846687,51.4780969],[-0.184857,51.4782316],[-0.1851295,51.4784265],[-0.1851795,51.4784622],[-0.1853776,51.4786039],[-0.1854258,51.4786385],[-0.1854286,51.4786405],[-0.1854685,51.4786691],[-0.1854742,51.4786732],[-0.1855227,51.478708],[-0.1855303,51.4787134],[-0.185634,51.4787877],[-0.1856843,51.4788367],[-0.1857069,51.4788627],[-0.1857136,51.4788705],[-0.1857171,51.4788745],[-0.1857721,51.4789378],[-0.1857882,51.478962],[-0.1857916,51.478967],[-0.1857994,51.4789786],[-0.1858046,51.4789864],[-0.1858152,51.4790022],[-0.1858221,51.4790125],[-0.1858369,51.4790346],[-0.1858439,51.4790452],[-0.1858499,51.479054],[-0.1858913,51.4791159],[-0.1858944,51.4791205],[-0.1859027,51.4791329],[-0.1859337,51.4791791],[-0.1859362,51.4791828],[-0.1859426,51.4791924],[-0.1859648,51.4792256],[-0.1859681,51.4792305],[-0.185974,51.4792393],[-0.1859883,51.4792606],[-0.185992,51.4792662],[-0.1859957,51.4792717],[-0.1860072,51.4792888],[-0.1860104,51.4792936],[-0.1860194,51.479307],[-0.1860405,51.4793385],[-0.186044,51.4793437],[-0.18605,51.479352],[-0.1860542,51.4793576],[-0.1860606,51.4793662],[-0.1860872,51.4794024],[-0.1861678,51.4795117],[-0.1862192,51.479573],[-0.1862366,51.4795937],[-0.1862653,51.4796226],[-0.1863647,51.4797226],[-0.1864034,51.4797533],[-0.1865468,51.4798669],[-0.1865507,51.479871],[-0.1865622,51.4798643],[-0.1867257,51.4797677],[-0.1867295,51.4797657],[-0.1867608,51.4797907],[-0.1868117,51.4798314],[-0.1868789,51.4798849],[-0.1868829,51.4798881],[-0.1869158,51.4799176],[-0.1870463,51.4800347],[-0.1870813,51.4800638],[-0.1870904,51.4800715],[-0.1871222,51.480098],[-0.1871298,51.4801042],[-0.187156,51.4801261],[-0.187159,51.4801286],[-0.1872214,51.4801806],[-0.1872879,51.4802323],[-0.1873005,51.4802421],[-0.1873246,51.4802609],[-0.187334,51.4802682],[-0.1873663,51.4802933],[-0.1873883,51.4803105],[-0.1874039,51.4803226],[-0.1874099,51.480327],[-0.1874138,51.4803298],[-0.1874246,51.4803377],[-0.187573,51.480446],[-0.1875774,51.4804492],[-0.1875902,51.4804586],[-0.1876023,51.4804669],[-0.187617,51.4804771],[-0.1877342,51.4805583],[-0.1877771,51.480588],[-0.1878114,51.4806118],[-0.1879591,51.4807141],[-0.1879992,51.4807419],[-0.1880204,51.4807566],[-0.18803,51.4807632],[-0.1881288,51.4808316],[-0.1881965,51.4808785],[-0.1882705,51.48095],[-0.1882813,51.4809605],[-0.1882875,51.4809662],[-0.1883002,51.4809782],[-0.1883425,51.4810183],[-0.1883543,51.4810294],[-0.1884629,51.4811341],[-0.1885611,51.4812288],[-0.18862,51.4812855],[-0.1886263,51.4812916],[-0.1887024,51.481365],[-0.1887245,51.4813863],[-0.1887347,51.4813961],[-0.1888011,51.4814602],[-0.1888221,51.4814804],[-0.1888293,51.4814873],[-0.1888736,51.48153],[-0.1888839,51.4815399],[-0.1889064,51.4815616],[-0.1889476,51.4816013],[-0.1890066,51.4816581],[-0.189041,51.4816913],[-0.1890565,51.4817042],[-0.1890624,51.481709],[-0.1890741,51.4817187],[-0.1890821,51.4817252],[-0.1895195,51.4820864],[-0.1901567,51.4826332],[-0.1902223,51.4826833],[-0.1904457,51.4828602],[-0.1906432,51.483027],[-0.19066,51.4830411],[-0.1907964,51.4831644],[-0.1908131,51.4831798],[-0.1908522,51.4832162],[-0.1908641,51.4832272],[-0.1910263,51.4833832],[-0.191043,51.4834002],[-0.1910522,51.4834097],[-0.1910941,51.4834525],[-0.1911669,51.4835269],[-0.1912149,51.483576],[-0.1913256,51.4836994],[-0.1913908,51.4837721],[-0.1914029,51.4837829],[-0.1914479,51.483823],[-0.1914708,51.4838433],[-0.1916854,51.4840345],[-0.1917216,51.4840667],[-0.1917754,51.4840381],[-0.1917862,51.4840334],[-0.1918212,51.484018],[-0.1919626,51.4841908],[-0.1919981,51.4842341],[-0.1920299,51.484273],[-0.1921951,51.4844415],[-0.1922873,51.4845356],[-0.1923935,51.4846439],[-0.1924363,51.4846876],[-0.1925029,51.4847554],[-0.1925703,51.4848241],[-0.192575,51.484829],[-0.1926101,51.4848651],[-0.1926341,51.4848898],[-0.1926813,51.4849384],[-0.1927255,51.4849839],[-0.1927743,51.4850337],[-0.1928438,51.4851045],[-0.192916,51.4851782],[-0.1929531,51.485216],[-0.1929561,51.4852189],[-0.1929678,51.48523],[-0.1929828,51.4852443],[-0.1931925,51.4854438],[-0.1931958,51.4854468],[-0.1932534,51.485499],[-0.1932871,51.4855278],[-0.1933432,51.4855757],[-0.1933467,51.4855786],[-0.1935879,51.4857846],[-0.1936209,51.4858128],[-0.1936606,51.4858444],[-0.1939507,51.4860753],[-0.1940053,51.4861185],[-0.1940242,51.4861331],[-0.1940526,51.486155],[-0.1940682,51.4861671],[-0.1941132,51.4862018],[-0.1941455,51.4862268],[-0.1942419,51.4863015],[-0.1942679,51.4863216],[-0.1943185,51.4863608],[-0.1944692,51.4864736],[-0.1944842,51.4864849],[-0.194496,51.4864937],[-0.1945249,51.4865135],[-0.1945569,51.4865355],[-0.1945762,51.4865488],[-0.1946566,51.486604],[-0.1946809,51.4866207],[-0.1947169,51.4866438],[-0.1947208,51.4866461],[-0.1947735,51.4866785],[-0.1948251,51.4867102],[-0.1949138,51.4867647],[-0.1949514,51.4867865],[-0.1951171,51.4868826],[-0.1951778,51.4869155],[-0.1952266,51.4869426],[-0.1952825,51.4869722],[-0.1953259,51.4869957],[-0.1955509,51.4871234],[-0.1958018,51.4872659],[-0.1959628,51.4873573],[-0.1959878,51.4873717],[-0.1960522,51.4873484],[-0.1964504,51.4872047],[-0.1969947,51.48741],[-0.1970995,51.4874496],[-0.1971329,51.4874649],[-0.1971738,51.4874837],[-0.1971974,51.4874945],[-0.1974038,51.4875892],[-0.1975376,51.4876506],[-0.197546,51.4876545],[-0.197599,51.4876818],[-0.1977246,51.4877464],[-0.1977287,51.4877485],[-0.1977412,51.4877558],[-0.197799,51.4877891],[-0.1979038,51.4878496],[-0.1980465,51.4879409],[-0.1980663,51.4879535],[-0.1981303,51.4879989],[-0.1982213,51.4880635],[-0.1983009,51.4881215],[-0.1983136,51.4881327],[-0.1983202,51.4881384],[-0.1983399,51.4881556],[-0.198709,51.4884792],[-0.1987782,51.4885392],[-0.1988294,51.4885839],[-0.1989299,51.4886719],[-0.1990006,51.4888362],[-0.1990882,51.4889025],[-0.1992199,51.489002],[-0.1993752,51.4891193],[-0.1995809,51.4892914],[-0.1996847,51.4893817],[-0.1997142,51.4894075],[-0.1997649,51.4894515],[-0.1998664,51.4895399],[-0.1999631,51.4896241],[-0.2000303,51.4896825],[-0.2000653,51.489713],[-0.2001772,51.4898104],[-0.2001904,51.4898219],[-0.2002187,51.4898465],[-0.2002221,51.4898494],[-0.200309,51.4899251],[-0.2003748,51.4899824],[-0.200487,51.4900237],[-0.2005858,51.4900601],[-0.2006028,51.4900664],[-0.2006237,51.4900741],[-0.2006718,51.4901196],[-0.2007252,51.4901704],[-0.2007717,51.4902147],[-0.2008869,51.4903243],[-0.2009357,51.4903707],[-0.2010154,51.4904426],[-0.2010994,51.4905184],[-0.2012291,51.4906353],[-0.2013542,51.4907481],[-0.2013724,51.4907645],[-0.2013811,51.4907723],[-0.2014006,51.4907899],[-0.2015162,51.4908941],[-0.2016825,51.4910441],[-0.2017747,51.4911272],[-0.2018212,51.4911682],[-0.2019035,51.4912408],[-0.2019908,51.4913178],[-0.2023459,51.4916311],[-0.2024079,51.4916858],[-0.2022046,51.4917591],[-0.2021199,51.4917896],[-0.2018796,51.4918762],[-0.2018894,51.4918872],[-0.2021953,51.4922267],[-0.20224,51.4922762],[-0.2022441,51.4922808],[-0.2022482,51.4922854],[-0.2024272,51.4924839],[-0.2025328,51.4926167],[-0.2025696,51.4926629],[-0.2026134,51.4927145],[-0.2026177,51.4927195],[-0.2027804,51.4929109],[-0.2028109,51.4929442],[-0.2029533,51.4930996],[-0.2029645,51.4931118],[-0.202968,51.4931156],[-0.203004,51.4931549],[-0.2030948,51.4932498],[-0.2031503,51.4933068],[-0.2031653,51.4933223],[-0.2031655,51.4933225],[-0.2031846,51.4933421],[-0.203267,51.4934268],[-0.2034442,51.4935949],[-0.2034493,51.4935998],[-0.203638,51.4937697],[-0.2039023,51.4939847],[-0.2039155,51.4939946],[-0.2039886,51.49405],[-0.2040028,51.4940607],[-0.2040302,51.4940814],[-0.2041891,51.4942017],[-0.2043681,51.4943302],[-0.2044306,51.4943751],[-0.2044337,51.4943774],[-0.2044372,51.4943799],[-0.2044425,51.4943835],[-0.2044925,51.4944176],[-0.2045072,51.4944276],[-0.2045253,51.49444],[-0.2046329,51.4945134],[-0.2047403,51.4945867],[-0.2047286,51.4945979],[-0.2046692,51.4946562],[-0.2046773,51.4946608],[-0.2047193,51.4946846],[-0.2047401,51.4946964],[-0.2048261,51.4947452],[-0.2048409,51.4947536],[-0.2048477,51.4947571],[-0.2050127,51.4948434],[-0.2050191,51.4948466],[-0.205065,51.4948691],[-0.2051452,51.4949083],[-0.2051887,51.4949296],[-0.2052029,51.4949366],[-0.2052541,51.4949594],[-0.2052701,51.4949666],[-0.2053777,51.4950136],[-0.2054284,51.4950357],[-0.2054326,51.4950376],[-0.2054853,51.4950606],[-0.2055766,51.495097],[-0.2055975,51.4951054],[-0.2056227,51.4951154],[-0.205706,51.4951486],[-0.2057888,51.4951803],[-0.205804,51.4951862],[-0.205839,51.4951997],[-0.2058903,51.4952178],[-0.2060295,51.4952672],[-0.2060673,51.4952806],[-0.2061238,51.4953043],[-0.2062648,51.4953635],[-0.206379,51.4954138],[-0.2063919,51.4954195],[-0.2064591,51.4954491],[-0.2064808,51.4954586],[-0.2065913,51.4955047],[-0.2066792,51.4955414],[-0.206702,51.4955531],[-0.2067386,51.4955718],[-0.2067624,51.495584],[-0.2068054,51.4956059],[-0.206834,51.4956205],[-0.2068398,51.4956236],[-0.2068885,51.4956579],[-0.2068982,51.4956648],[-0.2070596,51.4957788],[-0.2070642,51.4957821],[-0.2070993,51.4958069],[-0.2071044,51.4958105],[-0.2071073,51.4958134],[-0.2071112,51.4958173],[-0.2071366,51.4958427],[-0.2071685,51.4958662],[-0.2071779,51.4958719],[-0.2071988,51.4958845],[-0.2072111,51.4958943],[-0.207225,51.4959054],[-0.2072523,51.4959308],[-0.2072562,51.4959344],[-0.207261,51.4959401],[-0.2072671,51.4959475],[-0.2072829,51.4959666],[-0.2072875,51.4959738],[-0.2072982,51.4959904],[-0.2073098,51.4960164],[-0.2073175,51.4960416],[-0.2073241,51.4960518],[-0.2073884,51.4961471],[-0.2074272,51.4961394],[-0.2074534,51.4961338],[-0.207693,51.4960855],[-0.2077718,51.4960694],[-0.2077925,51.4960651],[-0.2080018,51.4960224],[-0.2082097,51.4961894],[-0.2082639,51.4962337],[-0.2083743,51.496324],[-0.2083818,51.4963305],[-0.2084241,51.4963647],[-0.2085011,51.4964277],[-0.2085435,51.4964624],[-0.2088119,51.4966818],[-0.2088646,51.4967249],[-0.2089678,51.4968093],[-0.2090008,51.4968405],[-0.2091237,51.4969564],[-0.2091468,51.4969782],[-0.209432,51.4972474],[-0.2094358,51.497251],[-0.2094532,51.4972673],[-0.2094686,51.4972819],[-0.2095887,51.4973952],[-0.2095937,51.497401],[-0.209714,51.4975388],[-0.209923,51.4977781],[-0.2099361,51.497793],[-0.2099863,51.4978506],[-0.2099969,51.4978627],[-0.2100067,51.4978739],[-0.2100156,51.4978842],[-0.2100523,51.4979262],[-0.2102483,51.498107],[-0.2102713,51.4981282],[-0.2103353,51.49818],[-0.2103547,51.4981957],[-0.21039,51.4982242],[-0.2104529,51.4982751],[-0.2104555,51.4982772],[-0.2105,51.4983132],[-0.2105096,51.498321],[-0.210566,51.4983666],[-0.2105803,51.4983781],[-0.2105838,51.4983809],[-0.2105966,51.4983914],[-0.210613,51.4984046],[-0.210619,51.4984094],[-0.2107529,51.4985178],[-0.2108151,51.498568],[-0.2108236,51.4985721],[-0.2108773,51.4985973],[-0.2108807,51.4985989],[-0.210895,51.4986056],[-0.2109518,51.4986324],[-0.2110372,51.4986726],[-0.2110443,51.4986759],[-0.2110837,51.4986945],[-0.2110982,51.4987013],[-0.2111684,51.4987343],[-0.2111923,51.4987456],[-0.2112285,51.4987626],[-0.211261,51.4987779],[-0.211331,51.4988109],[-0.211362,51.4988255],[-0.2114219,51.4988537],[-0.2114795,51.4988808],[-0.2114891,51.4988853],[-0.2115783,51.4989272],[-0.2116241,51.4989488],[-0.211639,51.4989558],[-0.2116933,51.4989814],[-0.2117275,51.4989975],[-0.2117513,51.4990087],[-0.2117965,51.49903],[-0.2118343,51.4990527],[-0.2118603,51.4990683],[-0.2119201,51.4991042],[-0.211935,51.4991132],[-0.2119974,51.4991507],[-0.2120424,51.4991777],[-0.2121157,51.4992218],[-0.2121254,51.4992276],[-0.2121897,51.4992663],[-0.2122815,51.4993215],[-0.2122903,51.4993267],[-0.2123915,51.4993876],[-0.212422,51.4994059],[-0.2124555,51.499426],[-0.2124749,51.4994377],[-0.2125241,51.4994673],[-0.2125771,51.4994991],[-0.212609,51.4995183],[-0.2126384,51.499536],[-0.2126755,51.4995632],[-0.2126847,51.4995699],[-0.2127331,51.4996054],[-0.2127481,51.4996164],[-0.2127992,51.4996539],[-0.2128153,51.4996656],[-0.2128572,51.4996964],[-0.2128613,51.4996994],[-0.2129306,51.4997502],[-0.2129357,51.4997539],[-0.2129412,51.4997579],[-0.2129485,51.4997633],[-0.2129894,51.4997933],[-0.2129939,51.4997966],[-0.2130041,51.4998041],[-0.2130528,51.4998397],[-0.2130626,51.4998469],[-0.2130679,51.4998513],[-0.2130923,51.4998711],[-0.2131135,51.4998884],[-0.2131172,51.4998913],[-0.2131575,51.4999241],[-0.213175,51.4999383],[-0.213186,51.4999473],[-0.2132172,51.4999727],[-0.2132656,51.500012],[-0.2133293,51.5000638],[-0.2133369,51.5000701],[-0.2133417,51.5000739],[-0.2133716,51.5000982],[-0.2133752,51.5001012],[-0.2133781,51.5001035],[-0.2134627,51.5001723],[-0.2134835,51.5001893],[-0.2134893,51.500194],[-0.2134984,51.5002013],[-0.2135488,51.5002423],[-0.2135788,51.5002668],[-0.2135977,51.5002821],[-0.2137048,51.5003692],[-0.2137164,51.5003787],[-0.2137912,51.5004395],[-0.2137958,51.5004433],[-0.213858,51.5004938],[-0.2138717,51.500505],[-0.213885,51.5005158],[-0.213893,51.5005223],[-0.2139344,51.500556],[-0.2140177,51.5006237],[-0.2140438,51.5006449],[-0.21409,51.5006825],[-0.2141295,51.5007146],[-0.2141543,51.5007348],[-0.2141731,51.5007633],[-0.214202,51.5008069],[-0.214207,51.5008146],[-0.2142556,51.5008883],[-0.2143187,51.5009838],[-0.2143441,51.5010223],[-0.2143536,51.5010366],[-0.2143794,51.5010758],[-0.2144027,51.5011113],[-0.2144075,51.5011182],[-0.2144214,51.5011393],[-0.2144309,51.5011539]]]}},{"type":"Feature","properties":{"Name":null,"description":null,"timestamp":null,"begin":null,"end":null,"altitudeMode":null,"tessellate":"NA","extrude":"NA","visibility":"NA","drawOrder":"NA","icon":null,"ltla22cd":null,"ltla22nm":null,"ltla22nmw":null,"label":null,"stroke-opacity":"NA","stroke-width":4,"stroke":"#F44336","fill-opacity":"NA","fill":null,"LengthInMetres":8,"Title":"C8","Direction":"TwoWay","Flow":null,"Protection":null,"RoadOwnership":null,"YearBuilt":null,"Borough":"Kensington and Chelsea"},"geometry":{"type":"LineString","coordinates":[[-0.1500289,51.48582],[-0.149918,51.48583]]}},{"type":"Feature","properties":{"Name":null,"description":null,"timestamp":null,"begin":null,"end":null,"altitudeMode":null,"tessellate":"NA","extrude":"NA","visibility":"NA","drawOrder":"NA","icon":null,"ltla22cd":null,"ltla22nm":null,"ltla22nmw":null,"label":null,"stroke-opacity":"NA","stroke-width":2,"stroke":"#F44336","fill-opacity":"NA","fill":null,"LengthInMetres":53,"Title":"C8 - link","Direction":"OneWay","Flow":null,"Protection":null,"RoadOwnership":null,"YearBuilt":null,"Borough":"Kensington and Chelsea"},"geometry":{"type":"LineString","coordinates":[[-0.1500289,51.48582],[-0.150332,51.48577],[-0.1505466,51.48572],[-0.1507612,51.48568]]}},{"type":"Feature","properties":{"Name":null,"description":null,"timestamp":null,"begin":null,"end":null,"altitudeMode":null,"tessellate":"NA","extrude":"NA","visibility":"NA","drawOrder":"NA","icon":null,"ltla22cd":null,"ltla22nm":null,"ltla22nmw":null,"label":null,"stroke-opacity":"NA","stroke-width":2,"stroke":"#F44336","fill-opacity":"NA","fill":null,"LengthInMetres":32,"Title":"CS8 - Streetspace upgrade","Direction":"OneWay","Flow":null,"Protection":null,"RoadOwnership":null,"YearBuilt":null,"Borough":"Kensington and Chelsea"},"geometry":{"type":"LineString","coordinates":[[-0.1499615,51.48547],[-0.1500172,51.48576]]}},{"type":"Feature","properties":{"Name":null,"description":null,"timestamp":null,"begin":null,"end":null,"altitudeMode":null,"tessellate":"NA","extrude":"NA","visibility":"NA","drawOrder":"NA","icon":null,"ltla22cd":null,"ltla22nm":null,"ltla22nmw":null,"label":null,"stroke-opacity":"NA","stroke-width":4,"stroke":"#F44336","fill-opacity":"NA","fill":null,"LengthInMetres":7,"Title":"C27","Direction":"TwoWay","Flow":null,"Protection":null,"RoadOwnership":null,"YearBuilt":null,"Borough":"Kensington and Chelsea"},"geometry":{"type":"LineString","coordinates":[[-0.2279803,51.52125],[-0.2280771,51.52124]]}},{"type":"Feature","properties":{"Name":null,"description":null,"timestamp":null,"begin":null,"end":null,"altitudeMode":null,"tessellate":"NA","extrude":"NA","visibility":"NA","drawOrder":"NA","icon":null,"ltla22cd":null,"ltla22nm":null,"ltla22nmw":null,"label":null,"stroke-opacity":"NA","stroke-width":2,"stroke":"#F44336","fill-opacity":"NA","fill":null,"LengthInMetres":22,"Title":"Q15","Direction":"OneWay","Flow":null,"Protection":null,"RoadOwnership":null,"YearBuilt":null,"Borough":"Kensington and Chelsea"},"geometry":{"type":"LineString","coordinates":[[-0.19429,51.48803],[-0.1944617,51.4882]]}},{"type":"Feature","properties":{"Name":null,"description":null,"timestamp":null,"begin":null,"end":null,"altitudeMode":null,"tessellate":"NA","extrude":"NA","visibility":"NA","drawOrder":"NA","icon":null,"ltla22cd":null,"ltla22nm":null,"ltla22nmw":null,"label":null,"stroke-opacity":"NA","stroke-width":2,"stroke":"#F44336","fill-opacity":"NA","fill":null,"LengthInMetres":52,"Title":"Q15","Direction":"OneWay","Flow":null,"Protection":null,"RoadOwnership":null,"YearBuilt":null,"Borough":"Kensington and Chelsea"},"geometry":{"type":"LineString","coordinates":[[-0.194687,51.48927],[-0.1942149,51.48963]]}},{"type":"Feature","properties":{"Name":null,"description":null,"timestamp":null,"begin":null,"end":null,"altitudeMode":null,"tessellate":"NA","extrude":"NA","visibility":"NA","drawOrder":"NA","icon":null,"ltla22cd":null,"ltla22nm":null,"ltla22nmw":null,"label":null,"stroke-opacity":"NA","stroke-width":4,"stroke":"#F44336","fill-opacity":"NA","fill":null,"LengthInMetres":15,"Title":"LCN 36","Direction":"TwoWay","Flow":null,"Protection":null,"RoadOwnership":null,"YearBuilt":null,"Borough":"Kensington and Chelsea"},"geometry":{"type":"LineString","coordinates":[[-0.2150912,51.50216],[-0.214909,51.50224]]}},{"type":"Feature","properties":{"Name":null,"description":null,"timestamp":null,"begin":null,"end":null,"altitudeMode":null,"tessellate":"NA","extrude":"NA","visibility":"NA","drawOrder":"NA","icon":null,"ltla22cd":null,"ltla22nm":null,"ltla22nmw":null,"label":null,"stroke-opacity":"NA","stroke-width":2,"stroke":"#F44336","fill-opacity":"NA","fill":null,"LengthInMetres":80,"Title":"LCN 36","Direction":"OneWay","Flow":null,"Protection":null,"RoadOwnership":null,"YearBuilt":null,"Borough":"Kensington and Chelsea"},"geometry":{"type":"LineString","coordinates":[[-0.2127372,51.50471],[-0.2126782,51.50477],[-0.2126943,51.50493],[-0.2127211,51.50505],[-0.2128177,51.50518],[-0.2129035,51.50533],[-0.2129303,51.50539]]}},{"type":"Feature","properties":{"Name":null,"description":null,"timestamp":null,"begin":null,"end":null,"altitudeMode":null,"tessellate":"NA","extrude":"NA","visibility":"NA","drawOrder":"NA","icon":null,"ltla22cd":null,"ltla22nm":null,"ltla22nmw":null,"label":null,"stroke-opacity":"NA","stroke-width":4,"stroke":"#F44336","fill-opacity":"NA","fill":null,"LengthInMetres":6,"Title":"Shepherd's Bush to Notting Hill Cycleway","Direction":"TwoWay","Flow":null,"Protection":null,"RoadOwnership":null,"YearBuilt":null,"Borough":"Kensington and Chelsea"},"geometry":{"type":"LineString","coordinates":[[-0.2112935,51.51004],[-0.2112653,51.50999]]}},{"type":"Feature","properties":{"Name":null,"description":null,"timestamp":null,"begin":null,"end":null,"altitudeMode":null,"tessellate":"NA","extrude":"NA","visibility":"NA","drawOrder":"NA","icon":null,"ltla22cd":null,"ltla22nm":null,"ltla22nmw":null,"label":null,"stroke-opacity":"NA","stroke-width":4,"stroke":"#F44336","fill-opacity":"NA","fill":null,"LengthInMetres":12,"Title":"Bury Walk","Direction":"TwoWay","Flow":null,"Protection":null,"RoadOwnership":null,"YearBuilt":null,"Borough":"Kensington and Chelsea"},"geometry":{"type":"LineString","coordinates":[[-0.1701467,51.49037],[-0.1700636,51.49028]]}},{"type":"Feature","properties":{"Name":null,"description":null,"timestamp":null,"begin":null,"end":null,"altitudeMode":null,"tessellate":"NA","extrude":"NA","visibility":"NA","drawOrder":"NA","icon":null,"ltla22cd":null,"ltla22nm":null,"ltla22nmw":null,"label":null,"stroke-opacity":"NA","stroke-width":4,"stroke":"#F44336","fill-opacity":"NA","fill":null,"LengthInMetres":12,"Title":"Pond Place","Direction":"TwoWay","Flow":null,"Protection":null,"RoadOwnership":null,"YearBuilt":null,"Borough":"Kensington and Chelsea"},"geometry":{"type":"LineString","coordinates":[[-0.169857,51.49056],[-0.1699724,51.49064]]}},{"type":"Feature","properties":{"Name":null,"description":null,"timestamp":null,"begin":null,"end":null,"altitudeMode":null,"tessellate":"NA","extrude":"NA","visibility":"NA","drawOrder":"NA","icon":null,"ltla22cd":null,"ltla22nm":null,"ltla22nmw":null,"label":null,"stroke-opacity":"NA","stroke-width":4,"stroke":"#F44336","fill-opacity":"NA","fill":null,"LengthInMetres":6,"Title":"Melbury Road","Direction":"TwoWay","Flow":null,"Protection":null,"RoadOwnership":null,"YearBuilt":null,"Borough":"Kensington and Chelsea"},"geometry":{"type":"LineString","coordinates":[[-0.204135,51.49931],[-0.204056,51.49933]]}},{"type":"Feature","properties":{"Name":null,"description":null,"timestamp":null,"begin":null,"end":null,"altitudeMode":null,"tessellate":"NA","extrude":"NA","visibility":"NA","drawOrder":"NA","icon":null,"ltla22cd":null,"ltla22nm":null,"ltla22nmw":null,"label":null,"stroke-opacity":"NA","stroke-width":4,"stroke":"#F44336","fill-opacity":"NA","fill":null,"LengthInMetres":12,"Title":"Fairfax place","Direction":"TwoWay","Flow":null,"Protection":null,"RoadOwnership":null,"YearBuilt":null,"Borough":"Kensington and Chelsea"},"geometry":{"type":"LineString","coordinates":[[-0.2086641,51.49762],[-0.208522,51.49768]]}},{"type":"Feature","properties":{"Name":null,"description":null,"timestamp":null,"begin":null,"end":null,"altitudeMode":null,"tessellate":"NA","extrude":"NA","visibility":"NA","drawOrder":"NA","icon":null,"ltla22cd":null,"ltla22nm":null,"ltla22nmw":null,"label":null,"stroke-opacity":"NA","stroke-width":4,"stroke":"#F44336","fill-opacity":"NA","fill":null,"LengthInMetres":20,"Title":"Lansdowne Crescent","Direction":"TwoWay","Flow":null,"Protection":null,"RoadOwnership":null,"YearBuilt":null,"Borough":"Kensington and Chelsea"},"geometry":{"type":"LineString","coordinates":[[-0.205453,51.511],[-0.2057131,51.51093]]}}]}