{"type":"FeatureCollection","features":[{"type":"Feature","properties":{"Title":"C5","Direction":"OneWay","Flow":null,"Protection":null,"Ownership":null,"YearBuilt":null,"Borough":"Lambeth","LengthInMetres":17,"stroke":"#1A73E8","stroke-width":2},"geometry":{"type":"LineString","coordinates":[[-0.1164088,51.4833],[-0.1165134,51.48336],[-0.1165871,51.48341]]}},{"type":"Feature","properties":{"Title":"C5","Direction":"TwoWay","Flow":null,"Protection":null,"Ownership":null,"YearBuilt":null,"Borough":"Lambeth","LengthInMetres":41,"stroke":"#1A73E8","stroke-width":4},"geometry":{"type":"LineString","coordinates":[[-0.1073929,51.50305],[-0.1068672,51.50322]]}},{"type":"Feature","properties":{"Title":"C5","Direction":"TwoWay","Flow":null,"Protection":null,"Ownership":null,"YearBuilt":null,"Borough":"Lambeth","LengthInMetres":33,"stroke":"#1A73E8","stroke-width":4},"geometry":{"type":"LineString","coordinates":[[-0.1068672,51.50322],[-0.1071032,51.50348]]}},{"type":"Feature","properties":{"Title":"C5","Direction":"TwoWay","Flow":null,"Protection":null,"Ownership":null,"YearBuilt":null,"Borough":"Lambeth","LengthInMetres":18,"stroke":"#1A73E8","stroke-width":4},"geometry":{"type":"LineString","coordinates":[[-0.1068672,51.50322],[-0.1066321,51.50329]]}},{"type":"Feature","properties":{"Title":"C5","Direction":"TwoWay","Flow":null,"Protection":null,"Ownership":null,"YearBuilt":null,"Borough":"Lambeth","LengthInMetres":490,"stroke":"#1A73E8","stroke-width":4},"geometry":{"type":"LineString","coordinates":[[-0.1126107,51.49838],[-0.1125573,51.49841],[-0.1124677,51.49842],[-0.1122741,51.49846],[-0.1123111,51.49856],[-0.1124305,51.49882],[-0.1124251,51.49894],[-0.1122749,51.49909],[-0.1118297,51.49953],[-0.1114703,51.49988],[-0.1111484,51.50023],[-0.1108909,51.50057],[-0.1107193,51.50079],[-0.1106066,51.501],[-0.1105369,51.5012],[-0.110494,51.50142],[-0.1104779,51.5016],[-0.1104618,51.50176],[-0.1104081,51.50186],[-0.1103008,51.50197],[-0.1101775,51.50207],[-0.1099499,51.5022]]}},{"type":"Feature","properties":{"Title":"C5","Direction":"TwoWay","Flow":null,"Protection":null,"Ownership":null,"YearBuilt":null,"Borough":"Lambeth","LengthInMetres":11,"stroke":"#1A73E8","stroke-width":4},"geometry":{"type":"LineString","coordinates":[[-0.1143181,51.49706],[-0.1142161,51.49714]]}},{"type":"Feature","properties":{"Title":"C5","Direction":"TwoWay","Flow":null,"Protection":null,"Ownership":null,"YearBuilt":null,"Borough":"Lambeth","LengthInMetres":57,"stroke":"#1A73E8","stroke-width":4},"geometry":{"type":"LineString","coordinates":[[-0.1155655,51.49543],[-0.1150895,51.49556],[-0.1150648,51.49575]]}},{"type":"Feature","properties":{"Title":"C5","Direction":"OneWay","Flow":null,"Protection":null,"Ownership":null,"YearBuilt":null,"Borough":"Lambeth","LengthInMetres":18,"stroke":"#1A73E8","stroke-width":2},"geometry":{"type":"LineString","coordinates":[[-0.1207026,51.48869],[-0.120657,51.48885]]}},{"type":"Feature","properties":{"Title":"C5","Direction":"TwoWay","Flow":null,"Protection":null,"Ownership":null,"YearBuilt":null,"Borough":"Lambeth","LengthInMetres":7,"stroke":"#1A73E8","stroke-width":4},"geometry":{"type":"LineString","coordinates":[[-0.116735,51.49359],[-0.1167028,51.49365]]}},{"type":"Feature","properties":{"Title":"C5","Direction":"TwoWay","Flow":null,"Protection":null,"Ownership":null,"YearBuilt":null,"Borough":"Lambeth","LengthInMetres":507,"stroke":"#1A73E8","stroke-width":4},"geometry":{"type":"LineString","coordinates":[[-0.1220093,51.48628],[-0.12191,51.48617],[-0.1217625,51.48605],[-0.121623,51.48603],[-0.1215157,51.48599],[-0.1213333,51.48589],[-0.1203945,51.48549],[-0.1194236,51.48509],[-0.118922,51.48488],[-0.1186538,51.48473],[-0.1184097,51.48464],[-0.1178143,51.48441],[-0.1172134,51.48417],[-0.1170659,51.48409],[-0.1169855,51.48397],[-0.1169077,51.48381],[-0.1168165,51.48367],[-0.1166904,51.48352],[-0.1165871,51.48341]]}},{"type":"Feature","properties":{"Title":"C5","Direction":"TwoWay","Flow":null,"Protection":null,"Ownership":null,"YearBuilt":null,"Borough":"Lambeth","LengthInMetres":19,"stroke":"#1A73E8","stroke-width":4},"geometry":{"type":"LineString","coordinates":[[-0.1233195,51.47727],[-0.123587,51.4773]]}},{"type":"Feature","properties":{"Title":"C5","Direction":"OneWay","Flow":null,"Protection":null,"Ownership":null,"YearBuilt":null,"Borough":"Lambeth","LengthInMetres":4,"stroke":"#1A73E8","stroke-width":2},"geometry":{"type":"LineString","coordinates":[[-0.129288,51.47222],[-0.1292511,51.47225]]}},{"type":"Feature","properties":{"Title":"C5","Direction":"OneWay","Flow":null,"Protection":null,"Ownership":null,"YearBuilt":null,"Borough":"Lambeth","LengthInMetres":2,"stroke":"#1A73E8","stroke-width":2},"geometry":{"type":"LineString","coordinates":[[-0.1292511,51.47225],[-0.129241,51.47227]]}},{"type":"Feature","properties":{"Title":"C5","Direction":"OneWay","Flow":null,"Protection":null,"Ownership":null,"YearBuilt":null,"Borough":"Lambeth","LengthInMetres":4,"stroke":"#1A73E8","stroke-width":2},"geometry":{"type":"LineString","coordinates":[[-0.129241,51.47227],[-0.1292444,51.47231]]}},{"type":"Feature","properties":{"Title":"C5","Direction":"OneWay","Flow":null,"Protection":null,"Ownership":null,"YearBuilt":null,"Borough":"Lambeth","LengthInMetres":3,"stroke":"#1A73E8","stroke-width":2},"geometry":{"type":"LineString","coordinates":[[-0.1292444,51.47231],[-0.1292571,51.47234]]}},{"type":"Feature","properties":{"Title":"C5","Direction":"OneWay","Flow":null,"Protection":null,"Ownership":null,"YearBuilt":null,"Borough":"Lambeth","LengthInMetres":1,"stroke":"#1A73E8","stroke-width":2},"geometry":{"type":"LineString","coordinates":[[-0.1292571,51.47234],[-0.1292668,51.47235]]}},{"type":"Feature","properties":{"Title":"C5","Direction":"OneWay","Flow":null,"Protection":null,"Ownership":null,"YearBuilt":null,"Borough":"Lambeth","LengthInMetres":11,"stroke":"#1A73E8","stroke-width":2},"geometry":{"type":"LineString","coordinates":[[-0.1292511,51.47225],[-0.1291901,51.47228],[-0.129132,51.47232]]}},{"type":"Feature","properties":{"Title":"C5","Direction":"TwoWay","Flow":null,"Protection":null,"Ownership":null,"YearBuilt":null,"Borough":"Lambeth","LengthInMetres":46,"stroke":"#1A73E8","stroke-width":4},"geometry":{"type":"LineString","coordinates":[[-0.1325094,51.47026],[-0.1329933,51.46998]]}},{"type":"Feature","properties":{"Title":"C5","Direction":"TwoWay","Flow":null,"Protection":null,"Ownership":null,"YearBuilt":null,"Borough":"Lambeth","LengthInMetres":44,"stroke":"#1A73E8","stroke-width":4},"geometry":{"type":"LineString","coordinates":[[-0.1368998,51.46832],[-0.1363204,51.46847]]}},{"type":"Feature","properties":{"Title":"Clapham Common (will become C5)","Direction":"TwoWay","Flow":null,"Protection":null,"Ownership":null,"YearBuilt":null,"Borough":"Lambeth","LengthInMetres":931,"stroke":"#1A73E8","stroke-width":4},"geometry":{"type":"LineString","coordinates":[[-0.1402167,51.46213],[-0.1405332,51.46181],[-0.1406512,51.46171],[-0.1407237,51.46119],[-0.1408014,51.4611],[-0.1411367,51.4609],[-0.141767,51.46048],[-0.1422391,51.46026],[-0.1427004,51.46003],[-0.143041,51.45979],[-0.1437914,51.45926],[-0.1446115,51.45865],[-0.146198,51.45741],[-0.1463536,51.45712],[-0.1465843,51.4568],[-0.1469705,51.45635],[-0.1472656,51.45612],[-0.1480005,51.45561],[-0.1480779,51.45555]]}},{"type":"Feature","properties":{"Title":"CS7","Direction":"TwoWay","Flow":null,"Protection":null,"Ownership":null,"YearBuilt":null,"Borough":"Lambeth","LengthInMetres":348,"stroke":"#1A73E8","stroke-width":4},"geometry":{"type":"LineString","coordinates":[[-0.109672,51.48472],[-0.1098907,51.4845],[-0.1101669,51.48421],[-0.1106417,51.48375],[-0.1111379,51.48327],[-0.1114088,51.48298],[-0.1115804,51.4828],[-0.1122644,51.48205]]}},{"type":"Feature","properties":{"Title":"CS7 - Spur","Direction":"TwoWay","Flow":null,"Protection":null,"Ownership":null,"YearBuilt":null,"Borough":"Lambeth","LengthInMetres":11,"stroke":"#1A73E8","stroke-width":4},"geometry":{"type":"LineString","coordinates":[[-0.1108096,51.48132],[-0.1108203,51.48122]]}},{"type":"Feature","properties":{"Title":"CS7","Direction":"TwoWay","Flow":null,"Protection":null,"Ownership":null,"YearBuilt":null,"Borough":"Lambeth","LengthInMetres":111,"stroke":"#1A73E8","stroke-width":4},"geometry":{"type":"LineString","coordinates":[[-0.1215382,51.47316],[-0.1218691,51.47286],[-0.1221373,51.47261],[-0.1224431,51.47234]]}},{"type":"Feature","properties":{"Title":"CS7 - Streetspace upgrade","Direction":"OneWay","Flow":null,"Protection":null,"Ownership":null,"YearBuilt":null,"Borough":"Lambeth","LengthInMetres":223,"stroke":"#1A73E8","stroke-width":2},"geometry":{"type":"LineString","coordinates":[[-0.1305203,51.46473],[-0.1308551,51.46455],[-0.1312252,51.46437],[-0.131531,51.46423],[-0.1320218,51.46402],[-0.1325663,51.4638],[-0.1331242,51.46356]]}},{"type":"Feature","properties":{"Title":"CS7 - Kennington Spur","Direction":"TwoWay","Flow":null,"Protection":null,"Ownership":null,"YearBuilt":null,"Borough":"Lambeth","LengthInMetres":161,"stroke":"#1A73E8","stroke-width":4},"geometry":{"type":"LineString","coordinates":[[-0.1114427,51.48289],[-0.1114749,51.48263],[-0.1114427,51.4823],[-0.1113408,51.48195],[-0.1112201,51.48177],[-0.1110136,51.48149]]}},{"type":"Feature","properties":{"Title":"Q1 - (will become C10) - Streetspace upgrade","Direction":"TwoWay","Flow":null,"Protection":null,"Ownership":null,"YearBuilt":null,"Borough":"Lambeth","LengthInMetres":291,"stroke":"#1A73E8","stroke-width":4},"geometry":{"type":"LineString","coordinates":[[-0.11492,51.50637],[-0.1153773,51.5069],[-0.1158132,51.50745],[-0.1164972,51.5082],[-0.1169136,51.50867]]}},{"type":"Feature","properties":{"Title":"C10 - (formerly Q1)","Direction":"TwoWay","Flow":null,"Protection":null,"Ownership":null,"YearBuilt":null,"Borough":"Lambeth","LengthInMetres":28,"stroke":"#1A73E8","stroke-width":4},"geometry":{"type":"LineString","coordinates":[[-0.1103503,51.50409],[-0.1102122,51.50385]]}},{"type":"Feature","properties":{"Title":"C56","Direction":"TwoWay","Flow":null,"Protection":null,"Ownership":null,"YearBuilt":null,"Borough":"Lambeth","LengthInMetres":132,"stroke":"#1A73E8","stroke-width":4},"geometry":{"type":"LineString","coordinates":[[-0.1217911,51.50085],[-0.1214076,51.50084],[-0.119891,51.5008]]}},{"type":"Feature","properties":{"Title":"C56","Direction":"TwoWay","Flow":null,"Protection":null,"Ownership":null,"YearBuilt":null,"Borough":"Lambeth","LengthInMetres":432,"stroke":"#1A73E8","stroke-width":4},"geometry":{"type":"LineString","coordinates":[[-0.1170064,51.50144],[-0.11689,51.50139],[-0.1164662,51.50128],[-0.1161577,51.5012],[-0.1160317,51.50116],[-0.1159163,51.50111],[-0.1158654,51.50106],[-0.1158224,51.50101],[-0.115809,51.50094],[-0.1157956,51.50087],[-0.1158144,51.50082],[-0.1158412,51.50079],[-0.1158975,51.50074],[-0.1161068,51.50066],[-0.1164286,51.50054],[-0.1165976,51.50044],[-0.1166781,51.50041],[-0.1168202,51.50041],[-0.1169034,51.50043],[-0.1170348,51.50049],[-0.1172199,51.50062],[-0.1173459,51.50069],[-0.1174586,51.50074],[-0.1175847,51.50075],[-0.1184456,51.50078],[-0.1189553,51.50079],[-0.1195641,51.5008],[-0.1198914,51.5008]]}},{"type":"Feature","properties":{"Title":"C56","Direction":"TwoWay","Flow":null,"Protection":null,"Ownership":null,"YearBuilt":null,"Borough":"Lambeth","LengthInMetres":245,"stroke":"#1A73E8","stroke-width":4},"geometry":{"type":"LineString","coordinates":[[-0.1166955,51.50041],[-0.1167706,51.50011],[-0.1168189,51.49986],[-0.1168752,51.49955],[-0.1169155,51.49936],[-0.1169584,51.49919],[-0.1169906,51.49908],[-0.1170174,51.49898],[-0.1170844,51.49885],[-0.1171434,51.49875],[-0.117232,51.49863],[-0.1173017,51.49854],[-0.1173875,51.49846],[-0.1175029,51.49835],[-0.1175511,51.49831]]}},{"type":"Feature","properties":{"Title":"Cycleway Link (Oval-Albert Embankment)","Direction":"TwoWay","Flow":null,"Protection":null,"Ownership":null,"YearBuilt":null,"Borough":"Lambeth","LengthInMetres":231,"stroke":"#1A73E8","stroke-width":4},"geometry":{"type":"LineString","coordinates":[[-0.1155411,51.48481],[-0.1155599,51.48489],[-0.1160574,51.48587],[-0.116496,51.4868]]}},{"type":"Feature","properties":{"Title":"Cycleway Link (Oval-Albert Embankment)","Direction":"OneWay","Flow":null,"Protection":null,"Ownership":null,"YearBuilt":null,"Borough":"Lambeth","LengthInMetres":11,"stroke":"#1A73E8","stroke-width":2},"geometry":{"type":"LineString","coordinates":[[-0.1173942,51.48882],[-0.1174398,51.48891]]}},{"type":"Feature","properties":{"Title":"Cycleway Link (Oval-Albert Embankment)","Direction":"OneWay","Flow":null,"Protection":null,"Ownership":null,"YearBuilt":null,"Borough":"Lambeth","LengthInMetres":10,"stroke":"#1A73E8","stroke-width":2},"geometry":{"type":"LineString","coordinates":[[-0.1164338,51.4906],[-0.1163694,51.49068]]}},{"type":"Feature","properties":{"Title":"Cycleway LinkÂ (Vauxhall-Pimlico)","Direction":"TwoWay","Flow":null,"Protection":null,"Ownership":null,"YearBuilt":null,"Borough":"Lambeth","LengthInMetres":325,"stroke":"#1A73E8","stroke-width":4},"geometry":{"type":"LineString","coordinates":[[-0.1270372,51.4877],[-0.1263745,51.4874],[-0.1257576,51.48713],[-0.1252587,51.48692],[-0.1247625,51.48673],[-0.1243763,51.48662],[-0.1241805,51.48656],[-0.1240383,51.48654],[-0.1239096,51.48656],[-0.1237808,51.48668],[-0.1236789,51.48671],[-0.1235475,51.48669],[-0.1235126,51.48666],[-0.1235126,51.48659],[-0.1235153,51.48655],[-0.1234885,51.48651],[-0.1234053,51.48649],[-0.1232792,51.48646]]}},{"type":"Feature","properties":{"Title":"Cycleway LinkÂ (Vauxhall-Pimlico)","Direction":"OneWay","Flow":null,"Protection":null,"Ownership":null,"YearBuilt":null,"Borough":"Lambeth","LengthInMetres":10,"stroke":"#1A73E8","stroke-width":2},"geometry":{"type":"LineString","coordinates":[[-0.1232844,51.48655],[-0.1232792,51.48646]]}},{"type":"Feature","properties":{"Title":"Cycleway LinkÂ (Vauxhall-Pimlico)","Direction":"OneWay","Flow":null,"Protection":null,"Ownership":null,"YearBuilt":null,"Borough":"Lambeth","LengthInMetres":41,"stroke":"#1A73E8","stroke-width":2},"geometry":{"type":"LineString","coordinates":[[-0.1237808,51.48668],[-0.1236841,51.48685],[-0.1236063,51.48696],[-0.12355,51.48702]]}},{"type":"Feature","properties":{"Title":"Cycleway LinkÂ (Vauxhall-Pimlico)","Direction":"OneWay","Flow":null,"Protection":null,"Ownership":null,"YearBuilt":null,"Borough":"Lambeth","LengthInMetres":83,"stroke":"#1A73E8","stroke-width":2},"geometry":{"type":"LineString","coordinates":[[-0.1232792,51.48646],[-0.1232049,51.48645],[-0.1230976,51.48645],[-0.1228053,51.48641],[-0.1221106,51.48632]]}},{"type":"Feature","properties":{"Title":"Cycleway LinkÂ (Vauxhall-Pimlico)","Direction":"OneWay","Flow":null,"Protection":null,"Ownership":null,"YearBuilt":null,"Borough":"Lambeth","LengthInMetres":3,"stroke":"#1A73E8","stroke-width":2},"geometry":{"type":"LineString","coordinates":[[-0.1221106,51.48632],[-0.1221079,51.48629]]}},{"type":"Feature","properties":{"Title":"Cycleway LinkÂ (Vauxhall-Pimlico)","Direction":"OneWay","Flow":null,"Protection":null,"Ownership":null,"YearBuilt":null,"Borough":"Lambeth","LengthInMetres":9,"stroke":"#1A73E8","stroke-width":2},"geometry":{"type":"LineString","coordinates":[[-0.1221106,51.48632],[-0.1220623,51.48632],[-0.1220093,51.48628]]}},{"type":"Feature","properties":{"Title":"Cycleway Link (Vauxhall-Pimlico)","Direction":"OneWay","Flow":null,"Protection":null,"Ownership":null,"YearBuilt":null,"Borough":"Lambeth","LengthInMetres":100,"stroke":"#1A73E8","stroke-width":2},"geometry":{"type":"LineString","coordinates":[[-0.1220093,51.48628],[-0.1226347,51.48629],[-0.1229432,51.4863],[-0.1231443,51.48631],[-0.1232328,51.48634],[-0.1232677,51.48638],[-0.1232792,51.48646]]}},{"type":"Feature","properties":{"Title":"King Edward Walk","Direction":"TwoWay","Flow":null,"Protection":null,"Ownership":null,"YearBuilt":null,"Borough":"Lambeth","LengthInMetres":31,"stroke":"#1A73E8","stroke-width":4},"geometry":{"type":"LineString","coordinates":[[-0.1096129,51.49819],[-0.1094988,51.49846]]}},{"type":"Feature","properties":{"Title":"Kennington Road","Direction":"OneWay","Flow":null,"Protection":null,"Ownership":null,"YearBuilt":null,"Borough":"Lambeth","LengthInMetres":185,"stroke":"#1A73E8","stroke-width":2},"geometry":{"type":"LineString","coordinates":[[-0.1117317,51.49703],[-0.1116407,51.49681],[-0.111362,51.49622],[-0.1110654,51.49566],[-0.1109512,51.49544]]}},{"type":"Feature","properties":{"Title":"Rosendale Road","Direction":"TwoWay","Flow":null,"Protection":null,"Ownership":null,"YearBuilt":null,"Borough":"Lambeth","LengthInMetres":512,"stroke":"#1A73E8","stroke-width":4},"geometry":{"type":"LineString","coordinates":[[-0.098132,51.44483],[-0.098402,51.44541],[-0.0987025,51.44597],[-0.098917,51.44618],[-0.0994106,51.44669],[-0.1000972,51.44715],[-0.1011486,51.4478],[-0.1023271,51.44849]]}},{"type":"Feature","properties":{"Title":"Clapham Common North Side","Direction":"OneWay","Flow":null,"Protection":null,"Ownership":null,"YearBuilt":null,"Borough":"Lambeth","LengthInMetres":109,"stroke":"#1A73E8","stroke-width":2},"geometry":{"type":"LineString","coordinates":[[-0.1417833,51.46317],[-0.1419871,51.46329],[-0.1420569,51.46331],[-0.1421963,51.46327],[-0.1428186,51.46273]]}},{"type":"Feature","properties":{"Title":"Clapham Common North Side","Direction":"OneWay","Flow":null,"Protection":null,"Ownership":null,"YearBuilt":null,"Borough":"Lambeth","LengthInMetres":153,"stroke":"#1A73E8","stroke-width":2},"geometry":{"type":"LineString","coordinates":[[-0.1433658,51.4624],[-0.1453721,51.46183]]}},{"type":"Feature","properties":{"Title":"The Pavement","Direction":"OneWay","Flow":null,"Protection":null,"Ownership":null,"YearBuilt":null,"Borough":"Lambeth","LengthInMetres":94,"stroke":"#1A73E8","stroke-width":2},"geometry":{"type":"LineString","coordinates":[[-0.1402167,51.46213],[-0.14056,51.46243],[-0.1408121,51.46262],[-0.1410777,51.46278]]}},{"type":"Feature","properties":{"Title":"LCN25","Direction":"TwoWay","Flow":null,"Protection":null,"Ownership":null,"YearBuilt":null,"Borough":"Lambeth","LengthInMetres":154,"stroke":"#1A73E8","stroke-width":4},"geometry":{"type":"LineString","coordinates":[[-0.1462248,51.45671],[-0.1445726,51.45618],[-0.1442507,51.45608]]}},{"type":"Feature","properties":{"Title":"Stockwell","Direction":"OneWay","Flow":null,"Protection":null,"Ownership":null,"YearBuilt":null,"Borough":"Lambeth","LengthInMetres":82,"stroke":"#1A73E8","stroke-width":2},"geometry":{"type":"LineString","coordinates":[[-0.1222656,51.47258],[-0.1223944,51.47331]]}},{"type":"Feature","properties":{"Title":"Hartlington Road","Direction":"OneWay","Flow":null,"Protection":null,"Ownership":null,"YearBuilt":null,"Borough":"Lambeth","LengthInMetres":57,"stroke":"#1A73E8","stroke-width":2},"geometry":{"type":"LineString","coordinates":[[-0.1269486,51.47767],[-0.1267126,51.47816]]}},{"type":"Feature","properties":{"Title":"Newburn Street","Direction":"OneWay","Flow":null,"Protection":null,"Ownership":null,"YearBuilt":null,"Borough":"Lambeth","LengthInMetres":62,"stroke":"#1A73E8","stroke-width":2},"geometry":{"type":"LineString","coordinates":[[-0.1149323,51.48944],[-0.1144817,51.48992]]}},{"type":"Feature","properties":{"Title":"Waterloo Bridge","Direction":"OneWay","Flow":null,"Protection":null,"Ownership":null,"YearBuilt":null,"Borough":"Lambeth","LengthInMetres":86,"stroke":"#1A73E8","stroke-width":2},"geometry":{"type":"LineString","coordinates":[[-0.1147889,51.50599],[-0.114231,51.50538],[-0.1141345,51.50542]]}},{"type":"Feature","properties":{"Title":"Clapham Common","Direction":"TwoWay","Flow":null,"Protection":null,"Ownership":null,"YearBuilt":null,"Borough":"Lambeth","LengthInMetres":555,"stroke":"#1A73E8","stroke-width":4},"geometry":{"type":"LineString","coordinates":[[-0.1477502,51.45655],[-0.148101,51.45818],[-0.1483799,51.45999],[-0.1486803,51.46104],[-0.1489378,51.46121],[-0.1489593,51.46143]]}},{"type":"Feature","properties":{"Title":"Crown Dale","Direction":"OneWay","Flow":null,"Protection":null,"Ownership":null,"YearBuilt":null,"Borough":"Lambeth","LengthInMetres":51,"stroke":"#1A73E8","stroke-width":2},"geometry":{"type":"LineString","coordinates":[[-0.0960656,51.42285],[-0.0955935,51.42288],[-0.095336,51.42288]]}},{"type":"Feature","properties":{"Title":"LCN25","Direction":"TwoWay","Flow":null,"Protection":null,"Ownership":null,"YearBuilt":null,"Borough":"Lambeth","LengthInMetres":14,"stroke":"#1A73E8","stroke-width":4},"geometry":{"type":"LineString","coordinates":[[-0.119213,51.45502],[-0.11939,51.45508]]}},{"type":"Feature","properties":{"Title":"LCN25","Direction":"TwoWay","Flow":null,"Protection":null,"Ownership":null,"YearBuilt":null,"Borough":"Lambeth","LengthInMetres":13,"stroke":"#1A73E8","stroke-width":4},"geometry":{"type":"LineString","coordinates":[[-0.1254035,51.45601],[-0.1254089,51.45613]]}},{"type":"Feature","properties":{"Title":"LCN25","Direction":"OneWay","Flow":null,"Protection":null,"Ownership":null,"YearBuilt":null,"Borough":"Lambeth","LengthInMetres":50,"stroke":"#1A73E8","stroke-width":2},"geometry":{"type":"LineString","coordinates":[[-0.1280521,51.45525],[-0.1279073,51.45523],[-0.1279509,51.45559]]}},{"type":"Feature","properties":{"Title":"LCN25","Direction":"TwoWay","Flow":null,"Protection":null,"Ownership":null,"YearBuilt":null,"Borough":"Lambeth","LengthInMetres":37,"stroke":"#1A73E8","stroke-width":4},"geometry":{"type":"LineString","coordinates":[[-0.1291485,51.45538],[-0.1296749,51.45545]]}},{"type":"Feature","properties":{"Title":"Westminster Bridge South - Safer Junctions","Direction":"OneWay","Flow":null,"Protection":null,"Ownership":null,"YearBuilt":null,"Borough":"Lambeth","LengthInMetres":46,"stroke":"#1A73E8","stroke-width":2},"geometry":{"type":"LineString","coordinates":[[-0.1169018,51.50183],[-0.1169957,51.50169],[-0.1170439,51.50162],[-0.1170627,51.50154],[-0.1170493,51.50148],[-0.1170064,51.50144]]}},{"type":"Feature","properties":{"Title":"Westminster Bridge South - Safer Junctions","Direction":"OneWay","Flow":null,"Protection":null,"Ownership":null,"YearBuilt":null,"Borough":"Lambeth","LengthInMetres":47,"stroke":"#1A73E8","stroke-width":2},"geometry":{"type":"LineString","coordinates":[[-0.115333,51.5005],[-0.1157085,51.50065],[-0.1158975,51.50074]]}},{"type":"Feature","properties":{"Title":"Kennington Road","Direction":"TwoWay","Flow":null,"Protection":null,"Ownership":null,"YearBuilt":null,"Borough":"Lambeth","LengthInMetres":175,"stroke":"#1A73E8","stroke-width":4},"geometry":{"type":"LineString","coordinates":[[-0.1123111,51.49856],[-0.1121662,51.49818],[-0.1120107,51.49775],[-0.1118927,51.49744],[-0.1117317,51.49703]]}},{"type":"Feature","properties":{"Title":"Cowley Road","Direction":"TwoWay","Flow":null,"Protection":null,"Ownership":null,"YearBuilt":null,"Borough":"Lambeth","LengthInMetres":44,"stroke":"#1A73E8","stroke-width":4},"geometry":{"type":"LineString","coordinates":[[-0.1101889,51.47625],[-0.1101272,51.47664]]}},{"type":"Feature","properties":{"Title":"Vauxhall","Direction":"TwoWay","Flow":null,"Protection":null,"Ownership":null,"YearBuilt":null,"Borough":"Lambeth","LengthInMetres":30,"stroke":"#1A73E8","stroke-width":4},"geometry":{"type":"LineString","coordinates":[[-0.1243546,51.48661],[-0.1245933,51.48639]]}},{"type":"Feature","properties":{"Title":"Vauxhall","Direction":"TwoWay","Flow":null,"Protection":null,"Ownership":null,"YearBuilt":null,"Borough":"Lambeth","LengthInMetres":225,"stroke":"#1A73E8","stroke-width":4},"geometry":{"type":"LineString","coordinates":[[-0.124307,51.48605],[-0.1243231,51.48596],[-0.1243955,51.48586],[-0.1245109,51.48575],[-0.1246369,51.48567],[-0.1258868,51.48489],[-0.1260907,51.48475],[-0.1262087,51.48466],[-0.1262865,51.48461],[-0.1263643,51.48459],[-0.1264447,51.4846]]}},{"type":"Feature","properties":{"Title":"Nine Elms Road","Direction":"OneWay","Flow":null,"Protection":null,"Ownership":null,"YearBuilt":null,"Borough":"Lambeth","LengthInMetres":129,"stroke":"#1A73E8","stroke-width":2},"geometry":{"type":"LineString","coordinates":[[-0.128252,51.48479],[-0.1280138,51.48481],[-0.1276625,51.4848],[-0.127346,51.48475],[-0.126772,51.48465],[-0.1264447,51.4846]]}},{"type":"Feature","properties":{"Title":"South Lambeth Road","Direction":"TwoWay","Flow":null,"Protection":null,"Ownership":null,"YearBuilt":null,"Borough":"Lambeth","LengthInMetres":266,"stroke":"#1A73E8","stroke-width":4},"geometry":{"type":"LineString","coordinates":[[-0.1217517,51.48605],[-0.1217771,51.48605],[-0.121863,51.48602],[-0.1219166,51.48598],[-0.1219354,51.48596],[-0.1219568,51.48592],[-0.1221339,51.48563],[-0.1223686,51.48526],[-0.1224195,51.4852],[-0.1225751,51.48502],[-0.1226462,51.48494],[-0.1227159,51.48486],[-0.1227494,51.48479],[-0.1227561,51.48474],[-0.1227575,51.48467],[-0.1227763,51.48458],[-0.1228192,51.48447],[-0.1228688,51.48436],[-0.1229023,51.48427],[-0.1229318,51.48417],[-0.1229586,51.48406],[-0.1229721,51.48399],[-0.1229962,51.48385]]}},{"type":"Feature","properties":{"Title":"Montford Place","Direction":"TwoWay","Flow":null,"Protection":null,"Ownership":null,"YearBuilt":null,"Borough":"Lambeth","LengthInMetres":12,"stroke":"#1A73E8","stroke-width":4},"geometry":{"type":"LineString","coordinates":[[-0.113334,51.48549],[-0.113275,51.48539]]}},{"type":"Feature","properties":{"Title":"Cleaver Street","Direction":"TwoWay","Flow":null,"Protection":null,"Ownership":null,"YearBuilt":null,"Borough":"Lambeth","LengthInMetres":13,"stroke":"#1A73E8","stroke-width":4},"geometry":{"type":"LineString","coordinates":[[-0.107488,51.4872],[-0.107329,51.48714]]}},{"type":"Feature","properties":{"Title":"Ravensdon Street","Direction":"TwoWay","Flow":null,"Protection":null,"Ownership":null,"YearBuilt":null,"Borough":"Lambeth","LengthInMetres":28,"stroke":"#1A73E8","stroke-width":4},"geometry":{"type":"LineString","coordinates":[[-0.108588,51.48628],[-0.108417,51.48621],[-0.108253,51.48614]]}},{"type":"Feature","properties":{"Title":"Miles Street","Direction":"TwoWay","Flow":null,"Protection":null,"Ownership":null,"YearBuilt":null,"Borough":"Lambeth","LengthInMetres":8,"stroke":"#1A73E8","stroke-width":4},"geometry":{"type":"LineString","coordinates":[[-0.125722,51.48306],[-0.125613,51.48304]]}},{"type":"Feature","properties":{"Title":"Peckham to Streatham Healthy Route","Direction":"TwoWay","Flow":null,"Protection":null,"Ownership":null,"YearBuilt":null,"Borough":"Lambeth","LengthInMetres":16,"stroke":"#1A73E8","stroke-width":4},"geometry":{"type":"LineString","coordinates":[[-0.1224918,51.43436],[-0.1223041,51.43445]]}},{"type":"Feature","properties":{"Title":"Trinity Rise","Direction":"OneWay","Flow":null,"Protection":null,"Ownership":null,"YearBuilt":null,"Borough":"Lambeth","LengthInMetres":59,"stroke":"#1A73E8","stroke-width":2},"geometry":{"type":"LineString","coordinates":[[-0.111442,51.44486],[-0.1109441,51.44499],[-0.110655,51.44505]]}},{"type":"Feature","properties":{"Title":"Sulivan RoadÂ ","Direction":"TwoWay","Flow":null,"Protection":null,"Ownership":null,"YearBuilt":null,"Borough":"Lambeth","LengthInMetres":5,"stroke":"#1A73E8","stroke-width":4},"geometry":{"type":"LineString","coordinates":[[-0.106808,51.49396],[-0.106757,51.49399]]}},{"type":"Feature","properties":{"Title":"Central London Grid","Direction":"TwoWay","Flow":null,"Protection":null,"Ownership":null,"YearBuilt":null,"Borough":"Lambeth","LengthInMetres":13,"stroke":"#1A73E8","stroke-width":4},"geometry":{"type":"LineString","coordinates":[[-0.1144162,51.49987],[-0.1144945,51.49986],[-0.1145803,51.49982]]}},{"type":"Feature","properties":{"Title":"Palace Road","Direction":"TwoWay","Flow":null,"Protection":null,"Ownership":null,"YearBuilt":null,"Borough":"Lambeth","LengthInMetres":11,"stroke":"#1A73E8","stroke-width":4},"geometry":{"type":"LineString","coordinates":[[-0.118429,51.44211],[-0.118325,51.44204]]}},{"type":"Feature","properties":{"Title":"Park Hill","Direction":"TwoWay","Flow":null,"Protection":null,"Ownership":null,"YearBuilt":null,"Borough":"Lambeth","LengthInMetres":10,"stroke":"#1A73E8","stroke-width":4},"geometry":{"type":"LineString","coordinates":[[-0.130473,51.45545],[-0.130475,51.4555],[-0.130476,51.45554]]}},{"type":"Feature","properties":{"Title":"West Road","Direction":"TwoWay","Flow":null,"Protection":null,"Ownership":null,"YearBuilt":null,"Borough":"Lambeth","LengthInMetres":12,"stroke":"#1A73E8","stroke-width":4},"geometry":{"type":"LineString","coordinates":[[-0.129183,51.45811],[-0.129014,51.45812]]}},{"type":"Feature","properties":{"Title":"Northwood Road - LB Lambeth","Direction":"OneWay","Flow":null,"Protection":null,"Ownership":null,"YearBuilt":null,"Borough":"Lambeth","LengthInMetres":248,"stroke":"#1A73E8","stroke-width":2},"geometry":{"type":"LineString","coordinates":[[-0.1047062,51.44676],[-0.10432,51.44703],[-0.1036119,51.44747],[-0.1029789,51.44799],[-0.1025927,51.44827],[-0.1023673,51.44844]]}},{"type":"Feature","properties":{"Title":"Windmill Drive","Direction":"TwoWay","Flow":null,"Protection":null,"Ownership":null,"YearBuilt":null,"Borough":"Lambeth","LengthInMetres":75,"stroke":"#1A73E8","stroke-width":4},"geometry":{"type":"LineString","coordinates":[[-0.1477272,51.45645],[-0.1466972,51.45665]]}},{"type":"Feature","properties":{"Title":"Wand protectionÂ ","Direction":"TwoWay","Flow":null,"Protection":null,"Ownership":null,"YearBuilt":null,"Borough":"Lambeth","LengthInMetres":105,"stroke":"#1A73E8","stroke-width":4},"geometry":{"type":"LineString","coordinates":[[-0.1122845,51.48199],[-0.1110296,51.48147]]}}]}