{"type":"FeatureCollection","features":[{"type":"Feature","properties":{"Title":"CS7 - Streetspace upgrade","Direction":"OneWay","Flow":null,"Protection":null,"Ownership":null,"YearBuilt":null,"Borough":"Merton","LengthInMetres":71,"stroke":"#388E3C","stroke-width":2},"geometry":{"type":"LineString","coordinates":[[-0.1732914,51.42304],[-0.1734854,51.4229],[-0.1736276,51.42278],[-0.1738904,51.42253]]}},{"type":"Feature","properties":{"Title":"CS7 - Streetspace upgrade","Direction":"TwoWay","Flow":null,"Protection":null,"Ownership":null,"YearBuilt":null,"Borough":"Merton","LengthInMetres":576,"stroke":"#388E3C","stroke-width":4},"geometry":{"type":"LineString","coordinates":[[-0.1738904,51.42253],[-0.1741258,51.42231],[-0.174268,51.42218],[-0.1744692,51.42196],[-0.1747132,51.4217],[-0.1750136,51.42137],[-0.1753409,51.42102],[-0.1757888,51.42055],[-0.1759256,51.42036],[-0.1761107,51.42013],[-0.1763118,51.41992],[-0.1765184,51.41972],[-0.176851,51.41942],[-0.177197,51.41912],[-0.177661,51.41866],[-0.1782028,51.41812]]}},{"type":"Feature","properties":{"Title":"CS7 - Streetspace upgrade","Direction":"TwoWay","Flow":null,"Protection":null,"Ownership":null,"YearBuilt":null,"Borough":"Merton","LengthInMetres":23,"stroke":"#388E3C","stroke-width":4},"geometry":{"type":"LineString","coordinates":[[-0.1793989,51.41707],[-0.1791817,51.41722]]}},{"type":"Feature","properties":{"Title":"C31","Direction":"TwoWay","Flow":null,"Protection":null,"Ownership":null,"YearBuilt":null,"Borough":"Merton","LengthInMetres":555,"stroke":"#388E3C","stroke-width":4},"geometry":{"type":"LineString","coordinates":[[-0.2454213,51.40642],[-0.241397,51.4072],[-0.2400881,51.40736],[-0.2386478,51.40769],[-0.238519,51.40773],[-0.2384895,51.40777],[-0.2384909,51.4078],[-0.2385003,51.40783],[-0.2385218,51.40788],[-0.238597,51.40802],[-0.238667,51.40818]]}},{"type":"Feature","properties":{"Title":"C31","Direction":"TwoWay","Flow":null,"Protection":null,"Ownership":null,"YearBuilt":null,"Borough":"Merton","LengthInMetres":91,"stroke":"#388E3C","stroke-width":4},"geometry":{"type":"LineString","coordinates":[[-0.234784,51.4089],[-0.2347449,51.40907],[-0.2346859,51.4093],[-0.2346027,51.40966],[-0.2345883,51.40971]]}},{"type":"Feature","properties":{"Title":"C31","Direction":"TwoWay","Flow":null,"Protection":null,"Ownership":null,"YearBuilt":null,"Borough":"Merton","LengthInMetres":304,"stroke":"#388E3C","stroke-width":4},"geometry":{"type":"LineString","coordinates":[[-0.2345883,51.40971],[-0.233929,51.40961],[-0.2332156,51.40949],[-0.2328023,51.40943],[-0.232537,51.4094],[-0.2322205,51.40937],[-0.2319549,51.40936],[-0.2317779,51.40936],[-0.2315177,51.40936],[-0.2307265,51.40939],[-0.2302866,51.40942]]}},{"type":"Feature","properties":{"Title":"Merton High Street","Direction":"OneWay","Flow":null,"Protection":null,"Ownership":null,"YearBuilt":null,"Borough":"Merton","LengthInMetres":26,"stroke":"#388E3C","stroke-width":2},"geometry":{"type":"LineString","coordinates":[[-0.1796879,51.41692],[-0.1795512,51.41697],[-0.1793989,51.41707]]}},{"type":"Feature","properties":{"Title":"LCN 74","Direction":"TwoWay","Flow":null,"Protection":null,"Ownership":null,"YearBuilt":null,"Borough":"Merton","LengthInMetres":969,"stroke":"#388E3C","stroke-width":4},"geometry":{"type":"LineString","coordinates":[[-0.246956,51.41365],[-0.2450248,51.41312],[-0.243394,51.41251],[-0.2421924,51.41221],[-0.2402397,51.41138],[-0.2383943,51.41071],[-0.2366348,51.41018],[-0.2351328,51.40981],[-0.2345883,51.40971]]}},{"type":"Feature","properties":{"Title":"Bushey Road","Direction":"TwoWay","Flow":null,"Protection":null,"Ownership":null,"YearBuilt":null,"Borough":"Merton","LengthInMetres":647,"stroke":"#388E3C","stroke-width":4},"geometry":{"type":"LineString","coordinates":[[-0.216641,51.40843],[-0.218025,51.40798],[-0.2194198,51.40764],[-0.2208253,51.40744],[-0.2220805,51.40736],[-0.2238723,51.40725],[-0.2256103,51.40717]]}},{"type":"Feature","properties":{"Title":"Wilton Grove","Direction":"TwoWay","Flow":null,"Protection":null,"Ownership":null,"YearBuilt":null,"Borough":"Merton","LengthInMetres":74,"stroke":"#388E3C","stroke-width":4},"geometry":{"type":"LineString","coordinates":[[-0.2059015,51.41342],[-0.2055581,51.41316],[-0.2054401,51.41317],[-0.2051719,51.41336]]}},{"type":"Feature","properties":{"Title":"The Path","Direction":"TwoWay","Flow":null,"Protection":null,"Ownership":null,"YearBuilt":null,"Borough":"Merton","LengthInMetres":52,"stroke":"#388E3C","stroke-width":4},"geometry":{"type":"LineString","coordinates":[[-0.1930483,51.41376],[-0.1927479,51.41383],[-0.1923295,51.41389]]}},{"type":"Feature","properties":{"Title":"High Path","Direction":"OneWay","Flow":null,"Protection":null,"Ownership":null,"YearBuilt":null,"Borough":"Merton","LengthInMetres":239,"stroke":"#388E3C","stroke-width":2},"geometry":{"type":"LineString","coordinates":[[-0.1923295,51.41389],[-0.1920271,51.4139],[-0.1915047,51.4139],[-0.1904814,51.41387],[-0.1903795,51.41386],[-0.1896204,51.41384],[-0.1888962,51.41383]]}},{"type":"Feature","properties":{"Title":"Merton - Mitcham Town Centre","Direction":"TwoWay","Flow":null,"Protection":null,"Ownership":null,"YearBuilt":null,"Borough":"Merton","LengthInMetres":333,"stroke":"#388E3C","stroke-width":4},"geometry":{"type":"LineString","coordinates":[[-0.1640458,51.40549],[-0.1656195,51.40598],[-0.1653332,51.40655],[-0.1650543,51.4069],[-0.1642603,51.40715],[-0.1637454,51.40729]]}},{"type":"Feature","properties":{"Title":"Merton - Morden Hall Road to park link","Direction":"TwoWay","Flow":null,"Protection":null,"Ownership":null,"YearBuilt":null,"Borough":"Merton","LengthInMetres":54,"stroke":"#388E3C","stroke-width":4},"geometry":{"type":"LineString","coordinates":[[-0.1911874,51.4032],[-0.1914288,51.4034],[-0.1915334,51.40348],[-0.1914932,51.40361]]}},{"type":"Feature","properties":{"Title":"Merton - Merantum Way","Direction":"TwoWay","Flow":null,"Protection":null,"Ownership":null,"YearBuilt":null,"Borough":"Merton","LengthInMetres":448,"stroke":"#388E3C","stroke-width":4},"geometry":{"type":"LineString","coordinates":[[-0.1836279,51.41384],[-0.183129,51.4139],[-0.1828769,51.41379],[-0.1827213,51.41379],[-0.1825067,51.41396],[-0.1800445,51.4143],[-0.1793149,51.41436],[-0.1789555,51.41437],[-0.1785961,51.41435],[-0.1786122,51.41414],[-0.1785478,51.41364]]}},{"type":"Feature","properties":{"Title":"Bishopsford Road","Direction":"TwoWay","Flow":null,"Protection":null,"Ownership":null,"YearBuilt":null,"Borough":"Merton","LengthInMetres":76,"stroke":"#388E3C","stroke-width":4},"geometry":{"type":"LineString","coordinates":[[-0.1767797,51.39186],[-0.1768468,51.3919],[-0.1769447,51.39194],[-0.176458,51.39234],[-0.1765142,51.39238]]}},{"type":"Feature","properties":{"Title":"Morden Hall Road","Direction":"TwoWay","Flow":null,"Protection":null,"Ownership":null,"YearBuilt":null,"Borough":"Merton","LengthInMetres":35,"stroke":"#388E3C","stroke-width":4},"geometry":{"type":"LineString","coordinates":[[-0.1917506,51.40361],[-0.1918043,51.40349],[-0.1918579,51.40341],[-0.1919813,51.40334]]}},{"type":"Feature","properties":{"Title":"Morden Hall Road","Direction":"TwoWay","Flow":null,"Protection":null,"Ownership":null,"YearBuilt":null,"Borough":"Merton","LengthInMetres":34,"stroke":"#388E3C","stroke-width":4},"geometry":{"type":"LineString","coordinates":[[-0.1918472,51.40321],[-0.1917452,51.40324],[-0.1915789,51.40323],[-0.1914342,51.40313]]}},{"type":"Feature","properties":{"Title":"Morden Hall Road","Direction":"TwoWay","Flow":null,"Protection":null,"Ownership":null,"YearBuilt":null,"Borough":"Merton","LengthInMetres":132,"stroke":"#388E3C","stroke-width":4},"geometry":{"type":"LineString","coordinates":[[-0.1912142,51.4028],[-0.1909138,51.40238],[-0.1906938,51.40203],[-0.1904497,51.40171]]}},{"type":"Feature","properties":{"Title":"Morden Hall Road","Direction":"TwoWay","Flow":null,"Protection":null,"Ownership":null,"YearBuilt":null,"Borough":"Merton","LengthInMetres":215,"stroke":"#388E3C","stroke-width":4},"geometry":{"type":"LineString","coordinates":[[-0.1900635,51.4014],[-0.1898087,51.40125],[-0.1895485,51.40107],[-0.1890684,51.4007],[-0.1884649,51.40025],[-0.1881538,51.4],[-0.188076,51.39992]]}},{"type":"Feature","properties":{"Title":"St Helier Avenue","Direction":"TwoWay","Flow":null,"Protection":null,"Ownership":null,"YearBuilt":null,"Borough":"Merton","LengthInMetres":78,"stroke":"#388E3C","stroke-width":4},"geometry":{"type":"LineString","coordinates":[[-0.1868207,51.39791],[-0.186779,51.39773],[-0.1867656,51.39757],[-0.1867709,51.3974],[-0.1867924,51.39721]]}},{"type":"Feature","properties":{"Title":"St Helier Avenue","Direction":"TwoWay","Flow":null,"Protection":null,"Ownership":null,"YearBuilt":null,"Borough":"Merton","LengthInMetres":202,"stroke":"#388E3C","stroke-width":4},"geometry":{"type":"LineString","coordinates":[[-0.1870901,51.39607],[-0.1871351,51.39583],[-0.1872316,51.39546],[-0.1873067,51.39519],[-0.1874167,51.39475],[-0.1875401,51.39428]]}},{"type":"Feature","properties":{"Title":"St Helier Avenue","Direction":"TwoWay","Flow":null,"Protection":null,"Ownership":null,"YearBuilt":null,"Borough":"Merton","LengthInMetres":208,"stroke":"#388E3C","stroke-width":4},"geometry":{"type":"LineString","coordinates":[[-0.1876527,51.39388],[-0.1877734,51.39341],[-0.1880256,51.39249],[-0.1881114,51.39216],[-0.1881436,51.39204]]}},{"type":"Feature","properties":{"Title":"St Helier Avenue","Direction":"TwoWay","Flow":null,"Protection":null,"Ownership":null,"YearBuilt":null,"Borough":"Merton","LengthInMetres":130,"stroke":"#388E3C","stroke-width":4},"geometry":{"type":"LineString","coordinates":[[-0.188208,51.39181],[-0.1884869,51.39073],[-0.188503,51.39066]]}},{"type":"Feature","properties":{"Title":"St Helier Avenue","Direction":"TwoWay","Flow":null,"Protection":null,"Ownership":null,"YearBuilt":null,"Borough":"Merton","LengthInMetres":45,"stroke":"#388E3C","stroke-width":4},"geometry":{"type":"LineString","coordinates":[[-0.1885674,51.39044],[-0.188672,51.39004]]}},{"type":"Feature","properties":{"Title":"St Helier Avenue","Direction":"TwoWay","Flow":null,"Protection":null,"Ownership":null,"YearBuilt":null,"Borough":"Merton","LengthInMetres":267,"stroke":"#388E3C","stroke-width":4},"geometry":{"type":"LineString","coordinates":[[-0.1888088,51.38952],[-0.1889923,51.38886],[-0.1892284,51.38796],[-0.189392,51.38733],[-0.1894403,51.38715]]}},{"type":"Feature","properties":{"Title":"St Helier Avenue","Direction":"TwoWay","Flow":null,"Protection":null,"Ownership":null,"YearBuilt":null,"Borough":"Merton","LengthInMetres":88,"stroke":"#388E3C","stroke-width":4},"geometry":{"type":"LineString","coordinates":[[-0.1895135,51.38689],[-0.1896503,51.38638],[-0.1897201,51.38611]]}},{"type":"Feature","properties":{"Title":"Raynes Park Bridge","Direction":"TwoWay","Flow":null,"Protection":null,"Ownership":null,"YearBuilt":null,"Borough":"Merton","LengthInMetres":61,"stroke":"#388E3C","stroke-width":4},"geometry":{"type":"LineString","coordinates":[[-0.2279741,51.40964],[-0.2278721,51.40962],[-0.2277541,51.40961],[-0.2276629,51.40961],[-0.2275288,51.40961],[-0.2272338,51.40961],[-0.2270997,51.40961]]}},{"type":"Feature","properties":{"Title":"Merton High Street","Direction":"OneWay","Flow":null,"Protection":null,"Ownership":null,"YearBuilt":null,"Borough":"Merton","LengthInMetres":282,"stroke":"#388E3C","stroke-width":2},"geometry":{"type":"LineString","coordinates":[[-0.187151,51.41593],[-0.1881266,51.41582],[-0.1884699,51.41579],[-0.18928,51.41573],[-0.1900417,51.41568],[-0.191077,51.41564],[-0.191179,51.41563]]}},{"type":"Feature","properties":{"Title":"Mitcham Bridge","Direction":"TwoWay","Flow":null,"Protection":null,"Ownership":null,"YearBuilt":null,"Borough":"Merton","LengthInMetres":35,"stroke":"#388E3C","stroke-width":4},"geometry":{"type":"LineString","coordinates":[[-0.173784,51.39459],[-0.173673,51.39473],[-0.173608,51.39482],[-0.173571,51.39487]]}},{"type":"Feature","properties":{"Title":"London Road","Direction":"OneWay","Flow":null,"Protection":null,"Ownership":null,"YearBuilt":null,"Borough":"Merton","LengthInMetres":160,"stroke":"#388E3C","stroke-width":2},"geometry":{"type":"LineString","coordinates":[[-0.173297,51.39623],[-0.173255,51.3965],[-0.173188,51.39682],[-0.173081,51.39731],[-0.173035,51.39748],[-0.172987,51.39761],[-0.172963,51.39765]]}},{"type":"Feature","properties":{"Title":"Mitcham Bridge","Direction":"TwoWay","Flow":null,"Protection":null,"Ownership":null,"YearBuilt":null,"Borough":"Merton","LengthInMetres":155,"stroke":"#388E3C","stroke-width":4},"geometry":{"type":"LineString","coordinates":[[-0.173571,51.39487],[-0.17349,51.39505],[-0.173437,51.39519],[-0.17341,51.39535],[-0.173391,51.3955],[-0.173362,51.39577],[-0.173308,51.39614],[-0.173295,51.39625]]}},{"type":"Feature","properties":{"Title":"LCN 74","Direction":"TwoWay","Flow":null,"Protection":null,"Ownership":null,"YearBuilt":null,"Borough":"Merton","LengthInMetres":546,"stroke":"#388E3C","stroke-width":4},"geometry":{"type":"LineString","coordinates":[[-0.2177819,51.4108],[-0.2148422,51.41133],[-0.2125248,51.41177],[-0.2105507,51.41211],[-0.2102503,51.41217]]}},{"type":"Feature","properties":{"Title":"Haydons Road - LB Merton","Direction":"TwoWay","Flow":null,"Protection":null,"Ownership":null,"YearBuilt":null,"Borough":"Merton","LengthInMetres":188,"stroke":"#388E3C","stroke-width":4},"geometry":{"type":"LineString","coordinates":[[-0.1901674,51.42627],[-0.1892662,51.42531],[-0.1887083,51.42485]]}},{"type":"Feature","properties":{"Title":"Church Road - LB Merton","Direction":"TwoWay","Flow":null,"Protection":null,"Ownership":null,"YearBuilt":null,"Borough":"Merton","LengthInMetres":242,"stroke":"#388E3C","stroke-width":4},"geometry":{"type":"LineString","coordinates":[[-0.1767179,51.4052],[-0.1769271,51.40567],[-0.1771202,51.4063],[-0.1773134,51.40693],[-0.1774421,51.40733]]}},{"type":"Feature","properties":{"Title":"Plough Lane - LB Merton","Direction":"OneWay","Flow":null,"Protection":null,"Ownership":null,"YearBuilt":null,"Borough":"Merton","LengthInMetres":215,"stroke":"#388E3C","stroke-width":2},"geometry":{"type":"LineString","coordinates":[[-0.1906981,51.42765],[-0.190108,51.42776],[-0.189475,51.42795],[-0.1883807,51.42833],[-0.1879301,51.4285]]}},{"type":"Feature","properties":{"Title":"Raleigh Gardens - LB Merton","Direction":"OneWay","Flow":null,"Protection":null,"Ownership":null,"YearBuilt":null,"Borough":"Merton","LengthInMetres":63,"stroke":"#388E3C","stroke-width":2},"geometry":{"type":"LineString","coordinates":[[-0.1659199,51.40547],[-0.1659199,51.40571],[-0.1656195,51.40598]]}},{"type":"Feature","properties":{"Title":"Plough Lane","Direction":"TwoWay","Flow":null,"Protection":null,"Ownership":null,"YearBuilt":null,"Borough":"Merton","LengthInMetres":159,"stroke":"#388E3C","stroke-width":4},"geometry":{"type":"LineString","coordinates":[[-0.1879301,51.4285],[-0.1874059,51.42869],[-0.187127,51.42885],[-0.1867193,51.42936],[-0.1865154,51.42957]]}},{"type":"Feature","properties":{"Title":"Plough Lane","Direction":"TwoWay","Flow":null,"Protection":null,"Ownership":null,"YearBuilt":null,"Borough":"Merton","LengthInMetres":201,"stroke":"#388E3C","stroke-width":4},"geometry":{"type":"LineString","coordinates":[[-0.186215,51.42989],[-0.1859039,51.43024],[-0.185464,51.43055],[-0.1848632,51.43088],[-0.1843358,51.43124]]}},{"type":"Feature","properties":{"Title":"Plough Lane","Direction":"OneWay","Flow":null,"Protection":null,"Ownership":null,"YearBuilt":null,"Borough":"Merton","LengthInMetres":40,"stroke":"#388E3C","stroke-width":2},"geometry":{"type":"LineString","coordinates":[[-0.1865154,51.42957],[-0.186221,51.42988]]}}]}