{"type":"FeatureCollection","features":[{"type":"Feature","properties":{"Title":"C2","Direction":"OneWay","Flow":null,"Protection":null,"Ownership":null,"YearBuilt":null,"Borough":"Newham","LengthInMetres":411,"stroke":"#FFA54F","stroke-width":2},"geometry":{"type":"LineString","coordinates":[[-0.0140136,51.52999],[-0.0139719,51.52999],[-0.0138378,51.52997],[-0.013355,51.53015],[-0.0127918,51.53039],[-0.0120032,51.53077],[-0.0114077,51.53111],[-0.0108391,51.53147],[-0.0104207,51.53173],[-0.0098628,51.53206],[-0.0094712,51.53228]]}},{"type":"Feature","properties":{"Title":"C2","Direction":"OneWay","Flow":null,"Protection":null,"Ownership":null,"YearBuilt":null,"Borough":"Newham","LengthInMetres":393,"stroke":"#FFA54F","stroke-width":2},"geometry":{"type":"LineString","coordinates":[[-0.0133099,51.52974],[-0.0132021,51.52979],[-0.0123706,51.53017],[-0.0119415,51.53037],[-0.01133,51.53069],[-0.0110188,51.53088],[-0.0105897,51.5312],[-0.010359,51.53144],[-0.0098977,51.53184],[-0.0094712,51.53228]]}},{"type":"Feature","properties":{"Title":"C2","Direction":"TwoWay","Flow":null,"Protection":null,"Ownership":null,"YearBuilt":null,"Borough":"Newham","LengthInMetres":1009,"stroke":"#FFA54F","stroke-width":4},"geometry":{"type":"LineString","coordinates":[[-0.0094712,51.53228],[-0.00856,51.53294],[-0.0077929,51.5335],[-0.0069131,51.53418],[-0.0064196,51.53458],[-0.0055881,51.53523],[-0.005057,51.53567],[-0.0045903,51.53603],[-0.003952,51.53648],[-0.0031688,51.53708],[-0.0026806,51.53745],[-0.0020422,51.53796],[-0.0013717,51.53847],[-0.0008782,51.53888],[-0.0006743,51.53906],[-0.00039,51.53935]]}},{"type":"Feature","properties":{"Title":"C2","Direction":"TwoWay","Flow":null,"Protection":null,"Ownership":null,"YearBuilt":null,"Borough":"Newham","LengthInMetres":946,"stroke":"#FFA54F","stroke-width":4},"geometry":{"type":"LineString","coordinates":[[-0.00039,51.53935],[-0.0004026,51.53962],[-0.0003811,51.53976],[-0.0006011,51.53984],[-0.00088,51.54011],[-0.0011965,51.5404],[-0.0013413,51.5406],[-0.0015988,51.54118],[-0.0017222,51.54157],[-0.0017383,51.54174],[-0.0016257,51.54213],[-0.0014701,51.54234],[-0.0012072,51.54251],[-0.0007942,51.54267],[-0.0005045,51.54275],[0.0003967,51.54295],[0.0007454,51.54302],[0.0009332,51.54319],[0.0015501,51.54336],[0.002167,51.54352],[0.0025532,51.54363],[0.0028644,51.54371],[0.0032023,51.54373],[0.0035886,51.54369],[0.0040874,51.54363],[0.004396,51.54353],[0.004282,51.54341],[0.0041894,51.54336],[0.0040123,51.54309],[0.0038621,51.54285],[0.0038407,51.54266],[0.0038729,51.54244]]}},{"type":"Feature","properties":{"Title":"C2","Direction":"OneWay","Flow":null,"Protection":null,"Ownership":null,"YearBuilt":null,"Borough":"Newham","LengthInMetres":200,"stroke":"#FFA54F","stroke-width":2},"geometry":{"type":"LineString","coordinates":[[0.0040874,51.54363],[0.0040427,51.54354],[0.0040176,51.54342],[0.0039926,51.54334],[0.0037619,51.54297],[0.0036707,51.54278],[0.0037136,51.54244],[0.0037673,51.54188]]}},{"type":"Feature","properties":{"Title":"C2","Direction":"OneWay","Flow":null,"Protection":null,"Ownership":null,"YearBuilt":null,"Borough":"Newham","LengthInMetres":66,"stroke":"#FFA54F","stroke-width":2},"geometry":{"type":"LineString","coordinates":[[0.0038729,51.54244],[0.003924,51.54185]]}},{"type":"Feature","properties":{"Title":"C2","Direction":"TwoWay","Flow":null,"Protection":null,"Ownership":null,"YearBuilt":null,"Borough":"Newham","LengthInMetres":11,"stroke":"#FFA54F","stroke-width":4},"geometry":{"type":"LineString","coordinates":[[0.003924,51.54185],[0.0037795,51.54182]]}},{"type":"Feature","properties":{"Title":"C2","Direction":"TwoWay","Flow":null,"Protection":null,"Ownership":null,"YearBuilt":null,"Borough":"Newham","LengthInMetres":14,"stroke":"#FFA54F","stroke-width":4},"geometry":{"type":"LineString","coordinates":[[0.0037795,51.54182],[0.0037757,51.54182],[0.0037673,51.54188],[0.0037795,51.54182]]}},{"type":"Feature","properties":{"Title":"C2","Direction":"TwoWay","Flow":null,"Protection":null,"Ownership":null,"YearBuilt":null,"Borough":"Newham","LengthInMetres":404,"stroke":"#FFA54F","stroke-width":4},"geometry":{"type":"LineString","coordinates":[[0.0037795,51.54182],[0.003781,51.54182],[0.0033841,51.54166],[0.0027993,51.54139],[0.002043,51.54103],[0.001823,51.54091],[0.001528,51.54078],[0.0011471,51.54059],[0.000836,51.5404],[0.0006536,51.54028],[0.0001439,51.53983],[-0.0000974,51.53959],[-0.00039,51.53935]]}},{"type":"Feature","properties":{"Title":"CS3 - East-West Cycle Superhighway","Direction":"TwoWay","Flow":null,"Protection":null,"Ownership":null,"YearBuilt":null,"Borough":"Newham","LengthInMetres":5809,"stroke":"#FFA54F","stroke-width":4},"geometry":{"type":"LineString","coordinates":[[0.0040521,51.51437],[0.0052723,51.51466],[0.0060018,51.51484],[0.0072678,51.5151],[0.0078686,51.51512],[0.0082978,51.51524],[0.0088772,51.51539],[0.0095853,51.51562],[0.0115808,51.51596],[0.0120529,51.51603],[0.0145849,51.51651],[0.0171813,51.51697],[0.0189408,51.51705],[0.0217088,51.51713],[0.0239834,51.51718],[0.0256785,51.5171],[0.0281247,51.51679],[0.0300344,51.51675],[0.0333174,51.51694],[0.0347336,51.51719],[0.0362786,51.51762],[0.0375661,51.51821],[0.0389823,51.51876],[0.0405916,51.51933],[0.0416645,51.51958],[0.043188,51.51984],[0.04469,51.52],[0.0464066,51.52],[0.0498184,51.51965],[0.0525006,51.51942],[0.0543674,51.5193],[0.0559338,51.51937],[0.0574573,51.51958],[0.058335,51.51975],[0.0585713,51.51979],[0.0587297,51.5198],[0.058935,51.5198],[0.0589532,51.51984],[0.058953,51.51986],[0.058947,51.51987],[0.059128,51.51991],[0.059245,51.51994],[0.059273,51.51995],[0.059311,51.51995],[0.059329,51.51994],[0.059364,51.51994],[0.0594024,51.51995],[0.059531,51.52],[0.059681,51.51995],[0.0597036,51.51999],[0.0597616,51.52004],[0.0598451,51.52009],[0.0601275,51.52019],[0.0603541,51.52029],[0.0607477,51.52043],[0.0609382,51.5205],[0.0615132,51.52074],[0.0620721,51.52098],[0.0625637,51.52119],[0.0630581,51.52143],[0.0638524,51.52178],[0.0641054,51.52188],[0.0646259,51.52207],[0.0653008,51.52232],[0.0667056,51.5228],[0.0672427,51.52299],[0.0680346,51.52317],[0.0684325,51.52326],[0.0686521,51.52331],[0.0688082,51.52336],[0.0689811,51.52342],[0.0692866,51.52354],[0.0696409,51.5237],[0.0700107,51.52387],[0.0700837,51.5239],[0.0702069,51.52394],[0.0703567,51.52397],[0.0704994,51.52401],[0.0706509,51.52406],[0.0708291,51.5241],[0.0710568,51.52415],[0.071382,51.52421],[0.0716177,51.52425],[0.0717876,51.52428],[0.071858,51.52428],[0.0719479,51.52428],[0.0720175,51.52428],[0.072138,51.52427],[0.0722732,51.52424],[0.0726423,51.52412],[0.0727806,51.52408],[0.0729725,51.52403],[0.0730725,51.524],[0.0731265,51.52399],[0.0732145,51.52398],[0.0735012,51.52399],[0.0736352,51.52399],[0.0737371,51.524],[0.0738383,51.52402],[0.07396,51.52405],[0.0740034,51.52406],[0.0740606,51.52407],[0.0741704,51.52411],[0.0743532,51.52419],[0.074546,51.5243],[0.0746203,51.52435],[0.074669,51.52439],[0.0748293,51.52455],[0.074878,51.52463],[0.0749098,51.52469],[0.0749329,51.52477],[0.0749594,51.5249],[0.0749595,51.52498],[0.0749463,51.52508],[0.0749379,51.52523],[0.0749472,51.52524],[0.0749753,51.52527],[0.0750584,51.52531],[0.0752217,51.52538],[0.0754291,51.52548],[0.0756908,51.52561],[0.075874,51.5257],[0.0764987,51.52597],[0.0766722,51.52604],[0.0768314,51.5261],[0.0769767,51.52615],[0.0770272,51.52617],[0.0770887,51.52618],[0.07711,51.5262],[0.0770986,51.52622],[0.0770808,51.52629],[0.0772433,51.52636],[0.0777134,51.52659],[0.0790652,51.52706],[0.0808085,51.52757]]}},{"type":"Feature","properties":{"Title":"C16","Direction":"TwoWay","Flow":null,"Protection":null,"Ownership":null,"YearBuilt":null,"Borough":"Newham","LengthInMetres":337,"stroke":"#FFA54F","stroke-width":4},"geometry":{"type":"LineString","coordinates":[[0.0461559,51.55484],[0.0460701,51.55524],[0.0449114,51.55652],[0.0444822,51.55722],[0.0442355,51.5576]]}},{"type":"Feature","properties":{"Title":"C16","Direction":"TwoWay","Flow":null,"Protection":null,"Ownership":null,"YearBuilt":null,"Borough":"Newham","LengthInMetres":253,"stroke":"#FFA54F","stroke-width":4},"geometry":{"type":"LineString","coordinates":[[0.0254096,51.55399],[0.0261499,51.55415],[0.0271047,51.55429],[0.0279845,51.55434],[0.0287355,51.5544],[0.0289743,51.5544]]}},{"type":"Feature","properties":{"Title":"C16","Direction":"TwoWay","Flow":null,"Protection":null,"Ownership":null,"YearBuilt":null,"Borough":"Newham","LengthInMetres":12,"stroke":"#FFA54F","stroke-width":4},"geometry":{"type":"LineString","coordinates":[[0.0292026,51.55438],[0.0293685,51.55434]]}},{"type":"Feature","properties":{"Title":"C16","Direction":"TwoWay","Flow":null,"Protection":null,"Ownership":null,"YearBuilt":null,"Borough":"Newham","LengthInMetres":21,"stroke":"#FFA54F","stroke-width":4},"geometry":{"type":"LineString","coordinates":[[0.0246285,51.55388],[0.0243495,51.5538]]}},{"type":"Feature","properties":{"Title":"C16","Direction":"TwoWay","Flow":null,"Protection":null,"Ownership":null,"YearBuilt":null,"Borough":"Newham","LengthInMetres":37,"stroke":"#FFA54F","stroke-width":4},"geometry":{"type":"LineString","coordinates":[[0.0114052,51.54982],[0.0113257,51.54977],[0.0109287,51.54969]]}},{"type":"Feature","properties":{"Title":"London Cycle Network","Direction":"TwoWay","Flow":null,"Protection":null,"Ownership":null,"YearBuilt":null,"Borough":"Newham","LengthInMetres":1766,"stroke":"#FFA54F","stroke-width":4},"geometry":{"type":"LineString","coordinates":[[0.0430293,51.50243],[0.0394673,51.50248],[0.037107,51.50251],[0.0343175,51.50243],[0.0316138,51.50224],[0.028996,51.50213],[0.0266356,51.50219],[0.0248761,51.50243],[0.0226016,51.50288],[0.0206704,51.50352],[0.0194688,51.504],[0.0184388,51.5044]]}},{"type":"Feature","properties":{"Title":"QE Park - Honour Lee Ave/Temple Mills La","Direction":"TwoWay","Flow":null,"Protection":null,"Ownership":null,"YearBuilt":null,"Borough":"Newham","LengthInMetres":505,"stroke":"#FFA54F","stroke-width":4},"geometry":{"type":"LineString","coordinates":[[-0.0139813,51.54706],[-0.0119322,51.54825],[-0.0099044,51.54936],[-0.0093679,51.54953],[-0.0086384,51.54971],[-0.0087558,51.54994]]}},{"type":"Feature","properties":{"Title":"QE Park - Honour Lee Ave/Temple Mills La","Direction":"TwoWay","Flow":null,"Protection":null,"Ownership":null,"YearBuilt":null,"Borough":"Newham","LengthInMetres":17,"stroke":"#FFA54F","stroke-width":4},"geometry":{"type":"LineString","coordinates":[[-0.0091174,51.55064],[-0.0091426,51.55069],[-0.0091511,51.55079]]}},{"type":"Feature","properties":{"Title":"QE Park - Honour Lee Ave/Temple Mills La","Direction":"TwoWay","Flow":null,"Protection":null,"Ownership":null,"YearBuilt":null,"Borough":"Newham","LengthInMetres":32,"stroke":"#FFA54F","stroke-width":4},"geometry":{"type":"LineString","coordinates":[[-0.0092058,51.55146],[-0.009207,51.55148],[-0.0092518,51.55175]]}},{"type":"Feature","properties":{"Title":"QE Park","Direction":"TwoWay","Flow":null,"Protection":null,"Ownership":null,"YearBuilt":null,"Borough":"Newham","LengthInMetres":832,"stroke":"#FFA54F","stroke-width":4},"geometry":{"type":"LineString","coordinates":[[-0.0067458,51.54086],[-0.0092885,51.54251],[-0.0109086,51.54352],[-0.011547,51.54379],[-0.0122819,51.544],[-0.0139127,51.5442],[-0.0148675,51.54427],[-0.015758,51.54425],[-0.0166967,51.54421]]}},{"type":"Feature","properties":{"Title":"Temple Mills Lane","Direction":"OneWay","Flow":null,"Protection":null,"Ownership":null,"YearBuilt":null,"Borough":"Newham","LengthInMetres":53,"stroke":"#FFA54F","stroke-width":2},"geometry":{"type":"LineString","coordinates":[[-0.0057158,51.55055],[-0.0064024,51.55035]]}},{"type":"Feature","properties":{"Title":"National Cycle Network 13","Direction":"TwoWay","Flow":null,"Protection":null,"Ownership":null,"YearBuilt":null,"Borough":"Newham","LengthInMetres":550,"stroke":"#FFA54F","stroke-width":4},"geometry":{"type":"LineString","coordinates":[[0.0059793,51.51005],[0.0070156,51.51005],[0.0080884,51.50997],[0.009054,51.50979],[0.0108565,51.5093],[0.0126697,51.50875],[0.0129808,51.5086],[0.013131,51.50835]]}},{"type":"Feature","properties":{"Title":"Romford Road","Direction":"OneWay","Flow":null,"Protection":null,"Ownership":null,"YearBuilt":null,"Borough":"Newham","LengthInMetres":43,"stroke":"#FFA54F","stroke-width":2},"geometry":{"type":"LineString","coordinates":[[0.0045089,51.54198],[0.004187,51.54193],[0.003924,51.54185]]}},{"type":"Feature","properties":{"Title":"Windmill Lane","Direction":"OneWay","Flow":null,"Protection":null,"Ownership":null,"YearBuilt":null,"Borough":"Newham","LengthInMetres":165,"stroke":"#FFA54F","stroke-width":2},"geometry":{"type":"LineString","coordinates":[[0.0045112,51.54592],[0.0042215,51.54592],[0.0022152,51.54556]]}},{"type":"Feature","properties":{"Title":"Risxen Road","Direction":"OneWay","Flow":null,"Protection":null,"Ownership":null,"YearBuilt":null,"Borough":"Newham","LengthInMetres":36,"stroke":"#FFA54F","stroke-width":2},"geometry":{"type":"LineString","coordinates":[[0.0517165,51.54777],[0.0516039,51.54772],[0.0514751,51.54761],[0.0514322,51.54754],[0.0514483,51.54752]]}},{"type":"Feature","properties":{"Title":"QE Olympic Park Avenue","Direction":"TwoWay","Flow":null,"Protection":null,"Ownership":null,"YearBuilt":null,"Borough":"Newham","LengthInMetres":193,"stroke":"#FFA54F","stroke-width":4},"geometry":{"type":"LineString","coordinates":[[-0.0139813,51.54706],[-0.0131068,51.54628],[-0.0128386,51.54602],[-0.0127514,51.54595],[-0.0127072,51.54588],[-0.0126616,51.54568],[-0.0126884,51.54557]]}},{"type":"Feature","properties":{"Title":"New Mount Street","Direction":"TwoWay","Flow":null,"Protection":null,"Ownership":null,"YearBuilt":null,"Borough":"Newham","LengthInMetres":86,"stroke":"#FFA54F","stroke-width":4},"geometry":{"type":"LineString","coordinates":[[0.0005458,51.5387],[0.0014792,51.53893],[0.0016938,51.53899]]}},{"type":"Feature","properties":{"Title":"Abbey Lane","Direction":"TwoWay","Flow":null,"Protection":null,"Ownership":null,"YearBuilt":null,"Borough":"Newham","LengthInMetres":133,"stroke":"#FFA54F","stroke-width":4},"geometry":{"type":"LineString","coordinates":[[-0.003129,51.53168],[-0.002963,51.53172],[-0.002834,51.53175],[-0.002284,51.53178],[-0.001954,51.5318],[-0.001233,51.53184]]}},{"type":"Feature","properties":{"Title":"Northwall Road","Direction":"TwoWay","Flow":null,"Protection":null,"Ownership":null,"YearBuilt":null,"Borough":"Newham","LengthInMetres":662,"stroke":"#FFA54F","stroke-width":4},"geometry":{"type":"LineString","coordinates":[[-0.0189922,51.55084],[-0.0187219,51.55087],[-0.0182579,51.55093],[-0.0178663,51.55098],[-0.0174613,51.55103],[-0.0169758,51.55108],[-0.0165842,51.55114],[-0.0162355,51.55119],[-0.0158547,51.55125],[-0.0154872,51.55131],[-0.014307,51.55151],[-0.0134568,51.55165],[-0.0127755,51.55176],[-0.0124268,51.55183],[-0.0121613,51.55188],[-0.0114719,51.55202],[-0.0109382,51.55213],[-0.01056,51.5522],[-0.0101979,51.55226],[-0.0098841,51.5523],[-0.0097605,51.55232]]}},{"type":"Feature","properties":{"Title":"The Grove","Direction":"OneWay","Flow":null,"Protection":null,"Ownership":null,"YearBuilt":null,"Borough":"Newham","LengthInMetres":53,"stroke":"#FFA54F","stroke-width":2},"geometry":{"type":"LineString","coordinates":[[0.0046052,51.54399],[0.004455,51.54364],[0.004396,51.54353]]}},{"type":"Feature","properties":{"Title":"The Grove","Direction":"OneWay","Flow":null,"Protection":null,"Ownership":null,"YearBuilt":null,"Borough":"Newham","LengthInMetres":44,"stroke":"#FFA54F","stroke-width":2},"geometry":{"type":"LineString","coordinates":[[0.0040874,51.54363],[0.0042071,51.5438],[0.0042876,51.544]]}},{"type":"Feature","properties":{"Title":"Villiers Gardens","Direction":"TwoWay","Flow":null,"Protection":null,"Ownership":null,"YearBuilt":null,"Borough":"Newham","LengthInMetres":59,"stroke":"#FFA54F","stroke-width":4},"geometry":{"type":"LineString","coordinates":[[-0.0146979,51.54809],[-0.0140354,51.54842]]}},{"type":"Feature","properties":{"Title":"Market Street","Direction":"TwoWay","Flow":null,"Protection":null,"Ownership":null,"YearBuilt":null,"Borough":"Newham","LengthInMetres":9,"stroke":"#FFA54F","stroke-width":4},"geometry":{"type":"LineString","coordinates":[[0.058616,51.53097],[0.058738,51.53098]]}},{"type":"Feature","properties":{"Title":"Newham Way","Direction":"TwoWay","Flow":null,"Protection":null,"Ownership":null,"YearBuilt":null,"Borough":"Newham","LengthInMetres":83,"stroke":"#FFA54F","stroke-width":4},"geometry":{"type":"LineString","coordinates":[[0.057398,51.5201],[0.057581,51.52014],[0.057914,51.5202],[0.058527,51.52035]]}},{"type":"Feature","properties":{"Title":"Wellington Road","Direction":"TwoWay","Flow":null,"Protection":null,"Ownership":null,"YearBuilt":null,"Borough":"Newham","LengthInMetres":31,"stroke":"#FFA54F","stroke-width":4},"geometry":{"type":"LineString","coordinates":[[0.058475,51.53129],[0.058572,51.53102]]}},{"type":"Feature","properties":{"Title":"Newham Way","Direction":"TwoWay","Flow":null,"Protection":null,"Ownership":null,"YearBuilt":null,"Borough":"Newham","LengthInMetres":352,"stroke":"#FFA54F","stroke-width":4},"geometry":{"type":"LineString","coordinates":[[0.058768,51.52082],[0.058791,51.52082],[0.05882,51.52083],[0.058864,51.52081],[0.058931,51.52076],[0.058999,51.5207],[0.059044,51.52065],[0.059082,51.52061],[0.059135,51.52059],[0.059222,51.52055],[0.05927,51.52055],[0.059355,51.52054],[0.0594,51.52054],[0.059437,51.52055],[0.05947,51.52056],[0.059523,51.52059],[0.059663,51.52066],[0.059734,51.52069],[0.059794,51.52072],[0.059835,51.52073],[0.059898,51.52074],[0.059974,51.52075],[0.060115,51.52079],[0.060187,51.52081],[0.060248,51.52084],[0.06033,51.52087],[0.060437,51.52093],[0.060678,51.52105],[0.0608,51.5211],[0.060901,51.52112],[0.061125,51.52118],[0.061207,51.52121],[0.061264,51.52124],[0.06129,51.52125],[0.061325,51.52127],[0.061365,51.5213],[0.061402,51.52132],[0.061428,51.52133],[0.061478,51.52134],[0.061509,51.52134],[0.061595,51.52136],[0.061648,51.52138],[0.061713,51.5214],[0.061778,51.52143],[0.06196,51.52152],[0.062008,51.52155],[0.062058,51.52157],[0.062327,51.52167],[0.062477,51.52174],[0.062506,51.52175],[0.062526,51.52175],[0.062608,51.52177],[0.062773,51.52183],[0.062661,51.52195]]}},{"type":"Feature","properties":{"Title":"Park Avenue","Direction":"TwoWay","Flow":null,"Protection":null,"Ownership":null,"YearBuilt":null,"Borough":"Newham","LengthInMetres":16,"stroke":"#FFA54F","stroke-width":4},"geometry":{"type":"LineString","coordinates":[[0.064204,51.52934],[0.064229,51.52927],[0.064255,51.5292]]}},{"type":"Feature","properties":{"Title":"Woolwich Manor Way","Direction":"TwoWay","Flow":null,"Protection":null,"Ownership":null,"YearBuilt":null,"Borough":"Newham","LengthInMetres":125,"stroke":"#FFA54F","stroke-width":4},"geometry":{"type":"LineString","coordinates":[[0.0614194,51.51244],[0.0613497,51.51276],[0.06128,51.51297],[0.0611351,51.51316],[0.0609313,51.51338],[0.0608615,51.51349]]}}]}