{"type":"FeatureCollection","features":[{"type":"Feature","properties":{"Title":"C4 - Tooley Street Streetspace extension","Direction":"OneWay","Flow":null,"Protection":null,"Ownership":null,"YearBuilt":null,"Borough":"Southwark","LengthInMetres":78,"stroke":"#1A43A8","stroke-width":2},"geometry":{"type":"LineString","coordinates":[[-0.0869721,51.50591],[-0.0880503,51.50609]]}},{"type":"Feature","properties":{"Title":"C4 - Tooley Street Streetspace extension","Direction":"OneWay","Flow":null,"Protection":null,"Ownership":null,"YearBuilt":null,"Borough":"Southwark","LengthInMetres":24,"stroke":"#1A43A8","stroke-width":2},"geometry":{"type":"LineString","coordinates":[[-0.0824606,51.5044],[-0.0823024,51.50435],[-0.0821468,51.5043]]}},{"type":"Feature","properties":{"Title":"C4 - Tooley Street Streetspace extension","Direction":"TwoWay","Flow":null,"Protection":null,"Ownership":null,"YearBuilt":null,"Borough":"Southwark","LengthInMetres":38,"stroke":"#1A43A8","stroke-width":4},"geometry":{"type":"LineString","coordinates":[[-0.0810572,51.50383],[-0.080856,51.50375],[-0.080679,51.50369],[-0.0805851,51.50366]]}},{"type":"Feature","properties":{"Title":"C4 - Tooley Street Streetspace extension","Direction":"TwoWay","Flow":null,"Protection":null,"Ownership":null,"YearBuilt":null,"Borough":"Southwark","LengthInMetres":48,"stroke":"#1A43A8","stroke-width":4},"geometry":{"type":"LineString","coordinates":[[-0.0797429,51.50345],[-0.0793969,51.50333],[-0.0791367,51.50324]]}},{"type":"Feature","properties":{"Title":"C4","Direction":"OneWay","Flow":null,"Protection":null,"Ownership":null,"YearBuilt":null,"Borough":"Southwark","LengthInMetres":129,"stroke":"#1A43A8","stroke-width":2},"geometry":{"type":"LineString","coordinates":[[-0.0773816,51.50233],[-0.0777044,51.50254],[-0.0780263,51.50275],[-0.0782248,51.50288],[-0.0783964,51.50298],[-0.0787478,51.50311]]}},{"type":"Feature","properties":{"Title":"C4","Direction":"TwoWay","Flow":null,"Protection":null,"Ownership":null,"YearBuilt":null,"Borough":"Southwark","LengthInMetres":642,"stroke":"#1A43A8","stroke-width":4},"geometry":{"type":"LineString","coordinates":[[-0.0773816,51.50233],[-0.0769369,51.50205],[-0.0765212,51.50178],[-0.0762744,51.50162],[-0.0760652,51.50151],[-0.0756977,51.50133],[-0.0751452,51.50105],[-0.0746919,51.50083],[-0.0743727,51.5007],[-0.0741716,51.50061],[-0.0737773,51.5005],[-0.0730745,51.50027],[-0.0727929,51.50018],[-0.0725971,51.50009],[-0.0722243,51.49988],[-0.0718058,51.49962],[-0.0714813,51.49944],[-0.0710361,51.49922],[-0.070631,51.49905],[-0.0703306,51.49893],[-0.070086,51.49884]]}},{"type":"Feature","properties":{"Title":"C4","Direction":"TwoWay","Flow":null,"Protection":null,"Ownership":null,"YearBuilt":null,"Borough":"Southwark","LengthInMetres":1116,"stroke":"#1A43A8","stroke-width":4},"geometry":{"type":"LineString","coordinates":[[-0.070086,51.49884],[-0.0696044,51.49868],[-0.0690304,51.49846],[-0.0684511,51.4983],[-0.067979,51.4982],[-0.0674372,51.49811],[-0.0668203,51.49805],[-0.0664394,51.49803],[-0.0660693,51.49805],[-0.0653021,51.49808],[-0.0646799,51.49814],[-0.0638323,51.49826],[-0.0623034,51.49845],[-0.0611286,51.4986],[-0.0608229,51.49864],[-0.060678,51.49862],[-0.0605224,51.49856],[-0.0604044,51.49856],[-0.0597822,51.49862],[-0.0588917,51.49871],[-0.0580924,51.4988],[-0.0573843,51.49887],[-0.056998,51.49889],[-0.0567137,51.49893],[-0.0565313,51.49895],[-0.0563436,51.49892],[-0.0561773,51.49885],[-0.0558244,51.49868],[-0.0555013,51.49852],[-0.0551902,51.49835],[-0.0550186,51.49826],[-0.0549045,51.49818]]}},{"type":"Feature","properties":{"Title":"C4 - Link","Direction":"TwoWay","Flow":null,"Protection":null,"Ownership":null,"YearBuilt":null,"Borough":"Southwark","LengthInMetres":23,"stroke":"#1A43A8","stroke-width":4},"geometry":{"type":"LineString","coordinates":[[-0.0702255,51.49865],[-0.0700538,51.49883]]}},{"type":"Feature","properties":{"Title":"C4 - Link","Direction":"TwoWay","Flow":null,"Protection":null,"Ownership":null,"YearBuilt":null,"Borough":"Southwark","LengthInMetres":171,"stroke":"#1A43A8","stroke-width":4},"geometry":{"type":"LineString","coordinates":[[-0.0560217,51.49877],[-0.0560512,51.49892],[-0.0560432,51.499],[-0.0559976,51.49907],[-0.0559734,51.49909],[-0.0558769,51.49912],[-0.055783,51.49913],[-0.0557481,51.49916],[-0.0557267,51.49921],[-0.0556837,51.49929],[-0.0556408,51.49934],[-0.0555979,51.4994],[-0.0554397,51.4994],[-0.0552304,51.4994],[-0.0550829,51.49938],[-0.0549274,51.49936],[-0.0548067,51.49936],[-0.0546967,51.49937],[-0.0546162,51.4994],[-0.0545411,51.49944],[-0.0544419,51.49951]]}},{"type":"Feature","properties":{"Title":"C5","Direction":"OneWay","Flow":null,"Protection":null,"Ownership":null,"YearBuilt":null,"Borough":"Southwark","LengthInMetres":8,"stroke":"#1A43A8","stroke-width":2},"geometry":{"type":"LineString","coordinates":[[-0.104323,51.50367],[-0.1044356,51.50367]]}},{"type":"Feature","properties":{"Title":"C5","Direction":"TwoWay","Flow":null,"Protection":null,"Ownership":null,"YearBuilt":null,"Borough":"Southwark","LengthInMetres":17,"stroke":"#1A43A8","stroke-width":4},"geometry":{"type":"LineString","coordinates":[[-0.1066321,51.50329],[-0.1064112,51.50336]]}},{"type":"Feature","properties":{"Title":"C6 - North-South Cycle Superhighway","Direction":"TwoWay","Flow":null,"Protection":null,"Ownership":null,"YearBuilt":null,"Borough":"Southwark","LengthInMetres":484,"stroke":"#1A43A8","stroke-width":4},"geometry":{"type":"LineString","coordinates":[[-0.1015418,51.49524],[-0.1021292,51.49542],[-0.1026029,51.49553],[-0.1030391,51.49565],[-0.103992,51.49594],[-0.1054404,51.49643],[-0.1058937,51.49661],[-0.1071611,51.49722],[-0.1073341,51.49735],[-0.1073018,51.49748]]}},{"type":"Feature","properties":{"Title":"C6 - North-South Cycle Superhighway","Direction":"TwoWay","Flow":null,"Protection":null,"Ownership":null,"YearBuilt":null,"Borough":"Southwark","LengthInMetres":1132,"stroke":"#1A43A8","stroke-width":4},"geometry":{"type":"LineString","coordinates":[[-0.1044985,51.50863],[-0.1044985,51.50844],[-0.1044797,51.50827],[-0.1044771,51.50806],[-0.1044784,51.5078],[-0.1044931,51.50759],[-0.10452,51.50735],[-0.104528,51.50705],[-0.10452,51.50673],[-0.1045428,51.50635],[-0.1045528,51.50608],[-0.1045642,51.50579],[-0.1046011,51.5052],[-0.1046085,51.50451],[-0.1046193,51.50425],[-0.1046447,51.50325],[-0.1046568,51.50303],[-0.1046755,51.50278],[-0.1047011,51.50217],[-0.1047104,51.50152],[-0.1047319,51.50097],[-0.1047533,51.50056],[-0.1047802,51.5],[-0.1048043,51.49944],[-0.1048097,51.49916],[-0.1048338,51.49895],[-0.1049049,51.49887],[-0.1050028,51.49879],[-0.1050309,51.49871],[-0.1050243,51.49865],[-0.1049652,51.49859],[-0.104874,51.49853]]}},{"type":"Feature","properties":{"Title":"CS7","Direction":"TwoWay","Flow":null,"Protection":null,"Ownership":null,"YearBuilt":null,"Borough":"Southwark","LengthInMetres":177,"stroke":"#1A43A8","stroke-width":4},"geometry":{"type":"LineString","coordinates":[[-0.09406,51.50886],[-0.094534,51.50806],[-0.0949632,51.50737]]}},{"type":"Feature","properties":{"Title":"CS7 - Streetspace upgrade","Direction":"TwoWay","Flow":null,"Protection":null,"Ownership":null,"YearBuilt":null,"Borough":"Southwark","LengthInMetres":82,"stroke":"#1A43A8","stroke-width":4},"geometry":{"type":"LineString","coordinates":[[-0.094534,51.50806],[-0.0949632,51.50737]]}},{"type":"Feature","properties":{"Title":"CS7 - Streetspace upgrade","Direction":"OneWay","Flow":null,"Protection":null,"Ownership":null,"YearBuilt":null,"Borough":"Southwark","LengthInMetres":119,"stroke":"#1A43A8","stroke-width":2},"geometry":{"type":"LineString","coordinates":[[-0.0956349,51.50493],[-0.0954017,51.5057],[-0.0953159,51.50598]]}},{"type":"Feature","properties":{"Title":"CS7 - Streetspace upgrade","Direction":"TwoWay","Flow":null,"Protection":null,"Ownership":null,"YearBuilt":null,"Borough":"Southwark","LengthInMetres":31,"stroke":"#1A43A8","stroke-width":4},"geometry":{"type":"LineString","coordinates":[[-0.0956475,51.50488],[-0.0955598,51.50515]]}},{"type":"Feature","properties":{"Title":"CS7 - Streetspace upgrade","Direction":"OneWay","Flow":null,"Protection":null,"Ownership":null,"YearBuilt":null,"Borough":"Southwark","LengthInMetres":52,"stroke":"#1A43A8","stroke-width":2},"geometry":{"type":"LineString","coordinates":[[-0.0956774,51.50441],[-0.0956797,51.50467],[-0.0956475,51.50488]]}},{"type":"Feature","properties":{"Title":"CS7 - Streetspace upgrade","Direction":"TwoWay","Flow":null,"Protection":null,"Ownership":null,"YearBuilt":null,"Borough":"Southwark","LengthInMetres":53,"stroke":"#1A43A8","stroke-width":4},"geometry":{"type":"LineString","coordinates":[[-0.0957136,51.50393],[-0.0956935,51.50421],[-0.0956774,51.50441]]}},{"type":"Feature","properties":{"Title":"CS7 - Streetspace upgrade","Direction":"OneWay","Flow":null,"Protection":null,"Ownership":null,"YearBuilt":null,"Borough":"Southwark","LengthInMetres":93,"stroke":"#1A43A8","stroke-width":2},"geometry":{"type":"LineString","coordinates":[[-0.0959444,51.50311],[-0.0958352,51.50324],[-0.0957936,51.50334],[-0.0957721,51.50345],[-0.0957145,51.50392]]}},{"type":"Feature","properties":{"Title":"CS7 - Streetspace upgrade","Direction":"OneWay","Flow":null,"Protection":null,"Ownership":null,"YearBuilt":null,"Borough":"Southwark","LengthInMetres":88,"stroke":"#1A43A8","stroke-width":2},"geometry":{"type":"LineString","coordinates":[[-0.0969892,51.50273],[-0.0967035,51.5028],[-0.096505,51.50283],[-0.0963092,51.50288],[-0.0961858,51.50292],[-0.0961188,51.50294],[-0.0960289,51.50301],[-0.0959444,51.50311]]}},{"type":"Feature","properties":{"Title":"CS7 - Streetspace upgrade","Direction":"OneWay","Flow":null,"Protection":null,"Ownership":null,"YearBuilt":null,"Borough":"Southwark","LengthInMetres":33,"stroke":"#1A43A8","stroke-width":2},"geometry":{"type":"LineString","coordinates":[[-0.0973509,51.50254],[-0.0972909,51.50259],[-0.0972265,51.50263],[-0.0971179,51.50269],[-0.0970562,51.50271],[-0.0969892,51.50273]]}},{"type":"Feature","properties":{"Title":"CS7 - Streetspace upgrade","Direction":"TwoWay","Flow":null,"Protection":null,"Ownership":null,"YearBuilt":null,"Borough":"Southwark","LengthInMetres":47,"stroke":"#1A43A8","stroke-width":4},"geometry":{"type":"LineString","coordinates":[[-0.0982199,51.50139],[-0.0979356,51.50177]]}},{"type":"Feature","properties":{"Title":"CS7 - Streetspace upgrade","Direction":"OneWay","Flow":null,"Protection":null,"Ownership":null,"YearBuilt":null,"Borough":"Southwark","LengthInMetres":52,"stroke":"#1A43A8","stroke-width":2},"geometry":{"type":"LineString","coordinates":[[-0.0985311,51.50097],[-0.0984184,51.50111],[-0.0982199,51.50139]]}},{"type":"Feature","properties":{"Title":"CS7 - Streetspace upgrade","Direction":"OneWay","Flow":null,"Protection":null,"Ownership":null,"YearBuilt":null,"Borough":"Southwark","LengthInMetres":80,"stroke":"#1A43A8","stroke-width":2},"geometry":{"type":"LineString","coordinates":[[-0.0991462,51.50036],[-0.0989629,51.50053],[-0.09881,51.50068],[-0.0986544,51.50084],[-0.0985311,51.50097]]}},{"type":"Feature","properties":{"Title":"CS7 - Streetspace upgrade","Direction":"TwoWay","Flow":null,"Protection":null,"Ownership":null,"YearBuilt":null,"Borough":"Southwark","LengthInMetres":41,"stroke":"#1A43A8","stroke-width":4},"geometry":{"type":"LineString","coordinates":[[-0.0994948,51.50006],[-0.0993446,51.5002],[-0.0991462,51.50036]]}},{"type":"Feature","properties":{"Title":"CS7 - Streetspace upgrade","Direction":"OneWay","Flow":null,"Protection":null,"Ownership":null,"YearBuilt":null,"Borough":"Southwark","LengthInMetres":28,"stroke":"#1A43A8","stroke-width":2},"geometry":{"type":"LineString","coordinates":[[-0.0996467,51.49983],[-0.0996209,51.49991],[-0.0995995,51.49995],[-0.0995525,51.50001],[-0.0994948,51.50006]]}},{"type":"Feature","properties":{"Title":"CS7 - Streetspace upgrade","Direction":"TwoWay","Flow":null,"Protection":null,"Ownership":null,"YearBuilt":null,"Borough":"Southwark","LengthInMetres":35,"stroke":"#1A43A8","stroke-width":4},"geometry":{"type":"LineString","coordinates":[[-0.0998288,51.49912],[-0.0997537,51.49943]]}},{"type":"Feature","properties":{"Title":"CS7","Direction":"OneWay","Flow":null,"Protection":null,"Ownership":null,"YearBuilt":null,"Borough":"Southwark","LengthInMetres":16,"stroke":"#1A43A8","stroke-width":2},"geometry":{"type":"LineString","coordinates":[[-0.0998449,51.49903],[-0.0998717,51.49889]]}},{"type":"Feature","properties":{"Title":"CS7","Direction":"OneWay","Flow":null,"Protection":null,"Ownership":null,"YearBuilt":null,"Borough":"Southwark","LengthInMetres":114,"stroke":"#1A43A8","stroke-width":2},"geometry":{"type":"LineString","coordinates":[[-0.1002257,51.49701],[-0.1002848,51.49713],[-0.1001989,51.49747],[-0.1001775,51.49768],[-0.1001453,51.49782],[-0.1000434,51.49801]]}},{"type":"Feature","properties":{"Title":"CS7","Direction":"TwoWay","Flow":null,"Protection":null,"Ownership":null,"YearBuilt":null,"Borough":"Southwark","LengthInMetres":64,"stroke":"#1A43A8","stroke-width":4},"geometry":{"type":"LineString","coordinates":[[-0.1019724,51.49616],[-0.1017793,51.49625],[-0.1016345,51.49638],[-0.1014574,51.49648],[-0.1013176,51.49656]]}},{"type":"Feature","properties":{"Title":"CS7","Direction":"TwoWay","Flow":null,"Protection":null,"Ownership":null,"YearBuilt":null,"Borough":"Southwark","LengthInMetres":173,"stroke":"#1A43A8","stroke-width":4},"geometry":{"type":"LineString","coordinates":[[-0.1030249,51.4936],[-0.1029793,51.4934],[-0.1029551,51.49328],[-0.1029042,51.4932],[-0.1027942,51.49307],[-0.1020271,51.49237],[-0.1019225,51.4923],[-0.1018527,51.49226]]}},{"type":"Feature","properties":{"Title":"CS7","Direction":"OneWay","Flow":null,"Protection":null,"Ownership":null,"YearBuilt":null,"Borough":"Southwark","LengthInMetres":52,"stroke":"#1A43A8","stroke-width":2},"geometry":{"type":"LineString","coordinates":[[-0.1058888,51.48838],[-0.106275,51.48798]]}},{"type":"Feature","properties":{"Title":"C10 - (formerly Q1)","Direction":"OneWay","Flow":null,"Protection":null,"Ownership":null,"YearBuilt":null,"Borough":"Southwark","LengthInMetres":30,"stroke":"#1A43A8","stroke-width":2},"geometry":{"type":"LineString","coordinates":[[-0.1045832,51.50096],[-0.1041541,51.50092]]}},{"type":"Feature","properties":{"Title":"C10 - (formerly Q1)","Direction":"TwoWay","Flow":null,"Protection":null,"Ownership":null,"YearBuilt":null,"Borough":"Southwark","LengthInMetres":53,"stroke":"#1A43A8","stroke-width":4},"geometry":{"type":"LineString","coordinates":[[-0.0921199,51.49903],[-0.0918302,51.49916],[-0.0914976,51.49931]]}},{"type":"Feature","properties":{"Title":"C10 - (formerly Q1)","Direction":"OneWay","Flow":null,"Protection":null,"Ownership":null,"YearBuilt":null,"Borough":"Southwark","LengthInMetres":121,"stroke":"#1A43A8","stroke-width":2},"geometry":{"type":"LineString","coordinates":[[-0.0908445,51.49956],[-0.0906647,51.49938],[-0.0906165,51.49935],[-0.0902678,51.49903],[-0.0901685,51.49894],[-0.0900049,51.49879],[-0.0898654,51.49866]]}},{"type":"Feature","properties":{"Title":"C10 - (formerly Q1)","Direction":"TwoWay","Flow":null,"Protection":null,"Ownership":null,"YearBuilt":null,"Borough":"Southwark","LengthInMetres":41,"stroke":"#1A43A8","stroke-width":4},"geometry":{"type":"LineString","coordinates":[[-0.0854016,51.49736],[-0.0851327,51.49722],[-0.0849423,51.49713]]}},{"type":"Feature","properties":{"Title":"C10 - (formerly Q1)","Direction":"TwoWay","Flow":null,"Protection":null,"Ownership":null,"YearBuilt":null,"Borough":"Southwark","LengthInMetres":15,"stroke":"#1A43A8","stroke-width":4},"geometry":{"type":"LineString","coordinates":[[-0.0831184,51.49598],[-0.0830808,51.49596],[-0.0830245,51.49595],[-0.0829414,51.49591]]}},{"type":"Feature","properties":{"Title":"C10 - (formerly Q1)","Direction":"TwoWay","Flow":null,"Protection":null,"Ownership":null,"YearBuilt":null,"Borough":"Southwark","LengthInMetres":12,"stroke":"#1A43A8","stroke-width":4},"geometry":{"type":"LineString","coordinates":[[-0.0814179,51.49496],[-0.0812596,51.49492]]}},{"type":"Feature","properties":{"Title":"C10 - (formerly Q1)","Direction":"TwoWay","Flow":null,"Protection":null,"Ownership":null,"YearBuilt":null,"Borough":"Southwark","LengthInMetres":20,"stroke":"#1A43A8","stroke-width":4},"geometry":{"type":"LineString","coordinates":[[-0.0733793,51.48935],[-0.0732909,51.48934],[-0.0732427,51.48933],[-0.073138,51.48932],[-0.0730951,51.48931]]}},{"type":"Feature","properties":{"Title":"C10 - (formerly Q1)","Direction":"TwoWay","Flow":null,"Protection":null,"Ownership":null,"YearBuilt":null,"Borough":"Southwark","LengthInMetres":6,"stroke":"#1A43A8","stroke-width":4},"geometry":{"type":"LineString","coordinates":[[-0.0695305,51.48872],[-0.0694398,51.48872]]}},{"type":"Feature","properties":{"Title":"C10 - (formerly Q1)","Direction":"TwoWay","Flow":null,"Protection":null,"Ownership":null,"YearBuilt":null,"Borough":"Southwark","LengthInMetres":66,"stroke":"#1A43A8","stroke-width":4},"geometry":{"type":"LineString","coordinates":[[-0.0663572,51.48837],[-0.0661664,51.48834],[-0.0656567,51.48833],[-0.0654127,51.48833]]}},{"type":"Feature","properties":{"Title":"C10 - (formerly Q1)","Direction":"TwoWay","Flow":null,"Protection":null,"Ownership":null,"YearBuilt":null,"Borough":"Southwark","LengthInMetres":60,"stroke":"#1A43A8","stroke-width":4},"geometry":{"type":"LineString","coordinates":[[-0.0626848,51.48846],[-0.062515,51.48849],[-0.0623051,51.48853],[-0.0620838,51.48857],[-0.0619644,51.48859],[-0.0619443,51.48859],[-0.0619202,51.48859],[-0.061892,51.48859],[-0.0618726,51.48859],[-0.0618464,51.48859]]}},{"type":"Feature","properties":{"Title":"C14","Direction":"OneWay","Flow":null,"Protection":null,"Ownership":null,"YearBuilt":null,"Borough":"Southwark","LengthInMetres":63,"stroke":"#1A43A8","stroke-width":2},"geometry":{"type":"LineString","coordinates":[[-0.1031076,51.50517],[-0.1031103,51.50491],[-0.1030835,51.50483],[-0.1030352,51.5048],[-0.1029494,51.50481],[-0.1027428,51.50481]]}},{"type":"Feature","properties":{"Title":"C14","Direction":"TwoWay","Flow":null,"Protection":null,"Ownership":null,"YearBuilt":null,"Borough":"Southwark","LengthInMetres":60,"stroke":"#1A43A8","stroke-width":4},"geometry":{"type":"LineString","coordinates":[[-0.0956344,51.50393],[-0.0959616,51.50391],[-0.0962995,51.5039],[-0.0964966,51.50387]]}},{"type":"Feature","properties":{"Title":"C14","Direction":"TwoWay","Flow":null,"Protection":null,"Ownership":null,"YearBuilt":null,"Borough":"Southwark","LengthInMetres":70,"stroke":"#1A43A8","stroke-width":4},"geometry":{"type":"LineString","coordinates":[[-0.0956344,51.50393],[-0.0951516,51.50392],[-0.0946258,51.50392]]}},{"type":"Feature","properties":{"Title":"C14","Direction":"OneWay","Flow":null,"Protection":null,"Ownership":null,"YearBuilt":null,"Borough":"Southwark","LengthInMetres":211,"stroke":"#1A43A8","stroke-width":2},"geometry":{"type":"LineString","coordinates":[[-0.0946258,51.50392],[-0.0943791,51.50389],[-0.093789,51.50378],[-0.0933867,51.50368],[-0.0930433,51.50359],[-0.0927,51.50351],[-0.0923031,51.50344],[-0.0920026,51.50337],[-0.0917666,51.5033]]}},{"type":"Feature","properties":{"Title":"C14","Direction":"TwoWay","Flow":null,"Protection":null,"Ownership":null,"YearBuilt":null,"Borough":"Southwark","LengthInMetres":46,"stroke":"#1A43A8","stroke-width":4},"geometry":{"type":"LineString","coordinates":[[-0.091234,51.50308],[-0.0914662,51.50314],[-0.0916593,51.50319],[-0.0917666,51.5033]]}},{"type":"Feature","properties":{"Title":"C14","Direction":"OneWay","Flow":null,"Protection":null,"Ownership":null,"YearBuilt":null,"Borough":"Southwark","LengthInMetres":14,"stroke":"#1A43A8","stroke-width":2},"geometry":{"type":"LineString","coordinates":[[-0.0877344,51.50223],[-0.0879305,51.5022]]}},{"type":"Feature","properties":{"Title":"C14","Direction":"OneWay","Flow":null,"Protection":null,"Ownership":null,"YearBuilt":null,"Borough":"Southwark","LengthInMetres":15,"stroke":"#1A43A8","stroke-width":2},"geometry":{"type":"LineString","coordinates":[[-0.0873573,51.50228],[-0.0875626,51.50225]]}},{"type":"Feature","properties":{"Title":"C14","Direction":"TwoWay","Flow":null,"Protection":null,"Ownership":null,"YearBuilt":null,"Borough":"Southwark","LengthInMetres":57,"stroke":"#1A43A8","stroke-width":4},"geometry":{"type":"LineString","coordinates":[[-0.0792864,51.5002],[-0.0789946,51.50022],[-0.0787532,51.50022],[-0.0785762,51.50017],[-0.0784957,51.50014]]}},{"type":"Feature","properties":{"Title":"C14","Direction":"OneWay","Flow":null,"Protection":null,"Ownership":null,"YearBuilt":null,"Borough":"Southwark","LengthInMetres":56,"stroke":"#1A43A8","stroke-width":2},"geometry":{"type":"LineString","coordinates":[[-0.0766685,51.49988],[-0.0759523,51.50011]]}},{"type":"Feature","properties":{"Title":"C14","Direction":"TwoWay","Flow":null,"Protection":null,"Ownership":null,"YearBuilt":null,"Borough":"Southwark","LengthInMetres":159,"stroke":"#1A43A8","stroke-width":4},"geometry":{"type":"LineString","coordinates":[[-0.0759523,51.50011],[-0.0758142,51.50014],[-0.0757887,51.50014],[-0.0757887,51.50009],[-0.0757874,51.50014],[-0.0757016,51.50016],[-0.0755058,51.50021],[-0.0752563,51.50029],[-0.07509,51.50035],[-0.0749438,51.5004],[-0.0747467,51.50044],[-0.0745549,51.50046],[-0.0743873,51.50046],[-0.0741982,51.50045],[-0.0740762,51.50052],[-0.0740104,51.50056]]}},{"type":"Feature","properties":{"Title":"C14","Direction":"TwoWay","Flow":null,"Protection":null,"Ownership":null,"YearBuilt":null,"Borough":"Southwark","LengthInMetres":97,"stroke":"#1A43A8","stroke-width":4},"geometry":{"type":"LineString","coordinates":[[-0.0521194,51.5012],[-0.0517761,51.50087],[-0.0515829,51.50082],[-0.0512074,51.50056]]}},{"type":"Feature","properties":{"Title":"C17","Direction":"TwoWay","Flow":null,"Protection":null,"Ownership":null,"YearBuilt":null,"Borough":"Southwark","LengthInMetres":397,"stroke":"#1A43A8","stroke-width":4},"geometry":{"type":"LineString","coordinates":[[-0.0956288,51.49433],[-0.0947142,51.49415],[-0.0943159,51.49411],[-0.0941168,51.4941],[-0.0940923,51.4939],[-0.0940142,51.49369],[-0.0938425,51.49331],[-0.0937889,51.49297],[-0.0938854,51.49286],[-0.0934992,51.49269],[-0.0932846,51.49246],[-0.0931613,51.4924],[-0.0932739,51.49234],[-0.0934214,51.49239],[-0.0935368,51.4924],[-0.0938103,51.49231],[-0.0939928,51.49225],[-0.0939659,51.49219]]}},{"type":"Feature","properties":{"Title":"C17","Direction":"TwoWay","Flow":null,"Protection":null,"Ownership":null,"YearBuilt":null,"Borough":"Southwark","LengthInMetres":206,"stroke":"#1A43A8","stroke-width":4},"geometry":{"type":"LineString","coordinates":[[-0.0884689,51.48416],[-0.0879647,51.48333],[-0.0874926,51.48344],[-0.0879647,51.48332],[-0.0884475,51.48318]]}},{"type":"Feature","properties":{"Title":"C17","Direction":"TwoWay","Flow":null,"Protection":null,"Ownership":null,"YearBuilt":null,"Borough":"Southwark","LengthInMetres":151,"stroke":"#1A43A8","stroke-width":4},"geometry":{"type":"LineString","coordinates":[[-0.0884475,51.48318],[-0.0894238,51.4829],[-0.0884367,51.48318],[-0.0884475,51.48318]]}},{"type":"Feature","properties":{"Title":"Q7 - Green Dale","Direction":"OneWay","Flow":null,"Protection":null,"Ownership":null,"YearBuilt":null,"Borough":"Southwark","LengthInMetres":37,"stroke":"#1A43A8","stroke-width":2},"geometry":{"type":"LineString","coordinates":[[-0.0841733,51.45584],[-0.0839587,51.45554]]}},{"type":"Feature","properties":{"Title":"Q7 - Townley Road","Direction":"OneWay","Flow":null,"Protection":null,"Ownership":null,"YearBuilt":null,"Borough":"Southwark","LengthInMetres":50,"stroke":"#1A43A8","stroke-width":2},"geometry":{"type":"LineString","coordinates":[[-0.0839587,51.45554],[-0.0836583,51.45513]]}},{"type":"Feature","properties":{"Title":"Q7 - Townley Road","Direction":"OneWay","Flow":null,"Protection":null,"Ownership":null,"YearBuilt":null,"Borough":"Southwark","LengthInMetres":42,"stroke":"#1A43A8","stroke-width":2},"geometry":{"type":"LineString","coordinates":[[-0.0836583,51.45513],[-0.0834866,51.45477]]}},{"type":"Feature","properties":{"Title":"Q7 - Townley Road","Direction":"OneWay","Flow":null,"Protection":null,"Ownership":null,"YearBuilt":null,"Borough":"Southwark","LengthInMetres":35,"stroke":"#1A43A8","stroke-width":2},"geometry":{"type":"LineString","coordinates":[[-0.0836583,51.45513],[-0.0834008,51.45486]]}},{"type":"Feature","properties":{"Title":"Q7 - Dulwich Square - LB Southwark","Direction":"TwoWay","Flow":null,"Protection":null,"Ownership":null,"YearBuilt":null,"Borough":"Southwark","LengthInMetres":75,"stroke":"#1A43A8","stroke-width":4},"geometry":{"type":"LineString","coordinates":[[-0.0854966,51.45068],[-0.0851855,51.45084],[-0.0851104,51.45097],[-0.0851855,51.45083],[-0.0849923,51.45077]]}},{"type":"Feature","properties":{"Title":"Q7 - Turney Road","Direction":"OneWay","Flow":null,"Protection":null,"Ownership":null,"YearBuilt":null,"Borough":"Southwark","LengthInMetres":9,"stroke":"#1A43A8","stroke-width":2},"geometry":{"type":"LineString","coordinates":[[-0.0855573,51.45046],[-0.0854822,51.45053]]}},{"type":"Feature","properties":{"Title":"C35","Direction":"TwoWay","Flow":null,"Protection":null,"Ownership":null,"YearBuilt":null,"Borough":"Southwark","LengthInMetres":32,"stroke":"#1A43A8","stroke-width":4},"geometry":{"type":"LineString","coordinates":[[-0.072216,51.48653],[-0.0723528,51.48636],[-0.0724225,51.48627]]}},{"type":"Feature","properties":{"Title":"C35","Direction":"TwoWay","Flow":null,"Protection":null,"Ownership":null,"YearBuilt":null,"Borough":"Southwark","LengthInMetres":240,"stroke":"#1A43A8","stroke-width":4},"geometry":{"type":"LineString","coordinates":[[-0.0740798,51.48325],[-0.074104,51.48296],[-0.0740042,51.48296],[-0.0741066,51.48296],[-0.0741066,51.48276],[-0.0741013,51.48223],[-0.0741227,51.48219],[-0.0741201,51.48214],[-0.074104,51.48212],[-0.0740986,51.48202],[-0.074112,51.48198],[-0.074112,51.48193],[-0.0740986,51.4819],[-0.0740986,51.48161],[-0.0741174,51.48158],[-0.0741201,51.48154],[-0.0741066,51.48151],[-0.0740932,51.48123]]}},{"type":"Feature","properties":{"Title":"C35","Direction":"TwoWay","Flow":null,"Protection":null,"Ownership":null,"YearBuilt":null,"Borough":"Southwark","LengthInMetres":32,"stroke":"#1A43A8","stroke-width":4},"geometry":{"type":"LineString","coordinates":[[-0.0732457,51.47735],[-0.0732349,51.47722],[-0.0731115,51.47708]]}},{"type":"Feature","properties":{"Title":"C36","Direction":"OneWay","Flow":null,"Protection":null,"Ownership":null,"YearBuilt":null,"Borough":"Southwark","LengthInMetres":60,"stroke":"#1A43A8","stroke-width":2},"geometry":{"type":"LineString","coordinates":[[-0.0952488,51.48078],[-0.0949095,51.48082],[-0.0946513,51.48084],[-0.0943971,51.48086]]}},{"type":"Feature","properties":{"Title":"Grange Road","Direction":"TwoWay","Flow":null,"Protection":null,"Ownership":null,"YearBuilt":null,"Borough":"Southwark","LengthInMetres":186,"stroke":"#1A43A8","stroke-width":4},"geometry":{"type":"LineString","coordinates":[[-0.0734646,51.49305],[-0.0731212,51.49281],[-0.0726921,51.49269],[-0.0723166,51.49265],[-0.0716299,51.49269],[-0.0710077,51.49273]]}},{"type":"Feature","properties":{"Title":"Rockingham Street","Direction":"TwoWay","Flow":null,"Protection":null,"Ownership":null,"YearBuilt":null,"Borough":"Southwark","LengthInMetres":59,"stroke":"#1A43A8","stroke-width":4},"geometry":{"type":"LineString","coordinates":[[-0.0996979,51.49666],[-0.0996343,51.49662],[-0.0995814,51.49658],[-0.0994613,51.49653],[-0.099063,51.49641],[-0.0989812,51.49639]]}},{"type":"Feature","properties":{"Title":"John Maurice Cl","Direction":"TwoWay","Flow":null,"Protection":null,"Ownership":null,"YearBuilt":null,"Borough":"Southwark","LengthInMetres":38,"stroke":"#1A43A8","stroke-width":4},"geometry":{"type":"LineString","coordinates":[[-0.0931613,51.4924],[-0.0930498,51.49247],[-0.0928995,51.49254],[-0.0927011,51.49258]]}},{"type":"Feature","properties":{"Title":"King Edward Walk","Direction":"TwoWay","Flow":null,"Protection":null,"Ownership":null,"YearBuilt":null,"Borough":"Southwark","LengthInMetres":14,"stroke":"#1A43A8","stroke-width":4},"geometry":{"type":"LineString","coordinates":[[-0.1096598,51.49807],[-0.1096129,51.49819]]}},{"type":"Feature","properties":{"Title":"NCN 4 - / Upper Ground","Direction":"OneWay","Flow":null,"Protection":null,"Ownership":null,"YearBuilt":null,"Borough":"Southwark","LengthInMetres":73,"stroke":"#1A43A8","stroke-width":2},"geometry":{"type":"LineString","coordinates":[[-0.1055314,51.50815],[-0.1047905,51.50814],[-0.1044814,51.50814]]}},{"type":"Feature","properties":{"Title":"Rotherhithe New Road","Direction":"OneWay","Flow":null,"Protection":null,"Ownership":null,"YearBuilt":null,"Borough":"Southwark","LengthInMetres":111,"stroke":"#1A43A8","stroke-width":2},"geometry":{"type":"LineString","coordinates":[[-0.0509806,51.49098],[-0.0517101,51.49102],[-0.0525685,51.49094]]}},{"type":"Feature","properties":{"Title":"Bermondsey Street","Direction":"OneWay","Flow":null,"Protection":null,"Ownership":null,"YearBuilt":null,"Borough":"Southwark","LengthInMetres":144,"stroke":"#1A43A8","stroke-width":2},"geometry":{"type":"LineString","coordinates":[[-0.0825203,51.50248],[-0.0830353,51.50373]]}},{"type":"Feature","properties":{"Title":"New Kent Road","Direction":"TwoWay","Flow":null,"Protection":null,"Ownership":null,"YearBuilt":null,"Borough":"Southwark","LengthInMetres":136,"stroke":"#1A43A8","stroke-width":4},"geometry":{"type":"LineString","coordinates":[[-0.0941168,51.4941],[-0.0933559,51.4941],[-0.0921543,51.49412]]}},{"type":"Feature","properties":{"Title":"Heygate Street","Direction":"OneWay","Flow":null,"Protection":null,"Ownership":null,"YearBuilt":null,"Borough":"Southwark","LengthInMetres":23,"stroke":"#1A43A8","stroke-width":2},"geometry":{"type":"LineString","coordinates":[[-0.0981386,51.49189],[-0.0984497,51.49181]]}},{"type":"Feature","properties":{"Title":"Rotherhithe New Road","Direction":"TwoWay","Flow":null,"Protection":null,"Ownership":null,"YearBuilt":null,"Borough":"Southwark","LengthInMetres":274,"stroke":"#1A43A8","stroke-width":4},"geometry":{"type":"LineString","coordinates":[[-0.0622347,51.48686],[-0.0614005,51.48724],[-0.0608748,51.48739],[-0.0599307,51.48759],[-0.0586646,51.48786]]}},{"type":"Feature","properties":{"Title":"Camberwell Grove","Direction":"OneWay","Flow":null,"Protection":null,"Ownership":null,"YearBuilt":null,"Borough":"Southwark","LengthInMetres":49,"stroke":"#1A43A8","stroke-width":2},"geometry":{"type":"LineString","coordinates":[[-0.0856622,51.46934],[-0.0853564,51.46894]]}},{"type":"Feature","properties":{"Title":"Stuart Road","Direction":"OneWay","Flow":null,"Protection":null,"Ownership":null,"YearBuilt":null,"Borough":"Southwark","LengthInMetres":35,"stroke":"#1A43A8","stroke-width":2},"geometry":{"type":"LineString","coordinates":[[-0.0543873,51.45842],[-0.0540976,51.45837],[-0.0538938,51.45835]]}},{"type":"Feature","properties":{"Title":"Farquhar Road","Direction":"OneWay","Flow":null,"Protection":null,"Ownership":null,"YearBuilt":null,"Borough":"Southwark","LengthInMetres":143,"stroke":"#1A43A8","stroke-width":2},"geometry":{"type":"LineString","coordinates":[[-0.0788887,51.42154],[-0.0791891,51.42102],[-0.0792428,51.42092],[-0.079114,51.42084],[-0.0783523,51.42066]]}},{"type":"Feature","properties":{"Title":"Westwood Hill","Direction":"TwoWay","Flow":null,"Protection":null,"Ownership":null,"YearBuilt":null,"Borough":"Southwark","LengthInMetres":14,"stroke":"#1A43A8","stroke-width":4},"geometry":{"type":"LineString","coordinates":[[-0.0749767,51.42587],[-0.0748601,51.42597]]}},{"type":"Feature","properties":{"Title":"Westwood Hill","Direction":"TwoWay","Flow":null,"Protection":null,"Ownership":null,"YearBuilt":null,"Borough":"Southwark","LengthInMetres":13,"stroke":"#1A43A8","stroke-width":4},"geometry":{"type":"LineString","coordinates":[[-0.0748601,51.42597],[-0.0747471,51.42588]]}},{"type":"Feature","properties":{"Title":"Westwood Hill","Direction":"TwoWay","Flow":null,"Protection":null,"Ownership":null,"YearBuilt":null,"Borough":"Southwark","LengthInMetres":119,"stroke":"#1A43A8","stroke-width":4},"geometry":{"type":"LineString","coordinates":[[-0.0748601,51.42597],[-0.0748171,51.42621],[-0.0748332,51.42609],[-0.0746026,51.42613],[-0.0746347,51.42616],[-0.0746026,51.42613],[-0.0745275,51.42611],[-0.0741841,51.4262],[-0.0740393,51.42631],[-0.0739537,51.42634]]}},{"type":"Feature","properties":{"Title":"College Road","Direction":"OneWay","Flow":null,"Protection":null,"Ownership":null,"YearBuilt":null,"Borough":"Southwark","LengthInMetres":24,"stroke":"#1A43A8","stroke-width":2},"geometry":{"type":"LineString","coordinates":[[-0.0769129,51.42708],[-0.0766554,51.42694]]}},{"type":"Feature","properties":{"Title":"Lyndhurst Way - Southwark Spine","Direction":"OneWay","Flow":null,"Protection":null,"Ownership":null,"YearBuilt":null,"Borough":"Southwark","LengthInMetres":146,"stroke":"#1A43A8","stroke-width":2},"geometry":{"type":"LineString","coordinates":[[-0.0734186,51.46809],[-0.0737888,51.46938]]}},{"type":"Feature","properties":{"Title":"Bellenden Road - Southwark Spine","Direction":"OneWay","Flow":null,"Protection":null,"Ownership":null,"YearBuilt":null,"Borough":"Southwark","LengthInMetres":50,"stroke":"#1A43A8","stroke-width":2},"geometry":{"type":"LineString","coordinates":[[-0.0727615,51.46956],[-0.0726837,51.46927],[-0.0726515,51.46912]]}},{"type":"Feature","properties":{"Title":"Bellenden Road - Southwark Spine","Direction":"OneWay","Flow":null,"Protection":null,"Ownership":null,"YearBuilt":null,"Borough":"Southwark","LengthInMetres":13,"stroke":"#1A43A8","stroke-width":2},"geometry":{"type":"LineString","coordinates":[[-0.0725755,51.46873],[-0.0725504,51.46861]]}},{"type":"Feature","properties":{"Title":"Bellenden Road - Southwark Spine","Direction":"OneWay","Flow":null,"Protection":null,"Ownership":null,"YearBuilt":null,"Borough":"Southwark","LengthInMetres":12,"stroke":"#1A43A8","stroke-width":2},"geometry":{"type":"LineString","coordinates":[[-0.072474,51.46824],[-0.0724713,51.46822],[-0.0724713,51.46813]]}},{"type":"Feature","properties":{"Title":"New Kent Road","Direction":"TwoWay","Flow":null,"Protection":null,"Ownership":null,"YearBuilt":null,"Borough":"Southwark","LengthInMetres":159,"stroke":"#1A43A8","stroke-width":4},"geometry":{"type":"LineString","coordinates":[[-0.0956288,51.49433],[-0.0971049,51.49462],[-0.0978184,51.49475]]}},{"type":"Feature","properties":{"Title":"Elephant & Castle Safer Junction","Direction":"OneWay","Flow":null,"Protection":null,"Ownership":null,"YearBuilt":null,"Borough":"Southwark","LengthInMetres":35,"stroke":"#1A43A8","stroke-width":2},"geometry":{"type":"LineString","coordinates":[[-0.1009103,51.49314],[-0.1009405,51.49319],[-0.1009492,51.49324],[-0.1009331,51.49331],[-0.1009009,51.49345],[-0.1009007,51.49345]]}},{"type":"Feature","properties":{"Title":"Elephant & Castle Safer Junction","Direction":"OneWay","Flow":null,"Protection":null,"Ownership":null,"YearBuilt":null,"Borough":"Southwark","LengthInMetres":9,"stroke":"#1A43A8","stroke-width":2},"geometry":{"type":"LineString","coordinates":[[-0.1009007,51.49345],[-0.100862,51.49337]]}},{"type":"Feature","properties":{"Title":"Elephant & Castle Safer Junction","Direction":"OneWay","Flow":null,"Protection":null,"Ownership":null,"YearBuilt":null,"Borough":"Southwark","LengthInMetres":7,"stroke":"#1A43A8","stroke-width":2},"geometry":{"type":"LineString","coordinates":[[-0.100862,51.49337],[-0.1008097,51.49332]]}},{"type":"Feature","properties":{"Title":"Elephant & Castle Safer Junction","Direction":"OneWay","Flow":null,"Protection":null,"Ownership":null,"YearBuilt":null,"Borough":"Southwark","LengthInMetres":9,"stroke":"#1A43A8","stroke-width":2},"geometry":{"type":"LineString","coordinates":[[-0.100862,51.49337],[-0.1009009,51.49345],[-0.1009007,51.49345]]}},{"type":"Feature","properties":{"Title":"Elephant & Castle Safer Junction","Direction":"OneWay","Flow":null,"Protection":null,"Ownership":null,"YearBuilt":null,"Borough":"Southwark","LengthInMetres":171,"stroke":"#1A43A8","stroke-width":2},"geometry":{"type":"LineString","coordinates":[[-0.1009007,51.49345],[-0.1008473,51.49378],[-0.1008392,51.49389],[-0.1008419,51.49401],[-0.1008687,51.49432],[-0.1008929,51.49451],[-0.1009707,51.49467],[-0.1010297,51.49471],[-0.1011557,51.49476],[-0.1012308,51.49477],[-0.1012443,51.4948],[-0.1012443,51.49483],[-0.1012013,51.49487]]}},{"type":"Feature","properties":{"Title":"Elephant & Castle Safer Junctions","Direction":"OneWay","Flow":null,"Protection":null,"Ownership":null,"YearBuilt":null,"Borough":"Southwark","LengthInMetres":163,"stroke":"#1A43A8","stroke-width":2},"geometry":{"type":"LineString","coordinates":[[-0.0998495,51.4951],[-0.0998958,51.49511],[-0.0999313,51.49513],[-0.0999641,51.49518],[-0.099997,51.49523],[-0.1000507,51.49534],[-0.1000788,51.49538],[-0.1001151,51.49541],[-0.1001559,51.49544],[-0.1002183,51.49546],[-0.100282,51.49547],[-0.100346,51.49547],[-0.1004074,51.49547],[-0.1006139,51.49546],[-0.1007963,51.49544],[-0.1008614,51.49542],[-0.1009197,51.49539],[-0.1009613,51.49535],[-0.1010002,51.49529],[-0.1010002,51.49526],[-0.1009935,51.4952],[-0.10096,51.49513],[-0.1009251,51.49507],[-0.1008795,51.49502],[-0.1008057,51.49497],[-0.1007588,51.49494],[-0.1006944,51.4949]]}},{"type":"Feature","properties":{"Title":"Elephant & Castle Safer Junctions","Direction":"TwoWay","Flow":null,"Protection":null,"Ownership":null,"YearBuilt":null,"Borough":"Southwark","LengthInMetres":95,"stroke":"#1A43A8","stroke-width":4},"geometry":{"type":"LineString","coordinates":[[-0.1006944,51.4949],[-0.1008822,51.49487],[-0.1010485,51.49483],[-0.1011021,51.49483],[-0.1012013,51.49487],[-0.1013462,51.49497],[-0.1014702,51.49503],[-0.1015389,51.49507],[-0.1016191,51.4951],[-0.1016412,51.49512],[-0.1016473,51.49513],[-0.1016433,51.49515],[-0.1015433,51.49524]]}},{"type":"Feature","properties":{"Title":"Elephant & Castle Safer Junctions","Direction":"OneWay","Flow":null,"Protection":null,"Ownership":null,"YearBuilt":null,"Borough":"Southwark","LengthInMetres":13,"stroke":"#1A43A8","stroke-width":2},"geometry":{"type":"LineString","coordinates":[[-0.1015433,51.49524],[-0.1015297,51.49525],[-0.1014789,51.49527],[-0.1013865,51.49531]]}},{"type":"Feature","properties":{"Title":"Elephant & Castle Safer Junctions","Direction":"OneWay","Flow":null,"Protection":null,"Ownership":null,"YearBuilt":null,"Borough":"Southwark","LengthInMetres":75,"stroke":"#1A43A8","stroke-width":2},"geometry":{"type":"LineString","coordinates":[[-0.1003008,51.49568],[-0.1000527,51.49562],[-0.0999621,51.49559],[-0.0999196,51.49557],[-0.0998945,51.49555],[-0.0998247,51.49542],[-0.0997751,51.49529],[-0.0997375,51.49525],[-0.0996866,51.49519]]}},{"type":"Feature","properties":{"Title":"Newington Causeway","Direction":"OneWay","Flow":null,"Protection":null,"Ownership":null,"YearBuilt":null,"Borough":"Southwark","LengthInMetres":155,"stroke":"#1A43A8","stroke-width":2},"geometry":{"type":"LineString","coordinates":[[-0.099584,51.49668],[-0.0995853,51.4966],[-0.0995974,51.49656],[-0.0996511,51.49648],[-0.099753,51.49626],[-0.0998133,51.49614],[-0.0998415,51.49611],[-0.0999729,51.49596],[-0.1000453,51.49589],[-0.1001418,51.4958],[-0.1002652,51.49571],[-0.1002988,51.49568],[-0.1005757,51.49546]]}},{"type":"Feature","properties":{"Title":"Marine Street","Direction":"TwoWay","Flow":null,"Protection":null,"Ownership":null,"YearBuilt":null,"Borough":"Southwark","LengthInMetres":54,"stroke":"#1A43A8","stroke-width":4},"geometry":{"type":"LineString","coordinates":[[-0.0700387,51.49634],[-0.0698241,51.49681]]}},{"type":"Feature","properties":{"Title":"Stevenson Cres","Direction":"TwoWay","Flow":null,"Protection":null,"Ownership":null,"YearBuilt":null,"Borough":"Southwark","LengthInMetres":47,"stroke":"#1A43A8","stroke-width":4},"geometry":{"type":"LineString","coordinates":[[-0.0630746,51.48951],[-0.0630846,51.4893],[-0.063084,51.48922],[-0.0630826,51.4892],[-0.0630276,51.48909]]}},{"type":"Feature","properties":{"Title":"Peckham Rye","Direction":"OneWay","Flow":null,"Protection":null,"Ownership":null,"YearBuilt":null,"Borough":"Southwark","LengthInMetres":68,"stroke":"#1A43A8","stroke-width":2},"geometry":{"type":"LineString","coordinates":[[-0.0660148,51.46554],[-0.0659933,51.4655],[-0.0660148,51.46525],[-0.0659907,51.46516],[-0.0659442,51.46504],[-0.0659192,51.46494]]}},{"type":"Feature","properties":{"Title":"Dulwich Village","Direction":"OneWay","Flow":null,"Protection":null,"Ownership":null,"YearBuilt":null,"Borough":"Southwark","LengthInMetres":29,"stroke":"#1A43A8","stroke-width":2},"geometry":{"type":"LineString","coordinates":[[-0.0854864,51.44784],[-0.0854784,51.44776],[-0.0854945,51.44766],[-0.085473,51.44761],[-0.0854677,51.44758]]}},{"type":"Feature","properties":{"Title":"Sumner Street","Direction":"TwoWay","Flow":null,"Protection":null,"Ownership":null,"YearBuilt":null,"Borough":"Southwark","LengthInMetres":18,"stroke":"#1A43A8","stroke-width":4},"geometry":{"type":"LineString","coordinates":[[-0.1006907,51.50612],[-0.1007175,51.50602],[-0.1007497,51.50596]]}},{"type":"Feature","properties":{"Title":"Southwark Bridge Road","Direction":"OneWay","Flow":null,"Protection":null,"Ownership":null,"YearBuilt":null,"Borough":"Southwark","LengthInMetres":48,"stroke":"#1A43A8","stroke-width":2},"geometry":{"type":"LineString","coordinates":[[-0.1002662,51.4969],[-0.0999581,51.49677],[-0.0996979,51.49666]]}},{"type":"Feature","properties":{"Title":"Elephant and Castle Safer Junctions","Direction":"OneWay","Flow":null,"Protection":null,"Ownership":null,"YearBuilt":null,"Borough":"Southwark","LengthInMetres":32,"stroke":"#1A43A8","stroke-width":2},"geometry":{"type":"LineString","coordinates":[[-0.1008741,51.4954],[-0.1009835,51.49548],[-0.1010077,51.49553],[-0.1011123,51.49564]]}},{"type":"Feature","properties":{"Title":"Newington Causeway","Direction":"OneWay","Flow":null,"Protection":null,"Ownership":null,"YearBuilt":null,"Borough":"Southwark","LengthInMetres":34,"stroke":"#1A43A8","stroke-width":2},"geometry":{"type":"LineString","coordinates":[[-0.100496,51.49579],[-0.1001741,51.49602]]}},{"type":"Feature","properties":{"Title":"Swan Street","Direction":"TwoWay","Flow":null,"Protection":null,"Ownership":null,"YearBuilt":null,"Borough":"Southwark","LengthInMetres":18,"stroke":"#1A43A8","stroke-width":4},"geometry":{"type":"LineString","coordinates":[[-0.092832,51.5003],[-0.092634,51.50041]]}},{"type":"Feature","properties":{"Title":"Walworth Road","Direction":"OneWay","Flow":null,"Protection":null,"Ownership":null,"YearBuilt":null,"Borough":"Southwark","LengthInMetres":25,"stroke":"#1A43A8","stroke-width":2},"geometry":{"type":"LineString","coordinates":[[-0.0999588,51.49322],[-0.1003209,51.49323]]}},{"type":"Feature","properties":{"Title":"Southwark Spine","Direction":"OneWay","Flow":null,"Protection":null,"Ownership":null,"YearBuilt":null,"Borough":"Southwark","LengthInMetres":4,"stroke":"#1A43A8","stroke-width":2},"geometry":{"type":"LineString","coordinates":[[-0.074241,51.47111],[-0.074182,51.47111]]}},{"type":"Feature","properties":{"Title":"Peckham Rye","Direction":"OneWay","Flow":null,"Protection":null,"Ownership":null,"YearBuilt":null,"Borough":"Southwark","LengthInMetres":54,"stroke":"#1A43A8","stroke-width":2},"geometry":{"type":"LineString","coordinates":[[-0.0659192,51.46486],[-0.0656805,51.4644]]}},{"type":"Feature","properties":{"Title":"Peckham Rye","Direction":"TwoWay","Flow":null,"Protection":null,"Ownership":null,"YearBuilt":null,"Borough":"Southwark","LengthInMetres":21,"stroke":"#1A43A8","stroke-width":4},"geometry":{"type":"LineString","coordinates":[[-0.0656805,51.4644],[-0.0655823,51.46422]]}},{"type":"Feature","properties":{"Title":"Peckham Rye","Direction":"OneWay","Flow":null,"Protection":null,"Ownership":null,"YearBuilt":null,"Borough":"Southwark","LengthInMetres":72,"stroke":"#1A43A8","stroke-width":2},"geometry":{"type":"LineString","coordinates":[[-0.0647755,51.46282],[-0.0651403,51.46343]]}},{"type":"Feature","properties":{"Title":"Peckham Rye","Direction":"TwoWay","Flow":null,"Protection":null,"Ownership":null,"YearBuilt":null,"Borough":"Southwark","LengthInMetres":18,"stroke":"#1A43A8","stroke-width":4},"geometry":{"type":"LineString","coordinates":[[-0.0651403,51.46343],[-0.0652208,51.46358]]}},{"type":"Feature","properties":{"Title":"Park Street","Direction":"OneWay","Flow":null,"Protection":null,"Ownership":null,"YearBuilt":null,"Borough":"Southwark","LengthInMetres":117,"stroke":"#1A43A8","stroke-width":2},"geometry":{"type":"LineString","coordinates":[[-0.097914,51.50692],[-0.097444,51.50724],[-0.097268,51.50735],[-0.097166,51.50738],[-0.097029,51.5074],[-0.096557,51.50731]]}},{"type":"Feature","properties":{"Title":"Grosvenor Terrace","Direction":"TwoWay","Flow":null,"Protection":null,"Ownership":null,"YearBuilt":null,"Borough":"Southwark","LengthInMetres":38,"stroke":"#1A43A8","stroke-width":4},"geometry":{"type":"LineString","coordinates":[[-0.100942,51.48052],[-0.10052,51.48074]]}},{"type":"Feature","properties":{"Title":"Upland Road/Friern Road","Direction":"TwoWay","Flow":null,"Protection":null,"Ownership":null,"YearBuilt":null,"Borough":"Southwark","LengthInMetres":7,"stroke":"#1A43A8","stroke-width":4},"geometry":{"type":"LineString","coordinates":[[-0.065801,51.45623],[-0.065812,51.45617]]}},{"type":"Feature","properties":{"Title":"Newest Close","Direction":"TwoWay","Flow":null,"Protection":null,"Ownership":null,"YearBuilt":null,"Borough":"Southwark","LengthInMetres":10,"stroke":"#1A43A8","stroke-width":4},"geometry":{"type":"LineString","coordinates":[[-0.082269,51.47998],[-0.082218,51.4799]]}},{"type":"Feature","properties":{"Title":"Chandler Way","Direction":"TwoWay","Flow":null,"Protection":null,"Ownership":null,"YearBuilt":null,"Borough":"Southwark","LengthInMetres":16,"stroke":"#1A43A8","stroke-width":4},"geometry":{"type":"LineString","coordinates":[[-0.078014,51.4766],[-0.07795,51.47652],[-0.077914,51.47647]]}},{"type":"Feature","properties":{"Title":"Elm Grove","Direction":"TwoWay","Flow":null,"Protection":null,"Ownership":null,"YearBuilt":null,"Borough":"Southwark","LengthInMetres":12,"stroke":"#1A43A8","stroke-width":4},"geometry":{"type":"LineString","coordinates":[[-0.070319,51.47049],[-0.070159,51.47052]]}},{"type":"Feature","properties":{"Title":"Newest Close","Direction":"TwoWay","Flow":null,"Protection":null,"Ownership":null,"YearBuilt":null,"Borough":"Southwark","LengthInMetres":13,"stroke":"#1A43A8","stroke-width":4},"geometry":{"type":"LineString","coordinates":[[-0.082495,51.48033],[-0.08243,51.48022]]}},{"type":"Feature","properties":{"Title":"Tory Town","Direction":"TwoWay","Flow":null,"Protection":null,"Ownership":null,"YearBuilt":null,"Borough":"Southwark","LengthInMetres":11,"stroke":"#1A43A8","stroke-width":4},"geometry":{"type":"LineString","coordinates":[[-0.068133,51.46459],[-0.068079,51.46456],[-0.068036,51.46451]]}},{"type":"Feature","properties":{"Title":"Macfarland Grove","Direction":"TwoWay","Flow":null,"Protection":null,"Ownership":null,"YearBuilt":null,"Borough":"Southwark","LengthInMetres":19,"stroke":"#1A43A8","stroke-width":4},"geometry":{"type":"LineString","coordinates":[[-0.081414,51.48045],[-0.08131,51.48029]]}},{"type":"Feature","properties":{"Title":"Kelly Avenue","Direction":"TwoWay","Flow":null,"Protection":null,"Ownership":null,"YearBuilt":null,"Borough":"Southwark","LengthInMetres":14,"stroke":"#1A43A8","stroke-width":4},"geometry":{"type":"LineString","coordinates":[[-0.074979,51.47438],[-0.075032,51.47426]]}},{"type":"Feature","properties":{"Title":"Raul Road","Direction":"TwoWay","Flow":null,"Protection":null,"Ownership":null,"YearBuilt":null,"Borough":"Southwark","LengthInMetres":8,"stroke":"#1A43A8","stroke-width":4},"geometry":{"type":"LineString","coordinates":[[-0.068068,51.47149],[-0.067958,51.47151]]}},{"type":"Feature","properties":{"Title":"Woods Road to Cossall Walk","Direction":"TwoWay","Flow":null,"Protection":null,"Ownership":null,"YearBuilt":null,"Borough":"Southwark","LengthInMetres":30,"stroke":"#1A43A8","stroke-width":4},"geometry":{"type":"LineString","coordinates":[[-0.059562,51.47265],[-0.059438,51.47259],[-0.059235,51.47248]]}},{"type":"Feature","properties":{"Title":"Southwark Spine","Direction":"OneWay","Flow":null,"Protection":null,"Ownership":null,"YearBuilt":null,"Borough":"Southwark","LengthInMetres":56,"stroke":"#1A43A8","stroke-width":2},"geometry":{"type":"LineString","coordinates":[[-0.0854931,51.43493],[-0.0857049,51.43472],[-0.0858658,51.43458],[-0.0859248,51.43451]]}},{"type":"Feature","properties":{"Title":"Southwark Spine","Direction":"TwoWay","Flow":null,"Protection":null,"Ownership":null,"YearBuilt":null,"Borough":"Southwark","LengthInMetres":82,"stroke":"#1A43A8","stroke-width":4},"geometry":{"type":"LineString","coordinates":[[-0.0857478,51.42868],[-0.0857458,51.42858],[-0.0856922,51.42849],[-0.0856117,51.42841],[-0.0854964,51.42832],[-0.0853596,51.42823],[-0.0852335,51.42815],[-0.085137,51.42811],[-0.0851102,51.4281]]}},{"type":"Feature","properties":{"Title":"Dulwich Wood Park","Direction":"OneWay","Flow":null,"Protection":null,"Ownership":null,"YearBuilt":null,"Borough":"Southwark","LengthInMetres":53,"stroke":"#1A43A8","stroke-width":2},"geometry":{"type":"LineString","coordinates":[[-0.0819829,51.42715],[-0.0816878,51.427],[-0.0815376,51.42692],[-0.0814142,51.42684]]}},{"type":"Feature","properties":{"Title":"Dulwich Wood Park","Direction":"TwoWay","Flow":null,"Protection":null,"Ownership":null,"YearBuilt":null,"Borough":"Southwark","LengthInMetres":175,"stroke":"#1A43A8","stroke-width":4},"geometry":{"type":"LineString","coordinates":[[-0.0814142,51.42684],[-0.0811066,51.42667],[-0.080833,51.42654],[-0.0805273,51.4264],[-0.0802269,51.42631],[-0.0799855,51.42624],[-0.0796958,51.4262],[-0.0795509,51.42619],[-0.0794061,51.42619],[-0.0792184,51.42621]]}},{"type":"Feature","properties":{"Title":"Dulwich Wood Park","Direction":"OneWay","Flow":null,"Protection":null,"Ownership":null,"YearBuilt":null,"Borough":"Southwark","LengthInMetres":98,"stroke":"#1A43A8","stroke-width":2},"geometry":{"type":"LineString","coordinates":[[-0.0792184,51.42621],[-0.0790735,51.42624],[-0.0788965,51.42629],[-0.0786336,51.42639],[-0.078403,51.42649],[-0.0782098,51.42661],[-0.0780596,51.4267]]}},{"type":"Feature","properties":{"Title":"Trinity Street to Great Dover Street","Direction":"TwoWay","Flow":null,"Protection":null,"Ownership":null,"YearBuilt":null,"Borough":"Southwark","LengthInMetres":40,"stroke":"#1A43A8","stroke-width":4},"geometry":{"type":"LineString","coordinates":[[-0.0907182,51.498],[-0.09052,51.49793],[-0.090395,51.49788],[-0.090347,51.49787],[-0.09032,51.49787],[-0.090273,51.49787],[-0.090201,51.49788]]}},{"type":"Feature","properties":{"Title":"Markham Street","Direction":"TwoWay","Flow":null,"Protection":null,"Ownership":null,"YearBuilt":null,"Borough":"Southwark","LengthInMetres":17,"stroke":"#1A43A8","stroke-width":4},"geometry":{"type":"LineString","coordinates":[[-0.0858915,51.48852],[-0.085849,51.48853],[-0.085779,51.48857],[-0.085679,51.4886]]}},{"type":"Feature","properties":{"Title":"Page's Walk","Direction":"TwoWay","Flow":null,"Protection":null,"Ownership":null,"YearBuilt":null,"Borough":"Southwark","LengthInMetres":7,"stroke":"#1A43A8","stroke-width":4},"geometry":{"type":"LineString","coordinates":[[-0.082886,51.49296],[-0.0828937,51.4929]]}},{"type":"Feature","properties":{"Title":"Sumner Street","Direction":"TwoWay","Flow":null,"Protection":null,"Ownership":null,"YearBuilt":null,"Borough":"Southwark","LengthInMetres":8,"stroke":"#1A43A8","stroke-width":4},"geometry":{"type":"LineString","coordinates":[[-0.097732,51.50663],[-0.0978425,51.50661]]}},{"type":"Feature","properties":{"Title":"Liverpool Grove","Direction":"TwoWay","Flow":null,"Protection":null,"Ownership":null,"YearBuilt":null,"Borough":"Southwark","LengthInMetres":7,"stroke":"#1A43A8","stroke-width":4},"geometry":{"type":"LineString","coordinates":[[-0.093072,51.48616],[-0.093025,51.4861]]}},{"type":"Feature","properties":{"Title":"Dante Road","Direction":"TwoWay","Flow":null,"Protection":null,"Ownership":null,"YearBuilt":null,"Borough":"Southwark","LengthInMetres":9,"stroke":"#1A43A8","stroke-width":4},"geometry":{"type":"LineString","coordinates":[[-0.102604,51.49193],[-0.102509,51.49187]]}},{"type":"Feature","properties":{"Title":"Belvedere Buildings","Direction":"TwoWay","Flow":null,"Protection":null,"Ownership":null,"YearBuilt":null,"Borough":"Southwark","LengthInMetres":61,"stroke":"#1A43A8","stroke-width":4},"geometry":{"type":"LineString","coordinates":[[-0.100173,51.5004],[-0.09992,51.50022],[-0.099874,51.5002],[-0.0995226,51.50004]]}},{"type":"Feature","properties":{"Title":"Mint Street","Direction":"TwoWay","Flow":null,"Protection":null,"Ownership":null,"YearBuilt":null,"Borough":"Southwark","LengthInMetres":5,"stroke":"#1A43A8","stroke-width":4},"geometry":{"type":"LineString","coordinates":[[-0.0960989,51.50204],[-0.0960274,51.50203]]}},{"type":"Feature","properties":{"Title":"Thurland Road","Direction":"OneWay","Flow":null,"Protection":null,"Ownership":null,"YearBuilt":null,"Borough":"Southwark","LengthInMetres":39,"stroke":"#1A43A8","stroke-width":2},"geometry":{"type":"LineString","coordinates":[[-0.0672858,51.49647],[-0.0672733,51.49644],[-0.0671,51.49614]]}},{"type":"Feature","properties":{"Title":"Fountain Drive","Direction":"OneWay","Flow":null,"Protection":null,"Ownership":null,"YearBuilt":null,"Borough":"Southwark","LengthInMetres":12,"stroke":"#1A43A8","stroke-width":2},"geometry":{"type":"LineString","coordinates":[[-0.077625,51.42833],[-0.0775747,51.42828],[-0.0775244,51.42824]]}},{"type":"Feature","properties":{"Title":"Fountain Drive","Direction":"OneWay","Flow":null,"Protection":null,"Ownership":null,"YearBuilt":null,"Borough":"Southwark","LengthInMetres":13,"stroke":"#1A43A8","stroke-width":2},"geometry":{"type":"LineString","coordinates":[[-0.0770532,51.42791],[-0.0770056,51.42788],[-0.0769191,51.42783]]}},{"type":"Feature","properties":{"Title":"Fountain Drive","Direction":"OneWay","Flow":null,"Protection":null,"Ownership":null,"YearBuilt":null,"Borough":"Southwark","LengthInMetres":14,"stroke":"#1A43A8","stroke-width":2},"geometry":{"type":"LineString","coordinates":[[-0.0760732,51.42754],[-0.0758962,51.42749]]}},{"type":"Feature","properties":{"Title":"Fountain Drive","Direction":"OneWay","Flow":null,"Protection":null,"Ownership":null,"YearBuilt":null,"Borough":"Southwark","LengthInMetres":17,"stroke":"#1A43A8","stroke-width":2},"geometry":{"type":"LineString","coordinates":[[-0.0752296,51.42697],[-0.075133,51.42683]]}},{"type":"Feature","properties":{"Title":"Langdale Close","Direction":"TwoWay","Flow":null,"Protection":null,"Ownership":null,"YearBuilt":null,"Borough":"Southwark","LengthInMetres":6,"stroke":"#1A43A8","stroke-width":4},"geometry":{"type":"LineString","coordinates":[[-0.096681,51.48417],[-0.096601,51.4842]]}},{"type":"Feature","properties":{"Title":"Cooks Road","Direction":"TwoWay","Flow":null,"Protection":null,"Ownership":null,"YearBuilt":null,"Borough":"Southwark","LengthInMetres":57,"stroke":"#1A43A8","stroke-width":4},"geometry":{"type":"LineString","coordinates":[[-0.103986,51.48388],[-0.1034066,51.48352]]}},{"type":"Feature","properties":{"Title":"London Bridge - City of London","Direction":"TwoWay","Flow":null,"Protection":null,"Ownership":null,"YearBuilt":null,"Borough":"Southwark","LengthInMetres":135,"stroke":"#1A43A8","stroke-width":4},"geometry":{"type":"LineString","coordinates":[[-0.087745,51.50787],[-0.0881552,51.50668]]}},{"type":"Feature","properties":{"Title":"Bermondsey Street (LB Southwark)","Direction":"TwoWay","Flow":null,"Protection":null,"Ownership":null,"YearBuilt":null,"Borough":"Southwark","LengthInMetres":38,"stroke":"#1A43A8","stroke-width":4},"geometry":{"type":"LineString","coordinates":[[-0.0817268,51.50047],[-0.0818489,51.5008]]}},{"type":"Feature","properties":{"Title":"Sumner Street - LB Southwark","Direction":"OneWay","Flow":null,"Protection":null,"Ownership":null,"YearBuilt":null,"Borough":"Southwark","LengthInMetres":24,"stroke":"#1A43A8","stroke-width":2},"geometry":{"type":"LineString","coordinates":[[-0.1007497,51.50596],[-0.1008784,51.50576]]}},{"type":"Feature","properties":{"Title":"Union Street - LB Southwark","Direction":"OneWay","Flow":null,"Protection":null,"Ownership":null,"YearBuilt":null,"Borough":"Southwark","LengthInMetres":9,"stroke":"#1A43A8","stroke-width":2},"geometry":{"type":"LineString","coordinates":[[-0.1014441,51.50366],[-0.1015728,51.50364]]}},{"type":"Feature","properties":{"Title":"Union Street - LB Southwark","Direction":"OneWay","Flow":null,"Protection":null,"Ownership":null,"YearBuilt":null,"Borough":"Southwark","LengthInMetres":9,"stroke":"#1A43A8","stroke-width":2},"geometry":{"type":"LineString","coordinates":[[-0.1012247,51.50371],[-0.1013588,51.50371]]}},{"type":"Feature","properties":{"Title":"Great Suffolk Street - LB Southwark","Direction":"OneWay","Flow":null,"Protection":null,"Ownership":null,"YearBuilt":null,"Borough":"Southwark","LengthInMetres":7,"stroke":"#1A43A8","stroke-width":2},"geometry":{"type":"LineString","coordinates":[[-0.1014232,51.5038],[-0.1014124,51.50374]]}},{"type":"Feature","properties":{"Title":"Great Suffolk Street - LB Southwark","Direction":"OneWay","Flow":null,"Protection":null,"Ownership":null,"YearBuilt":null,"Borough":"Southwark","LengthInMetres":8,"stroke":"#1A43A8","stroke-width":2},"geometry":{"type":"LineString","coordinates":[[-0.1014098,51.50366],[-0.101391,51.50359]]}},{"type":"Feature","properties":{"Title":"Peckham High Street - TfL","Direction":"OneWay","Flow":null,"Protection":null,"Ownership":null,"YearBuilt":null,"Borough":"Southwark","LengthInMetres":177,"stroke":"#1A43A8","stroke-width":2},"geometry":{"type":"LineString","coordinates":[[-0.0686144,51.4738],[-0.0693118,51.47365],[-0.0695478,51.47357],[-0.0697624,51.47345],[-0.0700038,51.47337],[-0.0701916,51.47333],[-0.070433,51.47331],[-0.0707227,51.47332],[-0.070964,51.47334]]}},{"type":"Feature","properties":{"Title":"Bournemouth Road - LB Peckham","Direction":"TwoWay","Flow":null,"Protection":null,"Ownership":null,"YearBuilt":null,"Borough":"Southwark","LengthInMetres":8,"stroke":"#1A43A8","stroke-width":4},"geometry":{"type":"LineString","coordinates":[[-0.067816,51.46906],[-0.067707,51.46908]]}},{"type":"Feature","properties":{"Title":"Druid Street - LB Southwark","Direction":"TwoWay","Flow":null,"Protection":null,"Ownership":null,"YearBuilt":null,"Borough":"Southwark","LengthInMetres":197,"stroke":"#1A43A8","stroke-width":4},"geometry":{"type":"LineString","coordinates":[[-0.0757887,51.50009],[-0.0757622,51.50007],[-0.0756321,51.49998],[-0.075262,51.49978],[-0.0747591,51.49951],[-0.0746357,51.49945],[-0.0744908,51.49937],[-0.0743219,51.49927],[-0.0742052,51.4992],[-0.073949,51.49907],[-0.073658,51.49893]]}},{"type":"Feature","properties":{"Title":"Godling Place - LB Southwark","Direction":"TwoWay","Flow":null,"Protection":null,"Ownership":null,"YearBuilt":null,"Borough":"Southwark","LengthInMetres":67,"stroke":"#1A43A8","stroke-width":4},"geometry":{"type":"LineString","coordinates":[[-0.0736648,51.49888],[-0.073701,51.49885],[-0.0737144,51.49883],[-0.0737224,51.4988],[-0.0738391,51.49829]]}},{"type":"Feature","properties":{"Title":"C4","Direction":"TwoWay","Flow":null,"Protection":null,"Ownership":null,"YearBuilt":null,"Borough":"Southwark","LengthInMetres":1240,"stroke":"#1A43A8","stroke-width":4},"geometry":{"type":"LineString","coordinates":[[-0.0549045,51.49818],[-0.0542983,51.49783],[-0.0536694,51.49737],[-0.0531705,51.49699],[-0.0529425,51.49681],[-0.0525066,51.49643],[-0.0521686,51.49616],[-0.0516255,51.49577],[-0.0509362,51.49525],[-0.0505271,51.49495],[-0.0502803,51.49475],[-0.0501194,51.49463],[-0.0498351,51.49449],[-0.0493617,51.49427],[-0.0488655,51.49405],[-0.0483921,51.49383],[-0.048038,51.49368],[-0.0469772,51.49309],[-0.0464877,51.49283],[-0.0460009,51.49254],[-0.044814,51.49189],[-0.0446799,51.4918],[-0.0445243,51.49166],[-0.043705,51.49109],[-0.0432543,51.4908],[-0.0424605,51.49026]]}}]}