{"type":"FeatureCollection","features":[{"type":"Feature","properties":{"Title":"Croydon Road","Direction":"TwoWay","Flow":null,"Protection":null,"Ownership":null,"YearBuilt":null,"Borough":"Sutton","LengthInMetres":550,"stroke":"#1A73E8","stroke-width":4},"geometry":{"type":"LineString","coordinates":[[-0.1312944,51.3676],[-0.123398,51.3676]]}},{"type":"Feature","properties":{"Title":"Ventnor Road","Direction":"OneWay","Flow":null,"Protection":null,"Ownership":null,"YearBuilt":null,"Borough":"Sutton","LengthInMetres":144,"stroke":"#1A73E8","stroke-width":2},"geometry":{"type":"LineString","coordinates":[[-0.1937976,51.35285],[-0.1940765,51.35279],[-0.1943769,51.35274],[-0.1950689,51.35267],[-0.1955732,51.35262],[-0.1958253,51.3526]]}},{"type":"Feature","properties":{"Title":"Benhill Avenue","Direction":"OneWay","Flow":null,"Protection":null,"Ownership":null,"YearBuilt":null,"Borough":"Sutton","LengthInMetres":35,"stroke":"#1A73E8","stroke-width":2},"geometry":{"type":"LineString","coordinates":[[-0.1942132,51.36602],[-0.1937304,51.3661]]}},{"type":"Feature","properties":{"Title":"Benhill Avenue","Direction":"OneWay","Flow":null,"Protection":null,"Ownership":null,"YearBuilt":null,"Borough":"Sutton","LengthInMetres":44,"stroke":"#1A73E8","stroke-width":2},"geometry":{"type":"LineString","coordinates":[[-0.1935587,51.36613],[-0.1934139,51.36615],[-0.1929793,51.36629]]}},{"type":"Feature","properties":{"Title":"LCN 75","Direction":"OneWay","Flow":null,"Protection":null,"Ownership":null,"YearBuilt":null,"Borough":"Sutton","LengthInMetres":30,"stroke":"#1A73E8","stroke-width":2},"geometry":{"type":"LineString","coordinates":[[-0.1958151,51.36222],[-0.1960833,51.36218],[-0.1961477,51.36227]]}},{"type":"Feature","properties":{"Title":"Camden Road","Direction":"OneWay","Flow":null,"Protection":null,"Ownership":null,"YearBuilt":null,"Borough":"Sutton","LengthInMetres":20,"stroke":"#1A73E8","stroke-width":2},"geometry":{"type":"LineString","coordinates":[[-0.19677,51.36281],[-0.1964883,51.36282]]}},{"type":"Feature","properties":{"Title":"Wrythe Lane","Direction":"TwoWay","Flow":null,"Protection":null,"Ownership":null,"YearBuilt":null,"Borough":"Sutton","LengthInMetres":325,"stroke":"#1A73E8","stroke-width":4},"geometry":{"type":"LineString","coordinates":[[-0.1866125,51.38245],[-0.1863195,51.38225],[-0.1860774,51.3821],[-0.1857508,51.38187],[-0.1855902,51.38177],[-0.1854404,51.38167],[-0.1852922,51.38159],[-0.1850984,51.38149],[-0.184795,51.38135],[-0.1844567,51.3812],[-0.1841157,51.38105],[-0.183697,51.38089],[-0.1829942,51.38064]]}},{"type":"Feature","properties":{"Title":"Bishopsford Road","Direction":"TwoWay","Flow":null,"Protection":null,"Ownership":null,"YearBuilt":null,"Borough":"Sutton","LengthInMetres":81,"stroke":"#1A73E8","stroke-width":4},"geometry":{"type":"LineString","coordinates":[[-0.1761387,51.39131],[-0.176304,51.39137],[-0.1763352,51.39139],[-0.1764244,51.39149],[-0.1764391,51.3915],[-0.1764604,51.39151],[-0.1765769,51.39156],[-0.1766343,51.3916],[-0.1766457,51.39161],[-0.176647,51.39165],[-0.176655,51.39169],[-0.1766926,51.39181],[-0.1767114,51.39183],[-0.1767797,51.39186]]}},{"type":"Feature","properties":{"Title":"St Helier Avenue","Direction":"TwoWay","Flow":null,"Protection":null,"Ownership":null,"YearBuilt":null,"Borough":"Sutton","LengthInMetres":70,"stroke":"#1A73E8","stroke-width":4},"geometry":{"type":"LineString","coordinates":[[-0.1897201,51.38611],[-0.1898836,51.38549]]}},{"type":"Feature","properties":{"Title":"Reigate Avenue","Direction":"TwoWay","Flow":null,"Protection":null,"Ownership":null,"YearBuilt":null,"Borough":"Sutton","LengthInMetres":478,"stroke":"#1A73E8","stroke-width":4},"geometry":{"type":"LineString","coordinates":[[-0.1908527,51.38406],[-0.1909459,51.38397],[-0.1918578,51.38346],[-0.1921099,51.38329],[-0.1927859,51.38294],[-0.1940036,51.3823],[-0.1949906,51.38179],[-0.1955861,51.38148],[-0.196034,51.38125]]}},{"type":"Feature","properties":{"Title":"Reigate Avenue","Direction":"TwoWay","Flow":null,"Protection":null,"Ownership":null,"YearBuilt":null,"Borough":"Sutton","LengthInMetres":62,"stroke":"#1A73E8","stroke-width":4},"geometry":{"type":"LineString","coordinates":[[-0.1962191,51.38116],[-0.1969111,51.38081]]}},{"type":"Feature","properties":{"Title":"Reigate Avenue","Direction":"TwoWay","Flow":null,"Protection":null,"Ownership":null,"YearBuilt":null,"Borough":"Sutton","LengthInMetres":179,"stroke":"#1A73E8","stroke-width":4},"geometry":{"type":"LineString","coordinates":[[-0.1974047,51.38055],[-0.198161,51.38016],[-0.1987404,51.37985],[-0.1993841,51.37952]]}},{"type":"Feature","properties":{"Title":"Reigate Avenue","Direction":"TwoWay","Flow":null,"Protection":null,"Ownership":null,"YearBuilt":null,"Borough":"Sutton","LengthInMetres":67,"stroke":"#1A73E8","stroke-width":4},"geometry":{"type":"LineString","coordinates":[[-0.1997918,51.37931],[-0.2004624,51.37896],[-0.2005268,51.37892]]}},{"type":"Feature","properties":{"Title":"Oldfields Road","Direction":"TwoWay","Flow":null,"Protection":null,"Ownership":null,"YearBuilt":null,"Borough":"Sutton","LengthInMetres":30,"stroke":"#1A73E8","stroke-width":4},"geometry":{"type":"LineString","coordinates":[[-0.2009881,51.37869],[-0.2013436,51.37853]]}},{"type":"Feature","properties":{"Title":"Oldfields Road","Direction":"TwoWay","Flow":null,"Protection":null,"Ownership":null,"YearBuilt":null,"Borough":"Sutton","LengthInMetres":242,"stroke":"#1A73E8","stroke-width":4},"geometry":{"type":"LineString","coordinates":[[-0.201813,51.37821],[-0.2023441,51.37774],[-0.2025345,51.37755],[-0.2028966,51.37716],[-0.2030254,51.37707],[-0.2031139,51.37698],[-0.2032802,51.37675],[-0.2034277,51.37651],[-0.2035108,51.37633]]}},{"type":"Feature","properties":{"Title":"Oldfields Road","Direction":"TwoWay","Flow":null,"Protection":null,"Ownership":null,"YearBuilt":null,"Borough":"Sutton","LengthInMetres":141,"stroke":"#1A73E8","stroke-width":4},"geometry":{"type":"LineString","coordinates":[[-0.2035994,51.37609],[-0.2036262,51.37595],[-0.2035967,51.37582],[-0.203653,51.37564],[-0.2037281,51.37553],[-0.2038703,51.37541],[-0.2039856,51.37529],[-0.2040822,51.37515],[-0.2041412,51.37505],[-0.2042538,51.37492]]}},{"type":"Feature","properties":{"Title":"Oldfields Road","Direction":"TwoWay","Flow":null,"Protection":null,"Ownership":null,"YearBuilt":null,"Borough":"Sutton","LengthInMetres":109,"stroke":"#1A73E8","stroke-width":4},"geometry":{"type":"LineString","coordinates":[[-0.2043692,51.37479],[-0.2045918,51.37454],[-0.2048171,51.37432],[-0.2052543,51.37398]]}},{"type":"Feature","properties":{"Title":"St Dunstan's Hill","Direction":"TwoWay","Flow":null,"Protection":null,"Ownership":null,"YearBuilt":null,"Borough":"Sutton","LengthInMetres":226,"stroke":"#1A73E8","stroke-width":4},"geometry":{"type":"LineString","coordinates":[[-0.2107497,51.36991],[-0.2112915,51.36949],[-0.2118279,51.36908],[-0.2121283,51.36882],[-0.2124609,51.36853],[-0.2126648,51.36832],[-0.2126943,51.36829]]}},{"type":"Feature","properties":{"Title":"St Dunstan's Hill","Direction":"TwoWay","Flow":null,"Protection":null,"Ownership":null,"YearBuilt":null,"Borough":"Sutton","LengthInMetres":355,"stroke":"#1A73E8","stroke-width":4},"geometry":{"type":"LineString","coordinates":[[-0.2128418,51.36814],[-0.2130322,51.36791],[-0.2132173,51.36768],[-0.2134426,51.36739],[-0.2135713,51.3672],[-0.2137967,51.36684],[-0.21392,51.36664],[-0.2140649,51.36636],[-0.2142044,51.36606],[-0.2143009,51.36579],[-0.2143921,51.36552],[-0.2145369,51.36515]]}},{"type":"Feature","properties":{"Title":"St Dunstan's Hill","Direction":"TwoWay","Flow":null,"Protection":null,"Ownership":null,"YearBuilt":null,"Borough":"Sutton","LengthInMetres":269,"stroke":"#1A73E8","stroke-width":4},"geometry":{"type":"LineString","coordinates":[[-0.2145799,51.36475],[-0.2146228,51.36423],[-0.2146335,51.36393],[-0.214612,51.36345],[-0.2145691,51.36305],[-0.2144618,51.36257],[-0.2143975,51.36234]]}},{"type":"Feature","properties":{"Title":"St Dunstan's Hill","Direction":"TwoWay","Flow":null,"Protection":null,"Ownership":null,"YearBuilt":null,"Borough":"Sutton","LengthInMetres":195,"stroke":"#1A73E8","stroke-width":4},"geometry":{"type":"LineString","coordinates":[[-0.214376,51.36226],[-0.2142768,51.36194],[-0.2141453,51.36154],[-0.214022,51.36115],[-0.2139656,51.36098],[-0.2139415,51.36078],[-0.2138852,51.3606],[-0.2138664,51.36054]]}},{"type":"Feature","properties":{"Title":"Boundary Road","Direction":"TwoWay","Flow":null,"Protection":null,"Ownership":null,"YearBuilt":null,"Borough":"Sutton","LengthInMetres":46,"stroke":"#1A73E8","stroke-width":4},"geometry":{"type":"LineString","coordinates":[[-0.1557796,51.35591],[-0.1557742,51.35609],[-0.1557152,51.35615],[-0.1556562,51.35619],[-0.1556294,51.3563]]}},{"type":"Feature","properties":{"Title":"Sutton to Colliers Wood Cycleway","Direction":"TwoWay","Flow":null,"Protection":null,"Ownership":null,"YearBuilt":null,"Borough":"Sutton","LengthInMetres":56,"stroke":"#1A73E8","stroke-width":4},"geometry":{"type":"LineString","coordinates":[[-0.1865835,51.3856],[-0.1867503,51.3857],[-0.1870132,51.38581],[-0.1872009,51.38592]]}},{"type":"Feature","properties":{"Title":"Park Road","Direction":"TwoWay","Flow":null,"Protection":null,"Ownership":null,"YearBuilt":null,"Borough":"Sutton","LengthInMetres":10,"stroke":"#1A73E8","stroke-width":4},"geometry":{"type":"LineString","coordinates":[[-0.215992,51.35972],[-0.215861,51.35975]]}},{"type":"Feature","properties":{"Title":"Ewell Road","Direction":"TwoWay","Flow":null,"Protection":null,"Ownership":null,"YearBuilt":null,"Borough":"Sutton","LengthInMetres":305,"stroke":"#1A73E8","stroke-width":4},"geometry":{"type":"LineString","coordinates":[[-0.222728,51.35715],[-0.222471,51.35721],[-0.222157,51.35727],[-0.221683,51.35734],[-0.22118,51.3574],[-0.220215,51.35753],[-0.219821,51.35758],[-0.219468,51.35762],[-0.219133,51.35764],[-0.218778,51.35766],[-0.218446,51.35767]]}}]}