{"type":"FeatureCollection","features":[{"type":"Feature","properties":{"Title":"C2","Direction":"TwoWay","Flow":null,"Protection":null,"Ownership":null,"YearBuilt":null,"Borough":"Tower Hamlets","LengthInMetres":885,"stroke":"#FF7043","stroke-width":4},"geometry":{"type":"LineString","coordinates":[[-0.0739193,51.5145],[-0.0718058,51.51521],[-0.0707221,51.51559],[-0.0695098,51.51616],[-0.0683082,51.5167],[-0.0670422,51.51726],[-0.0663555,51.51749],[-0.0650144,51.5179],[-0.0628901,51.51842]]}},{"type":"Feature","properties":{"Title":"C2","Direction":"OneWay","Flow":null,"Protection":null,"Ownership":null,"YearBuilt":null,"Borough":"Tower Hamlets","LengthInMetres":483,"stroke":"#FF7043","stroke-width":2},"geometry":{"type":"LineString","coordinates":[[-0.0629464,51.51842],[-0.0618134,51.51867],[-0.0602604,51.51901],[-0.0591044,51.51927],[-0.0576051,51.51959],[-0.0566743,51.51978],[-0.0563766,51.51985]]}},{"type":"Feature","properties":{"Title":"C2","Direction":"TwoWay","Flow":null,"Protection":null,"Ownership":null,"YearBuilt":null,"Borough":"Tower Hamlets","LengthInMetres":741,"stroke":"#FF7043","stroke-width":4},"geometry":{"type":"LineString","coordinates":[[-0.0563766,51.51985],[-0.0555931,51.51998],[-0.0551961,51.52005],[-0.0536512,51.52034],[-0.0530799,51.52046],[-0.0521411,51.52063],[-0.0518648,51.52068],[-0.0508348,51.5209],[-0.0501428,51.52104],[-0.0499389,51.52109],[-0.0496707,51.52114],[-0.0495366,51.52117],[-0.0488848,51.52131],[-0.0484959,51.52139],[-0.0483752,51.52142],[-0.0473721,51.52162],[-0.0469375,51.52171],[-0.046208,51.52186]]}},{"type":"Feature","properties":{"Title":"C2","Direction":"OneWay","Flow":null,"Protection":null,"Ownership":null,"YearBuilt":null,"Borough":"Tower Hamlets","LengthInMetres":118,"stroke":"#FF7043","stroke-width":2},"geometry":{"type":"LineString","coordinates":[[-0.046208,51.52186],[-0.0458103,51.52194],[-0.0453436,51.52203],[-0.0449091,51.52211],[-0.0445738,51.52216]]}},{"type":"Feature","properties":{"Title":"C2","Direction":"TwoWay","Flow":null,"Protection":null,"Ownership":null,"YearBuilt":null,"Borough":"Tower Hamlets","LengthInMetres":1079,"stroke":"#FF7043","stroke-width":4},"geometry":{"type":"LineString","coordinates":[[-0.0427257,51.52234],[-0.0425675,51.52236],[-0.0424548,51.52239],[-0.0423583,51.52241],[-0.042192,51.52244],[-0.0416743,51.52253],[-0.0413471,51.5226],[-0.0411459,51.52265],[-0.0408965,51.52271],[-0.0406765,51.52277],[-0.0401294,51.52294],[-0.0397565,51.52306],[-0.0393676,51.52318],[-0.0391611,51.52325],[-0.0389653,51.52332],[-0.0386971,51.52345],[-0.0385093,51.52353],[-0.0381579,51.52372],[-0.0378495,51.52388],[-0.0377502,51.52393],[-0.0376269,51.52401],[-0.0375062,51.52406],[-0.0373533,51.52412],[-0.0372353,51.52416],[-0.0367095,51.52437],[-0.0363689,51.5245],[-0.0360873,51.5246],[-0.0358244,51.5247],[-0.0352182,51.52491],[-0.0347891,51.52503],[-0.0342902,51.52517],[-0.0337564,51.5253],[-0.0332227,51.52544],[-0.032823,51.52554],[-0.0321498,51.52569],[-0.0317045,51.52578],[-0.0312351,51.52588],[-0.0304922,51.52604],[-0.0299987,51.52614],[-0.0292584,51.52629],[-0.0287514,51.5264]]}},{"type":"Feature","properties":{"Title":"C2","Direction":"OneWay","Flow":null,"Protection":null,"Ownership":null,"YearBuilt":null,"Borough":"Tower Hamlets","LengthInMetres":67,"stroke":"#FF7043","stroke-width":2},"geometry":{"type":"LineString","coordinates":[[-0.0287514,51.5264],[-0.0284628,51.52646],[-0.0278459,51.5266]]}},{"type":"Feature","properties":{"Title":"C2","Direction":"TwoWay","Flow":null,"Protection":null,"Ownership":null,"YearBuilt":null,"Borough":"Tower Hamlets","LengthInMetres":328,"stroke":"#FF7043","stroke-width":4},"geometry":{"type":"LineString","coordinates":[[-0.0278459,51.5266],[-0.0274703,51.52668],[-0.027127,51.52675],[-0.0268212,51.52682],[-0.0266952,51.52685],[-0.0257671,51.52706],[-0.0254292,51.52713],[-0.0250242,51.52722],[-0.0245333,51.52731],[-0.0242463,51.52736],[-0.0240317,51.5274],[-0.0237126,51.52746],[-0.0235302,51.5275],[-0.0234926,51.52752],[-0.0233773,51.52754]]}},{"type":"Feature","properties":{"Title":"C2","Direction":"TwoWay","Flow":null,"Protection":null,"Ownership":null,"YearBuilt":null,"Borough":"Tower Hamlets","LengthInMetres":65,"stroke":"#FF7043","stroke-width":4},"geometry":{"type":"LineString","coordinates":[[-0.0230022,51.52761],[-0.0228654,51.52763],[-0.0225033,51.52769],[-0.0223102,51.52773],[-0.022101,51.52776]]}},{"type":"Feature","properties":{"Title":"C2","Direction":"TwoWay","Flow":null,"Protection":null,"Ownership":null,"YearBuilt":null,"Borough":"Tower Hamlets","LengthInMetres":135,"stroke":"#FF7043","stroke-width":4},"geometry":{"type":"LineString","coordinates":[[-0.0212454,51.52792],[-0.0210373,51.52795],[-0.0209032,51.52796],[-0.020297,51.52805],[-0.0193515,51.52819]]}},{"type":"Feature","properties":{"Title":"C2","Direction":"OneWay","Flow":null,"Protection":null,"Ownership":null,"YearBuilt":null,"Borough":"Tower Hamlets","LengthInMetres":432,"stroke":"#FF7043","stroke-width":2},"geometry":{"type":"LineString","coordinates":[[-0.0193515,51.52819],[-0.0189769,51.52826],[-0.0185424,51.52834],[-0.0182527,51.52841],[-0.0179201,51.52853],[-0.0175875,51.52867],[-0.0168794,51.52892],[-0.0162625,51.52912],[-0.0159514,51.52924],[-0.0152594,51.52943],[-0.0148356,51.52957],[-0.0145459,51.52966],[-0.0145191,51.52972],[-0.0144708,51.52985],[-0.0143474,51.52995],[-0.0141865,51.52997],[-0.0140136,51.52999]]}},{"type":"Feature","properties":{"Title":"C2","Direction":"OneWay","Flow":null,"Protection":null,"Ownership":null,"YearBuilt":null,"Borough":"Tower Hamlets","LengthInMetres":467,"stroke":"#FF7043","stroke-width":2},"geometry":{"type":"LineString","coordinates":[[-0.0193515,51.52819],[-0.0183573,51.52828],[-0.0179053,51.52834],[-0.0176171,51.5284],[-0.0163189,51.52873],[-0.0156322,51.52895],[-0.0148007,51.52926],[-0.0141999,51.52948],[-0.0139746,51.52944],[-0.0137278,51.52947],[-0.0135508,51.52954],[-0.0134972,51.52962],[-0.0134757,51.52967],[-0.0133099,51.52974]]}},{"type":"Feature","properties":{"Title":"C2 - CS3 Link","Direction":"TwoWay","Flow":null,"Protection":null,"Ownership":null,"YearBuilt":null,"Borough":"Tower Hamlets","LengthInMetres":129,"stroke":"#FF7043","stroke-width":4},"geometry":{"type":"LineString","coordinates":[[-0.0725885,51.51019],[-0.0726636,51.51043],[-0.0727065,51.51113],[-0.0729103,51.51129],[-0.0729307,51.51129]]}},{"type":"Feature","properties":{"Title":"C2 - CS3 Link","Direction":"TwoWay","Flow":null,"Protection":null,"Ownership":null,"YearBuilt":null,"Borough":"Tower Hamlets","LengthInMetres":368,"stroke":"#FF7043","stroke-width":4},"geometry":{"type":"LineString","coordinates":[[-0.0729329,51.5113],[-0.0729103,51.5113],[-0.0728567,51.51151],[-0.0730498,51.51229],[-0.0731356,51.51294],[-0.0732107,51.5134],[-0.0734253,51.51384],[-0.0736184,51.51418],[-0.0739296,51.51448]]}},{"type":"Feature","properties":{"Title":"C3 - (East-West Cycle Superhighway)","Direction":"TwoWay","Flow":null,"Protection":null,"Ownership":null,"YearBuilt":null,"Borough":"Tower Hamlets","LengthInMetres":204,"stroke":"#FF7043","stroke-width":4},"geometry":{"type":"LineString","coordinates":[[-0.0783933,51.50956],[-0.0779964,51.50947],[-0.0779073,51.50946],[-0.077737,51.50947],[-0.0772689,51.5095],[-0.0768653,51.50952],[-0.0764549,51.50955],[-0.0761544,51.50959],[-0.0759274,51.50964],[-0.0757299,51.50968],[-0.0755925,51.50972],[-0.0755466,51.50974]]}},{"type":"Feature","properties":{"Title":"C3 - (East-West Cycle Superhighway)","Direction":"TwoWay","Flow":null,"Protection":null,"Ownership":null,"YearBuilt":null,"Borough":"Tower Hamlets","LengthInMetres":2407,"stroke":"#FF7043","stroke-width":4},"geometry":{"type":"LineString","coordinates":[[-0.0727324,51.51018],[-0.0726152,51.5102],[-0.0721016,51.51024],[-0.0717361,51.51029],[-0.0713439,51.51035],[-0.0711313,51.51039],[-0.0708155,51.51045],[-0.0698016,51.51067],[-0.0695019,51.51073],[-0.0691539,51.51079],[-0.0684833,51.51085],[-0.067739,51.5109],[-0.0669169,51.51097],[-0.0662651,51.51103],[-0.06608,51.51104],[-0.0659003,51.51105],[-0.0653505,51.51109],[-0.0646719,51.51113],[-0.0640724,51.51115],[-0.0634649,51.51115],[-0.0629083,51.51115],[-0.0622793,51.51111],[-0.0616691,51.51109],[-0.0611501,51.51108],[-0.0605694,51.51109],[-0.0594537,51.51111],[-0.0584224,51.51113],[-0.0567969,51.51116],[-0.0559293,51.51115],[-0.0547571,51.51114],[-0.0545583,51.51112],[-0.0542374,51.51111],[-0.0539954,51.51108],[-0.0536051,51.51096],[-0.0533623,51.51091],[-0.0530338,51.51083],[-0.0528673,51.51078],[-0.0526606,51.51079],[-0.0523438,51.51081],[-0.0519005,51.51088],[-0.0513614,51.51096],[-0.0508866,51.51102],[-0.0502282,51.5111],[-0.0499989,51.51112],[-0.0488791,51.51122],[-0.048464,51.51124],[-0.0481481,51.51129],[-0.0474829,51.51136],[-0.0471074,51.51141],[-0.04687,51.51144],[-0.0466219,51.51146],[-0.0455625,51.51148],[-0.0449513,51.51149],[-0.0448549,51.5115],[-0.0447853,51.51151],[-0.0445178,51.51151],[-0.0441208,51.5115],[-0.0434114,51.51154],[-0.0427461,51.51159],[-0.0425664,51.51157],[-0.0424578,51.51139],[-0.0423949,51.51129],[-0.0423347,51.51128],[-0.0421257,51.51128],[-0.0420511,51.51127],[-0.0420173,51.51125],[-0.0419871,51.51118],[-0.0419617,51.51116],[-0.0418891,51.51115],[-0.0417736,51.51113],[-0.0416015,51.5111],[-0.0415284,51.5111],[-0.0414312,51.51112],[-0.0413514,51.51115],[-0.0410363,51.51126],[-0.0409744,51.51128],[-0.0408321,51.51129],[-0.0407352,51.51128],[-0.0406433,51.51126],[-0.0405582,51.51123],[-0.0404019,51.51119],[-0.0402102,51.51118],[-0.0399916,51.51095],[-0.0398762,51.51092],[-0.0397757,51.51091],[-0.039714,51.51091],[-0.0396576,51.5109],[-0.03962,51.51087],[-0.0395651,51.51077],[-0.039494,51.51066]]}},{"type":"Feature","properties":{"Title":"C3 - (East-West Cycle Superhighway)","Direction":"TwoWay","Flow":null,"Protection":null,"Ownership":null,"YearBuilt":null,"Borough":"Tower Hamlets","LengthInMetres":292,"stroke":"#FF7043","stroke-width":4},"geometry":{"type":"LineString","coordinates":[[-0.0267758,51.50931],[-0.0267222,51.50927],[-0.02669,51.50922],[-0.0266015,51.50918],[-0.0263789,51.50911],[-0.0262474,51.5091],[-0.0261428,51.50911],[-0.0260919,51.50912],[-0.0253757,51.50888],[-0.0252872,51.50886],[-0.0252148,51.50885],[-0.0249573,51.50877],[-0.024901,51.50873],[-0.024858,51.5087],[-0.024791,51.50868],[-0.0246757,51.50869],[-0.0245469,51.50873],[-0.0244503,51.50879],[-0.0243618,51.5089],[-0.0242063,51.50908],[-0.0240748,51.50904],[-0.0239515,51.509],[-0.0237342,51.50895],[-0.0236511,51.50894],[-0.023297,51.509]]}},{"type":"Feature","properties":{"Title":"C3 - (East-West Cycle Superhighway)","Direction":"TwoWay","Flow":null,"Protection":null,"Ownership":null,"YearBuilt":null,"Borough":"Tower Hamlets","LengthInMetres":59,"stroke":"#FF7043","stroke-width":4},"geometry":{"type":"LineString","coordinates":[[-0.0036576,51.50948],[-0.0039366,51.50998]]}},{"type":"Feature","properties":{"Title":"CS3 - East-West Cycle Superhighway","Direction":"TwoWay","Flow":null,"Protection":null,"Ownership":null,"YearBuilt":null,"Borough":"Tower Hamlets","LengthInMetres":348,"stroke":"#FF7043","stroke-width":4},"geometry":{"type":"LineString","coordinates":[[0.0002477,51.5125],[0.0011524,51.51279],[0.001839,51.51329],[0.0022253,51.51376],[0.0029763,51.5141],[0.0039633,51.51435],[0.0040521,51.51437]]}},{"type":"Feature","properties":{"Title":"C3 - Spur","Direction":"OneWay","Flow":null,"Protection":null,"Ownership":null,"YearBuilt":null,"Borough":"Tower Hamlets","LengthInMetres":4,"stroke":"#FF7043","stroke-width":2},"geometry":{"type":"LineString","coordinates":[[-0.0732837,51.50997],[-0.0732505,51.51]]}},{"type":"Feature","properties":{"Title":"C13","Direction":"TwoWay","Flow":null,"Protection":null,"Ownership":null,"YearBuilt":null,"Borough":"Tower Hamlets","LengthInMetres":37,"stroke":"#FF7043","stroke-width":4},"geometry":{"type":"LineString","coordinates":[[-0.0673307,51.53114],[-0.0673169,51.53107],[-0.0672562,51.53091],[-0.067274,51.53088],[-0.0673206,51.53082]]}},{"type":"Feature","properties":{"Title":"Bethnal Green Road","Direction":"TwoWay","Flow":null,"Protection":null,"Ownership":null,"YearBuilt":null,"Borough":"Tower Hamlets","LengthInMetres":151,"stroke":"#FF7043","stroke-width":4},"geometry":{"type":"LineString","coordinates":[[-0.0701179,51.52557],[-0.0693776,51.52577],[-0.0688251,51.5259],[-0.0683208,51.526],[-0.068074,51.52604]]}},{"type":"Feature","properties":{"Title":"National Cycle Network 13","Direction":"TwoWay","Flow":null,"Protection":null,"Ownership":null,"YearBuilt":null,"Borough":"Tower Hamlets","LengthInMetres":191,"stroke":"#FF7043","stroke-width":4},"geometry":{"type":"LineString","coordinates":[[0.0033584,51.5099],[0.0034214,51.51001],[0.004387,51.50999],[0.0054062,51.51005],[0.0059793,51.51005]]}},{"type":"Feature","properties":{"Title":"Old Bethnal Green Road","Direction":"OneWay","Flow":null,"Protection":null,"Ownership":null,"YearBuilt":null,"Borough":"Tower Hamlets","LengthInMetres":140,"stroke":"#FF7043","stroke-width":2},"geometry":{"type":"LineString","coordinates":[[-0.0612128,51.52924],[-0.0608158,51.52939],[-0.0604403,51.52952],[-0.0600434,51.52964],[-0.0596464,51.52978],[-0.0594533,51.52985]]}},{"type":"Feature","properties":{"Title":"Lower Lea Crossing","Direction":"TwoWay","Flow":null,"Protection":null,"Ownership":null,"YearBuilt":null,"Borough":"Tower Hamlets","LengthInMetres":117,"stroke":"#FF7043","stroke-width":4},"geometry":{"type":"LineString","coordinates":[[0.0033584,51.5099],[0.0038494,51.50985],[0.0042518,51.50983],[0.0046219,51.50982],[0.0049223,51.50982],[0.005035,51.5098]]}},{"type":"Feature","properties":{"Title":"Aspen Way","Direction":"TwoWay","Flow":null,"Protection":null,"Ownership":null,"YearBuilt":null,"Borough":"Tower Hamlets","LengthInMetres":473,"stroke":"#FF7043","stroke-width":4},"geometry":{"type":"LineString","coordinates":[[0.0002821,51.51038],[-0.0005977,51.51033],[-0.0015955,51.51011],[-0.0021212,51.50991],[-0.0026254,51.50955],[-0.0031404,51.50907],[-0.0036339,51.50868],[-0.0042884,51.50822],[-0.0045137,51.50805],[-0.0048356,51.50788]]}},{"type":"Feature","properties":{"Title":"Stepney Way","Direction":"OneWay","Flow":null,"Protection":null,"Ownership":null,"YearBuilt":null,"Borough":"Tower Hamlets","LengthInMetres":136,"stroke":"#FF7043","stroke-width":2},"geometry":{"type":"LineString","coordinates":[[-0.0579577,51.51767],[-0.0597494,51.51751],[-0.0598943,51.51751]]}},{"type":"Feature","properties":{"Title":"Hanbury Street","Direction":"TwoWay","Flow":null,"Protection":null,"Ownership":null,"YearBuilt":null,"Borough":"Tower Hamlets","LengthInMetres":115,"stroke":"#FF7043","stroke-width":4},"geometry":{"type":"LineString","coordinates":[[-0.06502,51.51971],[-0.0648644,51.51969],[-0.064395,51.51969],[-0.0642958,51.51967],[-0.0638908,51.51966],[-0.0638184,51.51963],[-0.0637259,51.51957],[-0.0634724,51.51967]]}},{"type":"Feature","properties":{"Title":"Bromley High Street","Direction":"OneWay","Flow":null,"Protection":null,"Ownership":null,"YearBuilt":null,"Borough":"Tower Hamlets","LengthInMetres":49,"stroke":"#FF7043","stroke-width":2},"geometry":{"type":"LineString","coordinates":[[-0.0176049,51.52794],[-0.0179053,51.52834]]}},{"type":"Feature","properties":{"Title":"QE Olympic Park","Direction":"TwoWay","Flow":null,"Protection":null,"Ownership":null,"YearBuilt":null,"Borough":"Tower Hamlets","LengthInMetres":505,"stroke":"#FF7043","stroke-width":4},"geometry":{"type":"LineString","coordinates":[[-0.0177907,51.54343],[-0.0177525,51.54281],[-0.0177685,51.54162],[-0.0178248,51.54143],[-0.0179777,51.5413],[-0.0184203,51.54077],[-0.0187717,51.54034],[-0.0191097,51.53994],[-0.0193832,51.53966],[-0.0196085,51.53917]]}},{"type":"Feature","properties":{"Title":"Wennington Road","Direction":"TwoWay","Flow":null,"Protection":null,"Ownership":null,"YearBuilt":null,"Borough":"Tower Hamlets","LengthInMetres":151,"stroke":"#FF7043","stroke-width":4},"geometry":{"type":"LineString","coordinates":[[-0.0418846,51.53175],[-0.0420187,51.53171],[-0.0422065,51.53165],[-0.0423969,51.53157],[-0.0424961,51.53152],[-0.0425417,51.53147],[-0.0425954,51.53138],[-0.0426088,51.53134],[-0.0425927,51.53127],[-0.0424747,51.53113],[-0.0423996,51.53105],[-0.0423433,51.53101],[-0.0421877,51.53092],[-0.0421287,51.53087],[-0.0420938,51.53081],[-0.0420804,51.53073]]}},{"type":"Feature","properties":{"Title":"East India Dock Crossing","Direction":"TwoWay","Flow":null,"Protection":null,"Ownership":null,"YearBuilt":null,"Borough":"Tower Hamlets","LengthInMetres":37,"stroke":"#FF7043","stroke-width":4},"geometry":{"type":"LineString","coordinates":[[-0.015972,51.51107],[-0.015881,51.51107],[-0.015801,51.51108],[-0.015434,51.51109]]}},{"type":"Feature","properties":{"Title":"White Horse Road Filter and Crossing","Direction":"TwoWay","Flow":null,"Protection":null,"Ownership":null,"YearBuilt":null,"Borough":"Tower Hamlets","LengthInMetres":19,"stroke":"#FF7043","stroke-width":4},"geometry":{"type":"LineString","coordinates":[[-0.041242,51.51572],[-0.041403,51.51572],[-0.04151,51.51571]]}},{"type":"Feature","properties":{"Title":"Middlesex Street","Direction":"TwoWay","Flow":null,"Protection":null,"Ownership":null,"YearBuilt":null,"Borough":"Tower Hamlets","LengthInMetres":2,"stroke":"#FF7043","stroke-width":4},"geometry":{"type":"LineString","coordinates":[[-0.0739296,51.51448],[-0.0739534,51.51449]]}},{"type":"Feature","properties":{"Title":"Middlesex Street","Direction":"TwoWay","Flow":null,"Protection":null,"Ownership":null,"YearBuilt":null,"Borough":"Tower Hamlets","LengthInMetres":3,"stroke":"#FF7043","stroke-width":4},"geometry":{"type":"LineString","coordinates":[[-0.0739534,51.51449],[-0.0739193,51.5145]]}},{"type":"Feature","properties":{"Title":"Middlesex Street","Direction":"TwoWay","Flow":null,"Protection":null,"Ownership":null,"YearBuilt":null,"Borough":"Tower Hamlets","LengthInMetres":9,"stroke":"#FF7043","stroke-width":4},"geometry":{"type":"LineString","coordinates":[[-0.0739534,51.51449],[-0.0740352,51.5145],[-0.074064,51.51452]]}},{"type":"Feature","properties":{"Title":"Middlesex Street","Direction":"TwoWay","Flow":null,"Protection":null,"Ownership":null,"YearBuilt":null,"Borough":"Tower Hamlets","LengthInMetres":54,"stroke":"#FF7043","stroke-width":4},"geometry":{"type":"LineString","coordinates":[[-0.0741236,51.51456],[-0.0742538,51.51467],[-0.0744201,51.51482],[-0.0744952,51.51489],[-0.0745743,51.51492],[-0.0746067,51.51493]]}},{"type":"Feature","properties":{"Title":"Knottisford Street to Usk Street","Direction":"TwoWay","Flow":null,"Protection":null,"Ownership":null,"YearBuilt":null,"Borough":"Tower Hamlets","LengthInMetres":44,"stroke":"#FF7043","stroke-width":4},"geometry":{"type":"LineString","coordinates":[[-0.047046,51.52854],[-0.046902,51.52853],[-0.0464415,51.52864]]}},{"type":"Feature","properties":{"Title":"Brushfield Street","Direction":"TwoWay","Flow":null,"Protection":null,"Ownership":null,"YearBuilt":null,"Borough":"Tower Hamlets","LengthInMetres":5,"stroke":"#FF7043","stroke-width":4},"geometry":{"type":"LineString","coordinates":[[-0.078435,51.51896],[-0.078366,51.51897]]}},{"type":"Feature","properties":{"Title":"C37","Direction":"TwoWay","Flow":null,"Protection":null,"Ownership":null,"YearBuilt":null,"Borough":"Tower Hamlets","LengthInMetres":420,"stroke":"#FF7043","stroke-width":4},"geometry":{"type":"LineString","coordinates":[[-0.0349571,51.52536],[-0.0344978,51.52419],[-0.0342617,51.52328],[-0.0340364,51.52256],[-0.0339379,51.52219],[-0.0338128,51.5219],[-0.0336555,51.52168]]}},{"type":"Feature","properties":{"Title":"Knighten Street - LB Tower Hamlets","Direction":"TwoWay","Flow":null,"Protection":null,"Ownership":null,"YearBuilt":null,"Borough":"Tower Hamlets","LengthInMetres":9,"stroke":"#FF7043","stroke-width":4},"geometry":{"type":"LineString","coordinates":[[-0.063183,51.50389],[-0.063209,51.50381]]}}]}