{"type":"FeatureCollection","features":[{"type":"Feature","properties":{"Title":"Clapham Common (will become C5)","Direction":"TwoWay","Flow":null,"Protection":null,"Ownership":null,"YearBuilt":null,"Borough":"Wandsworth","LengthInMetres":115,"stroke":"#FFA54F","stroke-width":4},"geometry":{"type":"LineString","coordinates":[[-0.1480779,51.45555],[-0.1489875,51.45485],[-0.1491377,51.45476]]}},{"type":"Feature","properties":{"Title":"CS7 - Streetspace upgrade","Direction":"TwoWay","Flow":null,"Protection":null,"Ownership":null,"YearBuilt":null,"Borough":"Wandsworth","LengthInMetres":658,"stroke":"#FFA54F","stroke-width":4},"geometry":{"type":"LineString","coordinates":[[-0.1480758,51.44871],[-0.1481428,51.44856],[-0.1483145,51.4483],[-0.1485586,51.44792],[-0.1488858,51.44743],[-0.1491969,51.44695],[-0.1494973,51.44652],[-0.1496583,51.4463],[-0.1497548,51.44618],[-0.1498675,51.44608],[-0.1500257,51.44596],[-0.1501947,51.44583],[-0.1504844,51.44568],[-0.1508599,51.44548],[-0.1510235,51.4454],[-0.151281,51.44521],[-0.1514661,51.44503],[-0.1518014,51.44466],[-0.1523405,51.44403],[-0.1526838,51.44363]]}},{"type":"Feature","properties":{"Title":"CS7 - Streetspace upgrade","Direction":"TwoWay","Flow":null,"Protection":null,"Ownership":null,"YearBuilt":null,"Borough":"Wandsworth","LengthInMetres":541,"stroke":"#FFA54F","stroke-width":4},"geometry":{"type":"LineString","coordinates":[[-0.1534777,51.44267],[-0.1536347,51.44249],[-0.1539673,51.44211],[-0.1542141,51.44184],[-0.1545306,51.44147],[-0.1548953,51.44104],[-0.1550724,51.44082],[-0.1552762,51.44052],[-0.1556356,51.43997],[-0.155995,51.43937],[-0.1561935,51.43904],[-0.1566012,51.43823]]}},{"type":"Feature","properties":{"Title":"CS7 - Streetspace upgrade","Direction":"TwoWay","Flow":null,"Protection":null,"Ownership":null,"YearBuilt":null,"Borough":"Wandsworth","LengthInMetres":296,"stroke":"#FFA54F","stroke-width":4},"geometry":{"type":"LineString","coordinates":[[-0.1597854,51.4356],[-0.1598834,51.43556],[-0.160039,51.43548],[-0.1605593,51.43525],[-0.160782,51.43514],[-0.1610663,51.435],[-0.1612031,51.43492],[-0.1615786,51.43469],[-0.1617878,51.43456],[-0.1619165,51.43446],[-0.1620399,51.4344],[-0.1621392,51.43434],[-0.1623967,51.43414],[-0.1627212,51.43387],[-0.1628312,51.43377]]}},{"type":"Feature","properties":{"Title":"CS7 - Streetspace upgrade","Direction":"TwoWay","Flow":null,"Protection":null,"Ownership":null,"YearBuilt":null,"Borough":"Wandsworth","LengthInMetres":345,"stroke":"#FFA54F","stroke-width":4},"geometry":{"type":"LineString","coordinates":[[-0.1636814,51.43281],[-0.163791,51.43257],[-0.1639036,51.43227],[-0.1639948,51.43205],[-0.1640592,51.43195],[-0.1643408,51.43164],[-0.1646788,51.43129],[-0.1650597,51.4309],[-0.165462,51.4305],[-0.1658858,51.43006]]}},{"type":"Feature","properties":{"Title":"CS7 - Streetspace upgrade","Direction":"OneWay","Flow":null,"Protection":null,"Ownership":null,"YearBuilt":null,"Borough":"Wandsworth","LengthInMetres":101,"stroke":"#FFA54F","stroke-width":2},"geometry":{"type":"LineString","coordinates":[[-0.169028,51.42707],[-0.1692121,51.4269],[-0.1693301,51.42677],[-0.1694937,51.42658],[-0.1697083,51.42627]]}},{"type":"Feature","properties":{"Title":"CS7 - Streetspace upgrade","Direction":"OneWay","Flow":null,"Protection":null,"Ownership":null,"YearBuilt":null,"Borough":"Wandsworth","LengthInMetres":28,"stroke":"#FFA54F","stroke-width":2},"geometry":{"type":"LineString","coordinates":[[-0.1712884,51.42458],[-0.1714143,51.42448],[-0.171543,51.42438]]}},{"type":"Feature","properties":{"Title":"CS7 - Streetspace upgrade","Direction":"OneWay","Flow":null,"Protection":null,"Ownership":null,"YearBuilt":null,"Borough":"Wandsworth","LengthInMetres":86,"stroke":"#FFA54F","stroke-width":2},"geometry":{"type":"LineString","coordinates":[[-0.1718005,51.42418],[-0.1721024,51.42393],[-0.1722043,51.42386],[-0.1725772,51.42358]]}},{"type":"Feature","properties":{"Title":"CS7 - Streetspace upgrade","Direction":"OneWay","Flow":null,"Protection":null,"Ownership":null,"YearBuilt":null,"Borough":"Wandsworth","LengthInMetres":64,"stroke":"#FFA54F","stroke-width":2},"geometry":{"type":"LineString","coordinates":[[-0.1726995,51.42348],[-0.1729919,51.42327],[-0.1732521,51.42307],[-0.1732914,51.42304]]}},{"type":"Feature","properties":{"Title":"CS8","Direction":"OneWay","Flow":null,"Protection":null,"Ownership":null,"YearBuilt":null,"Borough":"Wandsworth","LengthInMetres":6,"stroke":"#FFA54F","stroke-width":2},"geometry":{"type":"LineString","coordinates":[[-0.1904243,51.45856],[-0.1905072,51.45855]]}},{"type":"Feature","properties":{"Title":"CS8","Direction":"TwoWay","Flow":null,"Protection":null,"Ownership":null,"YearBuilt":null,"Borough":"Wandsworth","LengthInMetres":203,"stroke":"#FFA54F","stroke-width":4},"geometry":{"type":"LineString","coordinates":[[-0.186029,51.46177],[-0.1853721,51.46172],[-0.1850985,51.46169],[-0.1849215,51.46178],[-0.1847498,51.46178],[-0.1846211,51.46184],[-0.1846255,51.46191],[-0.1846318,51.46199],[-0.1846318,51.4621],[-0.1845943,51.4623],[-0.184546,51.46257],[-0.1844923,51.46272]]}},{"type":"Feature","properties":{"Title":"CS8 - Streetspace upgrade","Direction":"OneWay","Flow":null,"Protection":null,"Ownership":null,"YearBuilt":null,"Borough":"Wandsworth","LengthInMetres":260,"stroke":"#FFA54F","stroke-width":2},"geometry":{"type":"LineString","coordinates":[[-0.1786812,51.46664],[-0.1785043,51.46681],[-0.1783165,51.46704],[-0.1781449,51.46732],[-0.1780269,51.46761],[-0.1779561,51.46797],[-0.1778767,51.46817],[-0.1776996,51.46845],[-0.1774904,51.46865],[-0.1773178,51.46878]]}},{"type":"Feature","properties":{"Title":"CS8 - Streetspace upgrade","Direction":"OneWay","Flow":null,"Protection":null,"Ownership":null,"YearBuilt":null,"Borough":"Wandsworth","LengthInMetres":365,"stroke":"#FFA54F","stroke-width":2},"geometry":{"type":"LineString","coordinates":[[-0.1763156,51.46941],[-0.175983,51.46958],[-0.1756612,51.4697],[-0.17535,51.46981],[-0.1749852,51.46987],[-0.1747117,51.46991],[-0.1743308,51.46992],[-0.1738909,51.46991],[-0.1734993,51.46992],[-0.1731935,51.46993],[-0.1728985,51.46994],[-0.172523,51.46998],[-0.1721636,51.47002],[-0.1716915,51.47009],[-0.1713213,51.47016]]}},{"type":"Feature","properties":{"Title":"CS8 - Streetspace upgrade","Direction":"OneWay","Flow":null,"Protection":null,"Ownership":null,"YearBuilt":null,"Borough":"Wandsworth","LengthInMetres":643,"stroke":"#FFA54F","stroke-width":2},"geometry":{"type":"LineString","coordinates":[[-0.1651513,51.47224],[-0.1642555,51.47243],[-0.1634508,51.47259],[-0.1629358,51.47271],[-0.1625442,51.47282],[-0.1620507,51.47299],[-0.1612567,51.47328],[-0.1606988,51.4735],[-0.160259,51.47364],[-0.1599746,51.47371],[-0.1595133,51.4738],[-0.1589125,51.47391],[-0.1583814,51.47401],[-0.1580971,51.47407],[-0.1575392,51.47415],[-0.157212,51.47419],[-0.1567882,51.47425],[-0.1565628,51.47428]]}},{"type":"Feature","properties":{"Title":"CS8 - Streetspace upgrade","Direction":"OneWay","Flow":null,"Protection":null,"Ownership":null,"YearBuilt":null,"Borough":"Wandsworth","LengthInMetres":257,"stroke":"#FFA54F","stroke-width":2},"geometry":{"type":"LineString","coordinates":[[-0.1565628,51.47428],[-0.1558601,51.47438],[-0.1553934,51.47444],[-0.1547765,51.47455],[-0.1540845,51.47468],[-0.1534247,51.47482],[-0.1530063,51.4749]]}},{"type":"Feature","properties":{"Title":"CS8","Direction":"OneWay","Flow":null,"Protection":null,"Ownership":null,"YearBuilt":null,"Borough":"Wandsworth","LengthInMetres":36,"stroke":"#FFA54F","stroke-width":2},"geometry":{"type":"LineString","coordinates":[[-0.1516354,51.47541],[-0.151397,51.47512]]}},{"type":"Feature","properties":{"Title":"CS8","Direction":"OneWay","Flow":null,"Protection":null,"Ownership":null,"YearBuilt":null,"Borough":"Wandsworth","LengthInMetres":211,"stroke":"#FFA54F","stroke-width":2},"geometry":{"type":"LineString","coordinates":[[-0.148953,51.47778],[-0.1489747,51.47782],[-0.1489937,51.47788],[-0.1489937,51.47792],[-0.1489883,51.47797],[-0.1489661,51.47802],[-0.1489199,51.47808],[-0.1488579,51.47812],[-0.1488012,51.47815],[-0.1487312,51.47817],[-0.1486396,51.4782],[-0.1485046,51.47821],[-0.1483946,51.4782],[-0.1483155,51.47818],[-0.1482002,51.47814],[-0.1481385,51.47809],[-0.1480929,51.47805],[-0.1480647,51.47801],[-0.14805,51.47797],[-0.1480392,51.47791],[-0.1480486,51.47784],[-0.1480828,51.47779],[-0.1481304,51.47774],[-0.1481935,51.47769],[-0.1482525,51.47765],[-0.1483243,51.47763],[-0.1483826,51.47761],[-0.1484601,51.4776],[-0.1485193,51.47761],[-0.1485824,51.47761],[-0.1486636,51.47762],[-0.1487259,51.47763],[-0.148797,51.47766],[-0.1488493,51.47769],[-0.1489244,51.47774],[-0.148953,51.47778]]}},{"type":"Feature","properties":{"Title":"CS8 - Streetspace upgrade","Direction":"OneWay","Flow":null,"Protection":null,"Ownership":null,"YearBuilt":null,"Borough":"Wandsworth","LengthInMetres":542,"stroke":"#FFA54F","stroke-width":2},"geometry":{"type":"LineString","coordinates":[[-0.1494424,51.48304],[-0.1493458,51.4825],[-0.1491419,51.48151],[-0.148981,51.48071],[-0.1487557,51.47951],[-0.1485519,51.47833],[-0.1485331,51.4782]]}},{"type":"Feature","properties":{"Title":"CS8 - Streetspace upgrade","Direction":"OneWay","Flow":null,"Protection":null,"Ownership":null,"YearBuilt":null,"Borough":"Wandsworth","LengthInMetres":95,"stroke":"#FFA54F","stroke-width":2},"geometry":{"type":"LineString","coordinates":[[-0.1496015,51.48371],[-0.1497789,51.48456]]}},{"type":"Feature","properties":{"Title":"Former Q21 (project now cancelled)","Direction":"TwoWay","Flow":null,"Protection":null,"Ownership":null,"YearBuilt":null,"Borough":"Wandsworth","LengthInMetres":27,"stroke":"#FFA54F","stroke-width":4},"geometry":{"type":"LineString","coordinates":[[-0.2533846,51.45335],[-0.2530305,51.45326]]}},{"type":"Feature","properties":{"Title":"Former Q21 (project now cancelled)","Direction":"OneWay","Flow":null,"Protection":null,"Ownership":null,"YearBuilt":null,"Borough":"Wandsworth","LengthInMetres":49,"stroke":"#FFA54F","stroke-width":2},"geometry":{"type":"LineString","coordinates":[[-0.2370017,51.45112],[-0.2369178,51.45114],[-0.2363385,51.45127]]}},{"type":"Feature","properties":{"Title":"Wandsworth Bridge","Direction":"TwoWay","Flow":null,"Protection":null,"Ownership":null,"YearBuilt":null,"Borough":"Wandsworth","LengthInMetres":103,"stroke":"#FFA54F","stroke-width":4},"geometry":{"type":"LineString","coordinates":[[-0.1870708,51.46418],[-0.1878321,51.46497]]}},{"type":"Feature","properties":{"Title":"Queen Mary's Hospital","Direction":"TwoWay","Flow":null,"Protection":null,"Ownership":null,"YearBuilt":null,"Borough":"Wandsworth","LengthInMetres":132,"stroke":"#FFA54F","stroke-width":4},"geometry":{"type":"LineString","coordinates":[[-0.2405639,51.45535],[-0.2405532,51.45517],[-0.2407034,51.45507],[-0.2410467,51.45507],[-0.241787,51.45514],[-0.2419586,51.45499]]}},{"type":"Feature","properties":{"Title":"Oakhill Road","Direction":"OneWay","Flow":null,"Protection":null,"Ownership":null,"YearBuilt":null,"Borough":"Wandsworth","LengthInMetres":40,"stroke":"#FFA54F","stroke-width":2},"geometry":{"type":"LineString","coordinates":[[-0.2056374,51.45918],[-0.205337,51.45925],[-0.2051009,51.4593]]}},{"type":"Feature","properties":{"Title":"Broadwater Road","Direction":"OneWay","Flow":null,"Protection":null,"Ownership":null,"YearBuilt":null,"Borough":"Wandsworth","LengthInMetres":101,"stroke":"#FFA54F","stroke-width":2},"geometry":{"type":"LineString","coordinates":[[-0.1721479,51.43145],[-0.1717402,51.43174],[-0.1709463,51.43159]]}},{"type":"Feature","properties":{"Title":"West Hill","Direction":"OneWay","Flow":null,"Protection":null,"Ownership":null,"YearBuilt":null,"Borough":"Wandsworth","LengthInMetres":143,"stroke":"#FFA54F","stroke-width":2},"geometry":{"type":"LineString","coordinates":[[-0.2012216,51.45671],[-0.2024983,51.45657],[-0.2030777,51.45646],[-0.2032172,51.45641]]}},{"type":"Feature","properties":{"Title":"West Hill","Direction":"OneWay","Flow":null,"Protection":null,"Ownership":null,"YearBuilt":null,"Borough":"Wandsworth","LengthInMetres":36,"stroke":"#FFA54F","stroke-width":2},"geometry":{"type":"LineString","coordinates":[[-0.2035176,51.45631],[-0.2039682,51.45615]]}},{"type":"Feature","properties":{"Title":"West Hill","Direction":"OneWay","Flow":null,"Protection":null,"Ownership":null,"YearBuilt":null,"Borough":"Wandsworth","LengthInMetres":191,"stroke":"#FFA54F","stroke-width":2},"geometry":{"type":"LineString","coordinates":[[-0.2050326,51.45583],[-0.2075311,51.45511]]}},{"type":"Feature","properties":{"Title":"West Hill","Direction":"OneWay","Flow":null,"Protection":null,"Ownership":null,"YearBuilt":null,"Borough":"Wandsworth","LengthInMetres":133,"stroke":"#FFA54F","stroke-width":2},"geometry":{"type":"LineString","coordinates":[[-0.2077671,51.45504],[-0.2086791,51.45475],[-0.2094623,51.45449]]}},{"type":"Feature","properties":{"Title":"West Hill","Direction":"OneWay","Flow":null,"Protection":null,"Ownership":null,"YearBuilt":null,"Borough":"Wandsworth","LengthInMetres":84,"stroke":"#FFA54F","stroke-width":2},"geometry":{"type":"LineString","coordinates":[[-0.2097627,51.45437],[-0.2107819,51.45396]]}},{"type":"Feature","properties":{"Title":"West Hill","Direction":"OneWay","Flow":null,"Protection":null,"Ownership":null,"YearBuilt":null,"Borough":"Wandsworth","LengthInMetres":180,"stroke":"#FFA54F","stroke-width":2},"geometry":{"type":"LineString","coordinates":[[-0.2110287,51.45387],[-0.2124127,51.45327],[-0.2131637,51.45296]]}},{"type":"Feature","properties":{"Title":"West Hill","Direction":"OneWay","Flow":null,"Protection":null,"Ownership":null,"YearBuilt":null,"Borough":"Wandsworth","LengthInMetres":172,"stroke":"#FFA54F","stroke-width":2},"geometry":{"type":"LineString","coordinates":[[-0.2138718,51.45265],[-0.2148589,51.4522],[-0.2157172,51.45182],[-0.2158674,51.45174]]}},{"type":"Feature","properties":{"Title":"West Hill","Direction":"OneWay","Flow":null,"Protection":null,"Ownership":null,"YearBuilt":null,"Borough":"Wandsworth","LengthInMetres":49,"stroke":"#FFA54F","stroke-width":2},"geometry":{"type":"LineString","coordinates":[[-0.2160283,51.45166],[-0.2163716,51.45149],[-0.2165648,51.45137]]}},{"type":"Feature","properties":{"Title":"West Hill","Direction":"OneWay","Flow":null,"Protection":null,"Ownership":null,"YearBuilt":null,"Borough":"Wandsworth","LengthInMetres":61,"stroke":"#FFA54F","stroke-width":2},"geometry":{"type":"LineString","coordinates":[[-0.2168437,51.4512],[-0.2174982,51.45084]]}},{"type":"Feature","properties":{"Title":"West Hill","Direction":"OneWay","Flow":null,"Protection":null,"Ownership":null,"YearBuilt":null,"Borough":"Wandsworth","LengthInMetres":372,"stroke":"#FFA54F","stroke-width":2},"geometry":{"type":"LineString","coordinates":[[-0.2178522,51.45067],[-0.2194294,51.44984],[-0.2204486,51.44935],[-0.2210709,51.44899],[-0.221618,51.44863],[-0.2216931,51.44841]]}},{"type":"Feature","properties":{"Title":"Flowersmead","Direction":"TwoWay","Flow":null,"Protection":null,"Ownership":null,"YearBuilt":null,"Borough":"Wandsworth","LengthInMetres":11,"stroke":"#FFA54F","stroke-width":4},"geometry":{"type":"LineString","coordinates":[[-0.1594689,51.43821],[-0.1594555,51.43824],[-0.1594072,51.43827],[-0.1593751,51.43829]]}},{"type":"Feature","properties":{"Title":"Trinity Road","Direction":"TwoWay","Flow":null,"Protection":null,"Ownership":null,"YearBuilt":null,"Borough":"Wandsworth","LengthInMetres":49,"stroke":"#FFA54F","stroke-width":4},"geometry":{"type":"LineString","coordinates":[[-0.182037,51.45788],[-0.181788,51.45769],[-0.181629,51.45752]]}},{"type":"Feature","properties":{"Title":"Podmore Road","Direction":"TwoWay","Flow":null,"Protection":null,"Ownership":null,"YearBuilt":null,"Borough":"Wandsworth","LengthInMetres":60,"stroke":"#FFA54F","stroke-width":4},"geometry":{"type":"LineString","coordinates":[[-0.185482,51.46116],[-0.185212,51.46121],[-0.18511,51.46122],[-0.18496,51.46123],[-0.184871,51.46122],[-0.184812,51.46121],[-0.184731,51.4612],[-0.184689,51.46121],[-0.184638,51.46122]]}},{"type":"Feature","properties":{"Title":"Trinity Road","Direction":"TwoWay","Flow":null,"Protection":null,"Ownership":null,"YearBuilt":null,"Borough":"Wandsworth","LengthInMetres":57,"stroke":"#FFA54F","stroke-width":4},"geometry":{"type":"LineString","coordinates":[[-0.182175,51.45816],[-0.182322,51.45829],[-0.182485,51.45852],[-0.182553,51.45861]]}},{"type":"Feature","properties":{"Title":"Nine Elms Road","Direction":"OneWay","Flow":null,"Protection":null,"Ownership":null,"YearBuilt":null,"Borough":"Wandsworth","LengthInMetres":10,"stroke":"#FFA54F","stroke-width":2},"geometry":{"type":"LineString","coordinates":[[-0.128392,51.48478],[-0.128252,51.48479]]}},{"type":"Feature","properties":{"Title":"Battersea Park Road","Direction":"OneWay","Flow":null,"Protection":null,"Ownership":null,"YearBuilt":null,"Borough":"Wandsworth","LengthInMetres":201,"stroke":"#FFA54F","stroke-width":2},"geometry":{"type":"LineString","coordinates":[[-0.144027,51.47882],[-0.1432692,51.47915],[-0.1426738,51.4794],[-0.142132,51.47955],[-0.1415258,51.4797]]}},{"type":"Feature","properties":{"Title":"Battersea Park Road","Direction":"TwoWay","Flow":null,"Protection":null,"Ownership":null,"YearBuilt":null,"Borough":"Wandsworth","LengthInMetres":48,"stroke":"#FFA54F","stroke-width":4},"geometry":{"type":"LineString","coordinates":[[-0.1415258,51.4797],[-0.1408874,51.47986]]}},{"type":"Feature","properties":{"Title":"Future Q4","Direction":"OneWay","Flow":null,"Protection":null,"Ownership":null,"YearBuilt":null,"Borough":"Wandsworth","LengthInMetres":5,"stroke":"#FFA54F","stroke-width":2},"geometry":{"type":"LineString","coordinates":[[-0.1885297,51.43934],[-0.1885645,51.43938]]}},{"type":"Feature","properties":{"Title":"Lavender Hill","Direction":"OneWay","Flow":null,"Protection":null,"Ownership":null,"YearBuilt":null,"Borough":"Wandsworth","LengthInMetres":68,"stroke":"#FFA54F","stroke-width":2},"geometry":{"type":"LineString","coordinates":[[-0.1609723,51.46458],[-0.1616295,51.46449],[-0.1619245,51.46446]]}},{"type":"Feature","properties":{"Title":"Twilley Street","Direction":"OneWay","Flow":null,"Protection":null,"Ownership":null,"YearBuilt":null,"Borough":"Wandsworth","LengthInMetres":12,"stroke":"#FFA54F","stroke-width":2},"geometry":{"type":"LineString","coordinates":[[-0.1914559,51.44946],[-0.1915862,51.44946],[-0.1915862,51.44943]]}},{"type":"Feature","properties":{"Title":"Twilley Street","Direction":"OneWay","Flow":null,"Protection":null,"Ownership":null,"YearBuilt":null,"Borough":"Wandsworth","LengthInMetres":4,"stroke":"#FFA54F","stroke-width":2},"geometry":{"type":"LineString","coordinates":[[-0.1915513,51.449],[-0.1915473,51.44896]]}},{"type":"Feature","properties":{"Title":"Thessaly Road","Direction":"TwoWay","Flow":null,"Protection":null,"Ownership":null,"YearBuilt":null,"Borough":"Wandsworth","LengthInMetres":23,"stroke":"#FFA54F","stroke-width":4},"geometry":{"type":"LineString","coordinates":[[-0.1416041,51.47947],[-0.1418034,51.47963]]}},{"type":"Feature","properties":{"Title":"Thessaly Road","Direction":"TwoWay","Flow":null,"Protection":null,"Ownership":null,"YearBuilt":null,"Borough":"Wandsworth","LengthInMetres":731,"stroke":"#FFA54F","stroke-width":4},"geometry":{"type":"LineString","coordinates":[[-0.1416041,51.47947],[-0.1410194,51.47904],[-0.140719,51.47881],[-0.1404159,51.47858],[-0.1402549,51.47846],[-0.1400243,51.47831],[-0.1398902,51.47819],[-0.1396058,51.47799],[-0.1393215,51.47777],[-0.1388226,51.47739],[-0.1383881,51.47705],[-0.1377712,51.47659],[-0.1373635,51.47627],[-0.1369826,51.47599],[-0.1368003,51.47585],[-0.1366393,51.47573],[-0.136583,51.47566],[-0.1365481,51.4756],[-0.136532,51.47548],[-0.1364838,51.47504],[-0.1364623,51.47497],[-0.136414,51.4749],[-0.136347,51.47485],[-0.1362745,51.47479],[-0.1361807,51.47475],[-0.1353116,51.4744]]}},{"type":"Feature","properties":{"Title":"Lacy Road","Direction":"TwoWay","Flow":null,"Protection":null,"Ownership":null,"YearBuilt":null,"Borough":"Wandsworth","LengthInMetres":4,"stroke":"#FFA54F","stroke-width":4},"geometry":{"type":"LineString","coordinates":[[-0.217133,51.46448],[-0.217082,51.46446]]}},{"type":"Feature","properties":{"Title":"Charlwood Road","Direction":"TwoWay","Flow":null,"Protection":null,"Ownership":null,"YearBuilt":null,"Borough":"Wandsworth","LengthInMetres":8,"stroke":"#FFA54F","stroke-width":4},"geometry":{"type":"LineString","coordinates":[[-0.220967,51.46374],[-0.220986,51.46367]]}},{"type":"Feature","properties":{"Title":"Felsham Road","Direction":"TwoWay","Flow":null,"Protection":null,"Ownership":null,"YearBuilt":null,"Borough":"Wandsworth","LengthInMetres":8,"stroke":"#FFA54F","stroke-width":4},"geometry":{"type":"LineString","coordinates":[[-0.216307,51.46507],[-0.216255,51.46505],[-0.216209,51.46503]]}},{"type":"Feature","properties":{"Title":"Battersea High Street","Direction":"TwoWay","Flow":null,"Protection":null,"Ownership":null,"YearBuilt":null,"Borough":"Wandsworth","LengthInMetres":10,"stroke":"#FFA54F","stroke-width":4},"geometry":{"type":"LineString","coordinates":[[-0.173392,51.4712],[-0.173261,51.47116]]}},{"type":"Feature","properties":{"Title":"Battersea High Street","Direction":"OneWay","Flow":null,"Protection":null,"Ownership":null,"YearBuilt":null,"Borough":"Wandsworth","LengthInMetres":8,"stroke":"#FFA54F","stroke-width":2},"geometry":{"type":"LineString","coordinates":[[-0.171717,51.47019],[-0.171655,51.47013]]}},{"type":"Feature","properties":{"Title":"Queenstown Road - LB Wandsworth","Direction":"TwoWay","Flow":null,"Protection":null,"Ownership":null,"YearBuilt":null,"Borough":"Wandsworth","LengthInMetres":43,"stroke":"#FFA54F","stroke-width":4},"geometry":{"type":"LineString","coordinates":[[-0.1484601,51.4776],[-0.1483957,51.47722]]}},{"type":"Feature","properties":{"Title":"Queenstown Road - LB Wandsworth","Direction":"OneWay","Flow":null,"Protection":null,"Ownership":null,"YearBuilt":null,"Borough":"Wandsworth","LengthInMetres":84,"stroke":"#FFA54F","stroke-width":2},"geometry":{"type":"LineString","coordinates":[[-0.1483957,51.47722],[-0.1482649,51.47647]]}},{"type":"Feature","properties":{"Title":"Queenstown Road - LB Wandsworth","Direction":"OneWay","Flow":null,"Protection":null,"Ownership":null,"YearBuilt":null,"Borough":"Wandsworth","LengthInMetres":345,"stroke":"#FFA54F","stroke-width":2},"geometry":{"type":"LineString","coordinates":[[-0.1481415,51.47611],[-0.1479752,51.47598],[-0.1476802,51.47584],[-0.1468836,51.47548],[-0.1466247,51.4753],[-0.1464255,51.47505],[-0.146398,51.47484],[-0.1465575,51.47456],[-0.1468336,51.47436],[-0.1474287,51.47413],[-0.1478894,51.47392]]}},{"type":"Feature","properties":{"Title":"Nine Elms Lane","Direction":"TwoWay","Flow":null,"Protection":null,"Ownership":null,"YearBuilt":null,"Borough":"Wandsworth","LengthInMetres":134,"stroke":"#FFA54F","stroke-width":4},"geometry":{"type":"LineString","coordinates":[[-0.1363934,51.48215],[-0.1357658,51.4824],[-0.1352884,51.48258],[-0.1348646,51.4827],[-0.1347144,51.48274]]}},{"type":"Feature","properties":{"Title":"Garratt Lane - LB Wandsworth","Direction":"TwoWay","Flow":null,"Protection":null,"Ownership":null,"YearBuilt":null,"Borough":"Wandsworth","LengthInMetres":843,"stroke":"#FFA54F","stroke-width":4},"geometry":{"type":"LineString","coordinates":[[-0.189333,51.44586],[-0.1892954,51.44634],[-0.1893088,51.44644],[-0.1893262,51.44662],[-0.1893135,51.447],[-0.1893222,51.4473],[-0.1893383,51.44757],[-0.1894536,51.44813],[-0.1895797,51.44873],[-0.1896092,51.44884],[-0.1896561,51.44905],[-0.1896528,51.44921],[-0.1896779,51.44956],[-0.1896852,51.44972],[-0.189737,51.44989],[-0.1897889,51.45003],[-0.1898251,51.45014],[-0.1898989,51.45048],[-0.18997,51.45075],[-0.1900377,51.451],[-0.1900984,51.45114],[-0.1902468,51.45142],[-0.1904917,51.45177],[-0.1907867,51.45215],[-0.1910603,51.45246],[-0.191189,51.4526],[-0.1912266,51.4527],[-0.1912668,51.45293],[-0.1913084,51.45307],[-0.191409,51.45322]]}},{"type":"Feature","properties":{"Title":"Old York Road - LB Wandsworth","Direction":"TwoWay","Flow":null,"Protection":null,"Ownership":null,"YearBuilt":null,"Borough":"Wandsworth","LengthInMetres":277,"stroke":"#FFA54F","stroke-width":4},"geometry":{"type":"LineString","coordinates":[[-0.1875216,51.46102],[-0.1877925,51.46076],[-0.1881143,51.46046],[-0.1883692,51.46024],[-0.1884282,51.4602],[-0.1889157,51.45995],[-0.1892858,51.45977],[-0.1894769,51.4597],[-0.1900053,51.4595],[-0.1903909,51.45935]]}},{"type":"Feature","properties":{"Title":"Garratt Lane - LB Wandsworth","Direction":"OneWay","Flow":null,"Protection":null,"Ownership":null,"YearBuilt":null,"Borough":"Wandsworth","LengthInMetres":237,"stroke":"#FFA54F","stroke-width":2},"geometry":{"type":"LineString","coordinates":[[-0.1798052,51.43264],[-0.1796362,51.43257],[-0.1794779,51.43253],[-0.1792955,51.43247],[-0.179089,51.43243],[-0.1779196,51.43219],[-0.1774314,51.43209],[-0.1772249,51.43203],[-0.1769835,51.43195],[-0.176793,51.43188],[-0.176667,51.43183]]}},{"type":"Feature","properties":{"Title":"Garratt Lane - LB Wandsworth","Direction":"OneWay","Flow":null,"Protection":null,"Ownership":null,"YearBuilt":null,"Borough":"Wandsworth","LengthInMetres":122,"stroke":"#FFA54F","stroke-width":2},"geometry":{"type":"LineString","coordinates":[[-0.175691,51.43124],[-0.1753959,51.43099],[-0.1751063,51.43077],[-0.174881,51.43061],[-0.1745698,51.4304]]}},{"type":"Feature","properties":{"Title":"Garratt Lane - LB Wandsworth","Direction":"OneWay","Flow":null,"Protection":null,"Ownership":null,"YearBuilt":null,"Borough":"Wandsworth","LengthInMetres":119,"stroke":"#FFA54F","stroke-width":2},"geometry":{"type":"LineString","coordinates":[[-0.1726905,51.4297],[-0.1724545,51.42963],[-0.1721702,51.42953],[-0.1719985,51.42948],[-0.171918,51.42947],[-0.171733,51.42948],[-0.1715881,51.42948],[-0.1714379,51.42945],[-0.1712341,51.42939],[-0.171116,51.42935]]}},{"type":"Feature","properties":{"Title":"Plough Lane","Direction":"TwoWay","Flow":null,"Protection":null,"Ownership":null,"YearBuilt":null,"Borough":"Wandsworth","LengthInMetres":12,"stroke":"#FFA54F","stroke-width":4},"geometry":{"type":"LineString","coordinates":[[-0.1843358,51.43124],[-0.1842194,51.43132]]}}]}