{"type":"FeatureCollection","features":[{"type":"Feature","properties":{"Title":"C3 - (East-West Cycle Superhighway)","Direction":"TwoWay","Flow":null,"Protection":null,"Ownership":null,"YearBuilt":null,"Borough":"Westminster","LengthInMetres":1749,"stroke":"#9C27B0","stroke-width":4},"geometry":{"type":"LineString","coordinates":[[-0.1757977,51.51317],[-0.1755724,51.51301],[-0.1754436,51.51288],[-0.1753095,51.51276],[-0.1750949,51.51263],[-0.1749152,51.51251],[-0.1746068,51.51229],[-0.1742688,51.51207],[-0.1739577,51.51185],[-0.1738933,51.51184],[-0.1736734,51.51188],[-0.1734239,51.51191],[-0.1725951,51.51199],[-0.1723001,51.51201],[-0.1722169,51.51186],[-0.1722169,51.51176],[-0.1722384,51.51169],[-0.1723135,51.51161],[-0.1724449,51.51152],[-0.172571,51.51144],[-0.1726783,51.51135],[-0.1727346,51.51122],[-0.1727078,51.5111],[-0.1726407,51.51102],[-0.1724744,51.51094],[-0.1713693,51.51049],[-0.171144,51.51039],[-0.1709965,51.51029],[-0.1708785,51.5102],[-0.1707819,51.5101],[-0.1707149,51.51004],[-0.1706639,51.50993],[-0.1706264,51.50982],[-0.1705566,51.50942],[-0.1705352,51.50922],[-0.1704842,51.50864],[-0.1704225,51.50798],[-0.1703769,51.50743],[-0.1703984,51.50734],[-0.1704681,51.50722],[-0.1705486,51.50714],[-0.1706988,51.50698],[-0.1708651,51.50685],[-0.1709938,51.50676],[-0.1711279,51.50671],[-0.171262,51.50669],[-0.1714149,51.50669],[-0.1715812,51.50673],[-0.1717797,51.50679],[-0.1719487,51.50682],[-0.172064,51.50681],[-0.1721418,51.50679],[-0.1721955,51.50675],[-0.1722625,51.50668],[-0.1727507,51.50607],[-0.1729518,51.50582],[-0.1730269,51.50574],[-0.1730618,51.50564],[-0.1730806,51.50551],[-0.1730994,51.50542],[-0.1731771,51.50526],[-0.1732522,51.50515],[-0.1732898,51.50508],[-0.1733408,51.50499],[-0.1735634,51.50468],[-0.1738182,51.50436],[-0.1741722,51.50389],[-0.174352,51.50364],[-0.1744566,51.50349],[-0.174529,51.50333],[-0.174596,51.50319],[-0.174655,51.50298],[-0.1746631,51.50282],[-0.1745799,51.50282],[-0.1744646,51.50281],[-0.1744136,51.50281],[-0.1743895,51.50278],[-0.17436,51.5027],[-0.1742903,51.50257],[-0.1742125,51.5025],[-0.1741374,51.50246],[-0.1740381,51.50242],[-0.1738128,51.50234],[-0.1737243,51.50232],[-0.1735822,51.50232],[-0.1732791,51.50232],[-0.1731718,51.5023],[-0.1730833,51.50226],[-0.1730323,51.50222],[-0.1729679,51.50217],[-0.1735634,51.50216]]}},{"type":"Feature","properties":{"Title":"C3 - (East-West Cycle Superhighway)","Direction":"TwoWay","Flow":null,"Protection":null,"Ownership":null,"YearBuilt":null,"Borough":"Westminster","LengthInMetres":48,"stroke":"#9C27B0","stroke-width":4},"geometry":{"type":"LineString","coordinates":[[-0.1735634,51.50216],[-0.17425,51.50216]]}},{"type":"Feature","properties":{"Title":"C3 - (East-West Cycle Superhighway)","Direction":"TwoWay","Flow":null,"Protection":null,"Ownership":null,"YearBuilt":null,"Borough":"Westminster","LengthInMetres":18,"stroke":"#9C27B0","stroke-width":4},"geometry":{"type":"LineString","coordinates":[[-0.17425,51.50216],[-0.1745102,51.50216]]}},{"type":"Feature","properties":{"Title":"C3 - (East-West Cycle Superhighway)","Direction":"TwoWay","Flow":null,"Protection":null,"Ownership":null,"YearBuilt":null,"Borough":"Westminster","LengthInMetres":26,"stroke":"#9C27B0","stroke-width":4},"geometry":{"type":"LineString","coordinates":[[-0.1745102,51.50216],[-0.1745853,51.50239]]}},{"type":"Feature","properties":{"Title":"C3 - (East-West Cycle Superhighway)","Direction":"TwoWay","Flow":null,"Protection":null,"Ownership":null,"YearBuilt":null,"Borough":"Westminster","LengthInMetres":23,"stroke":"#9C27B0","stroke-width":4},"geometry":{"type":"LineString","coordinates":[[-0.1745853,51.50239],[-0.1746416,51.50259]]}},{"type":"Feature","properties":{"Title":"C3 - (East-West Cycle Superhighway)","Direction":"TwoWay","Flow":null,"Protection":null,"Ownership":null,"YearBuilt":null,"Borough":"Westminster","LengthInMetres":15,"stroke":"#9C27B0","stroke-width":4},"geometry":{"type":"LineString","coordinates":[[-0.1746416,51.50259],[-0.1746577,51.50272]]}},{"type":"Feature","properties":{"Title":"C3 - (East-West Cycle Superhighway)","Direction":"TwoWay","Flow":null,"Protection":null,"Ownership":null,"YearBuilt":null,"Borough":"Westminster","LengthInMetres":10,"stroke":"#9C27B0","stroke-width":4},"geometry":{"type":"LineString","coordinates":[[-0.1746577,51.50272],[-0.1746604,51.50281]]}},{"type":"Feature","properties":{"Title":"C3 - (East-West Cycle Superhighway)","Direction":"TwoWay","Flow":null,"Protection":null,"Ownership":null,"YearBuilt":null,"Borough":"Westminster","LengthInMetres":1460,"stroke":"#9C27B0","stroke-width":4},"geometry":{"type":"LineString","coordinates":[[-0.1735634,51.50216],[-0.1729652,51.50217],[-0.1727131,51.50218],[-0.1724074,51.50217],[-0.1717019,51.50218],[-0.1710958,51.50219],[-0.1701114,51.5022],[-0.1696339,51.5022],[-0.1683519,51.50221],[-0.1668605,51.50223],[-0.1660398,51.50224],[-0.1655409,51.50226],[-0.1652673,51.50228],[-0.1643124,51.50234],[-0.1628721,51.50244],[-0.161016,51.50256],[-0.1587844,51.50271],[-0.1586127,51.50273],[-0.1584947,51.50274],[-0.1583848,51.50275],[-0.1580656,51.50277],[-0.1563329,51.50293],[-0.1554236,51.50301],[-0.1543695,51.5031],[-0.1539403,51.50315],[-0.1536748,51.50318],[-0.1534549,51.50321],[-0.1532671,51.50326],[-0.1531249,51.50331],[-0.1529989,51.50337],[-0.1528943,51.50343],[-0.1528004,51.5035]]}},{"type":"Feature","properties":{"Title":"C3 - (East-West Cycle Superhighway)","Direction":"TwoWay","Flow":null,"Protection":null,"Ownership":null,"YearBuilt":null,"Borough":"Westminster","LengthInMetres":3516,"stroke":"#9C27B0","stroke-width":4},"geometry":{"type":"LineString","coordinates":[[-0.1495148,51.50262],[-0.148973,51.5026],[-0.1486458,51.50259],[-0.1471545,51.50253],[-0.1455505,51.50247],[-0.1435388,51.50238],[-0.1430829,51.50236],[-0.1425625,51.50232],[-0.1419027,51.50227],[-0.1415701,51.50226],[-0.1411892,51.50224],[-0.1409639,51.50225],[-0.1407547,51.50227],[-0.1405777,51.50228],[-0.1404275,51.50226],[-0.1402987,51.50224],[-0.1401807,51.5022],[-0.1401056,51.50216],[-0.1400198,51.50211],[-0.1399715,51.50204],[-0.1399232,51.50196],[-0.1399018,51.50188],[-0.1399125,51.50182],[-0.13995,51.50174],[-0.1399876,51.50166],[-0.1400198,51.50158],[-0.1400198,51.50151],[-0.1400091,51.50143],[-0.1399661,51.50136],[-0.1399071,51.50128],[-0.1397408,51.50112],[-0.1394994,51.50089],[-0.13936,51.50077],[-0.1391776,51.50065],[-0.1390166,51.50056],[-0.1389221,51.50054],[-0.1387431,51.5005],[-0.1385017,51.50052],[-0.1378901,51.50058],[-0.1367743,51.5007],[-0.1338346,51.501],[-0.131206,51.50128],[-0.1308413,51.50132],[-0.130557,51.50134],[-0.1302297,51.50134],[-0.1297791,51.50132],[-0.1293124,51.50127],[-0.1285882,51.50121],[-0.1279981,51.50117],[-0.127628,51.50113],[-0.1272847,51.50107],[-0.1270594,51.50102],[-0.1267107,51.501],[-0.1259596,51.50096],[-0.1253803,51.50095],[-0.1247795,51.50095],[-0.1244147,51.50093],[-0.1239667,51.50089],[-0.1239426,51.50106],[-0.123948,51.50138],[-0.1239427,51.50162],[-0.1238997,51.50186],[-0.1238138,51.5022],[-0.1235671,51.50319],[-0.1234706,51.50353],[-0.1232828,51.50413],[-0.1231541,51.50447],[-0.1230575,51.50477],[-0.1229394,51.5052],[-0.1228537,51.50548],[-0.1226659,51.5059],[-0.1225425,51.50614],[-0.1223172,51.50647],[-0.1220544,51.50681],[-0.1218076,51.50709],[-0.1217191,51.5072],[-0.1216413,51.50729],[-0.1215233,51.50743],[-0.1212121,51.50781],[-0.1208956,51.50816],[-0.1206864,51.50836],[-0.1204558,51.50855],[-0.120327,51.50866],[-0.1200427,51.50886],[-0.119812,51.50901],[-0.1194902,51.5092],[-0.1192166,51.50934],[-0.1189752,51.50946],[-0.1187338,51.50958],[-0.1185484,51.50966],[-0.1183315,51.50975],[-0.1181544,51.50981],[-0.1177414,51.50993],[-0.1173069,51.51006],[-0.1168562,51.51017],[-0.1163949,51.5103],[-0.1159657,51.5104],[-0.115676,51.51047],[-0.1153304,51.51054],[-0.1150216,51.51059],[-0.1143993,51.5107],[-0.113718,51.51079],[-0.1131923,51.51085],[-0.1127418,51.51089],[-0.1124091,51.51092],[-0.1120604,51.51095],[-0.1115566,51.51097]]}},{"type":"Feature","properties":{"Title":"C3 - Spur","Direction":"TwoWay","Flow":null,"Protection":null,"Ownership":null,"YearBuilt":null,"Borough":"Westminster","LengthInMetres":129,"stroke":"#9C27B0","stroke-width":4},"geometry":{"type":"LineString","coordinates":[[-0.1407278,51.50029],[-0.1395262,51.5004],[-0.1389221,51.50054]]}},{"type":"Feature","properties":{"Title":"C3 - Spur","Direction":"OneWay","Flow":null,"Protection":null,"Ownership":null,"YearBuilt":null,"Borough":"Westminster","LengthInMetres":36,"stroke":"#9C27B0","stroke-width":2},"geometry":{"type":"LineString","coordinates":[[-0.1153304,51.51056],[-0.1153948,51.51072],[-0.1154055,51.51088]]}},{"type":"Feature","properties":{"Title":"C3 - Spur","Direction":"OneWay","Flow":null,"Protection":null,"Ownership":null,"YearBuilt":null,"Borough":"Westminster","LengthInMetres":42,"stroke":"#9C27B0","stroke-width":2},"geometry":{"type":"LineString","coordinates":[[-0.1185484,51.50966],[-0.1186772,51.50984],[-0.1188059,51.51]]}},{"type":"Feature","properties":{"Title":"C3 - Spur","Direction":"TwoWay","Flow":null,"Protection":null,"Ownership":null,"YearBuilt":null,"Borough":"Westminster","LengthInMetres":14,"stroke":"#9C27B0","stroke-width":4},"geometry":{"type":"LineString","coordinates":[[-0.1196857,51.51109],[-0.1195999,51.5112]]}},{"type":"Feature","properties":{"Title":"C8","Direction":"TwoWay","Flow":null,"Protection":null,"Ownership":null,"YearBuilt":null,"Borough":"Westminster","LengthInMetres":2360,"stroke":"#9C27B0","stroke-width":4},"geometry":{"type":"LineString","coordinates":[[-0.149918,51.48583],[-0.1498102,51.48584],[-0.1496391,51.48583],[-0.1495002,51.48581],[-0.149224,51.48578],[-0.1489464,51.48577],[-0.1485132,51.48576],[-0.1470648,51.48578],[-0.1463325,51.48577],[-0.1459503,51.48575],[-0.1454849,51.48569],[-0.1449766,51.48565],[-0.1441089,51.48555],[-0.1425024,51.48531],[-0.1414818,51.48512],[-0.1408776,51.48502],[-0.1403271,51.48495],[-0.1400146,51.4849],[-0.1396887,51.4849],[-0.1394218,51.4849],[-0.1386265,51.485],[-0.1373068,51.48523],[-0.1359926,51.48546],[-0.1348043,51.48567],[-0.1336161,51.48588],[-0.1328973,51.48602],[-0.1323126,51.48616],[-0.1318392,51.48631],[-0.1314301,51.48647],[-0.131182,51.48662],[-0.1309923,51.48679],[-0.1308454,51.48697],[-0.1305021,51.48759],[-0.130313,51.48786],[-0.1300435,51.48819],[-0.1297002,51.48851],[-0.1295097,51.48866],[-0.1292979,51.4888],[-0.1288848,51.48903],[-0.1283671,51.48929],[-0.1279407,51.48946],[-0.1275787,51.48959],[-0.1273594,51.48969],[-0.1271992,51.48977],[-0.1269689,51.48996],[-0.1268029,51.49013],[-0.1262457,51.49084],[-0.1257038,51.49151],[-0.1255864,51.49168],[-0.1252116,51.49254],[-0.1251428,51.49278],[-0.1251085,51.49308],[-0.1251492,51.49362],[-0.1252021,51.49443]]}},{"type":"Feature","properties":{"Title":"C8 - link","Direction":"TwoWay","Flow":null,"Protection":null,"Ownership":null,"YearBuilt":null,"Borough":"Westminster","LengthInMetres":42,"stroke":"#9C27B0","stroke-width":4},"geometry":{"type":"LineString","coordinates":[[-0.1289575,51.48856],[-0.1290487,51.48893]]}},{"type":"Feature","properties":{"Title":"CS8 - Streetspace upgrade","Direction":"OneWay","Flow":null,"Protection":null,"Ownership":null,"YearBuilt":null,"Borough":"Westminster","LengthInMetres":102,"stroke":"#9C27B0","stroke-width":2},"geometry":{"type":"LineString","coordinates":[[-0.1497789,51.48456],[-0.1498804,51.48505],[-0.1499615,51.48547]]}},{"type":"Feature","properties":{"Title":"Q1 - (will become C10)","Direction":"TwoWay","Flow":null,"Protection":null,"Ownership":null,"YearBuilt":null,"Borough":"Westminster","LengthInMetres":83,"stroke":"#9C27B0","stroke-width":4},"geometry":{"type":"LineString","coordinates":[[-0.1191713,51.51125],[-0.1193316,51.51143],[-0.1194435,51.51156],[-0.1196407,51.51172],[-0.1198794,51.51184]]}},{"type":"Feature","properties":{"Title":"Q1 - (will become C10) - Streetspace upgrade","Direction":"TwoWay","Flow":null,"Protection":null,"Ownership":null,"YearBuilt":null,"Borough":"Westminster","LengthInMetres":218,"stroke":"#9C27B0","stroke-width":4},"geometry":{"type":"LineString","coordinates":[[-0.1169136,51.50867],[-0.1172696,51.50907],[-0.1181333,51.50999],[-0.1184579,51.51038]]}},{"type":"Feature","properties":{"Title":"C27","Direction":"OneWay","Flow":null,"Protection":null,"Ownership":null,"YearBuilt":null,"Borough":"Westminster","LengthInMetres":11,"stroke":"#9C27B0","stroke-width":2},"geometry":{"type":"LineString","coordinates":[[-0.1876945,51.51379],[-0.1875787,51.51378],[-0.1875357,51.51378]]}},{"type":"Feature","properties":{"Title":"C27","Direction":"OneWay","Flow":null,"Protection":null,"Ownership":null,"YearBuilt":null,"Borough":"Westminster","LengthInMetres":10,"stroke":"#9C27B0","stroke-width":2},"geometry":{"type":"LineString","coordinates":[[-0.1869681,51.51384],[-0.1868232,51.51386]]}},{"type":"Feature","properties":{"Title":"C27","Direction":"TwoWay","Flow":null,"Protection":null,"Ownership":null,"YearBuilt":null,"Borough":"Westminster","LengthInMetres":24,"stroke":"#9C27B0","stroke-width":4},"geometry":{"type":"LineString","coordinates":[[-0.1836555,51.51223],[-0.1834731,51.51224],[-0.1834034,51.51226],[-0.1833229,51.51228]]}},{"type":"Feature","properties":{"Title":"C27","Direction":"TwoWay","Flow":null,"Protection":null,"Ownership":null,"YearBuilt":null,"Borough":"Westminster","LengthInMetres":192,"stroke":"#9C27B0","stroke-width":4},"geometry":{"type":"LineString","coordinates":[[-0.1776436,51.51446],[-0.1774565,51.51434],[-0.1767055,51.51382],[-0.1762039,51.51347],[-0.1760912,51.51338],[-0.1759705,51.51329],[-0.1757977,51.51317]]}},{"type":"Feature","properties":{"Title":"C27","Direction":"OneWay","Flow":null,"Protection":null,"Ownership":null,"YearBuilt":null,"Borough":"Westminster","LengthInMetres":20,"stroke":"#9C27B0","stroke-width":2},"geometry":{"type":"LineString","coordinates":[[-0.1751641,51.51361],[-0.1750327,51.51377]]}},{"type":"Feature","properties":{"Title":"C27","Direction":"OneWay","Flow":null,"Protection":null,"Ownership":null,"YearBuilt":null,"Borough":"Westminster","LengthInMetres":40,"stroke":"#9C27B0","stroke-width":2},"geometry":{"type":"LineString","coordinates":[[-0.1657617,51.51682],[-0.165704,51.51685],[-0.1656732,51.51686],[-0.1656329,51.51687],[-0.1655827,51.51688],[-0.165531,51.51688],[-0.1654968,51.51689],[-0.1654613,51.5169],[-0.1653929,51.51693],[-0.1652548,51.51698]]}},{"type":"Feature","properties":{"Title":"C27","Direction":"OneWay","Flow":null,"Protection":null,"Ownership":null,"YearBuilt":null,"Borough":"Westminster","LengthInMetres":10,"stroke":"#9C27B0","stroke-width":2},"geometry":{"type":"LineString","coordinates":[[-0.1437145,51.5223],[-0.1437522,51.52239]]}},{"type":"Feature","properties":{"Title":"C27","Direction":"OneWay","Flow":null,"Protection":null,"Ownership":null,"YearBuilt":null,"Borough":"Westminster","LengthInMetres":17,"stroke":"#9C27B0","stroke-width":2},"geometry":{"type":"LineString","coordinates":[[-0.1435751,51.522],[-0.1436441,51.52215]]}},{"type":"Feature","properties":{"Title":"C27","Direction":"OneWay","Flow":null,"Protection":null,"Ownership":null,"YearBuilt":null,"Borough":"Westminster","LengthInMetres":6,"stroke":"#9C27B0","stroke-width":2},"geometry":{"type":"LineString","coordinates":[[-0.1406296,51.52123],[-0.1405545,51.52125]]}},{"type":"Feature","properties":{"Title":"C27","Direction":"OneWay","Flow":null,"Protection":null,"Ownership":null,"YearBuilt":null,"Borough":"Westminster","LengthInMetres":18,"stroke":"#9C27B0","stroke-width":2},"geometry":{"type":"LineString","coordinates":[[-0.139981,51.52141],[-0.1401631,51.52133],[-0.1401995,51.52132]]}},{"type":"Feature","properties":{"Title":"C55","Direction":"TwoWay","Flow":null,"Protection":null,"Ownership":null,"YearBuilt":null,"Borough":"Westminster","LengthInMetres":1252,"stroke":"#9C27B0","stroke-width":4},"geometry":{"type":"LineString","coordinates":[[-0.15267,51.50393],[-0.1526124,51.50404],[-0.1525353,51.50412],[-0.1522758,51.50426],[-0.1522785,51.50432],[-0.1522825,51.50437],[-0.1521819,51.50467],[-0.1520665,51.50531],[-0.1520538,51.50559],[-0.1520625,51.50573],[-0.1521336,51.5059],[-0.1521892,51.506],[-0.1523603,51.50626],[-0.1525199,51.50643],[-0.1530777,51.50688],[-0.1537242,51.5074],[-0.1543947,51.50797],[-0.1547179,51.50822],[-0.1550894,51.50853],[-0.1554032,51.50876],[-0.1555373,51.50884],[-0.156452,51.50924],[-0.1565834,51.50933],[-0.1568033,51.50957],[-0.1570595,51.50985],[-0.1570957,51.50992],[-0.15714,51.51001],[-0.1572372,51.51014],[-0.1573022,51.51021],[-0.1575999,51.51053],[-0.1578118,51.5108],[-0.1579734,51.51106],[-0.1581458,51.51137],[-0.1582812,51.51161],[-0.1585628,51.51225],[-0.1586274,51.51241],[-0.1586732,51.51245],[-0.1587647,51.51249],[-0.1588659,51.51252],[-0.1589263,51.51252],[-0.159,51.51252],[-0.1597028,51.51244],[-0.1607131,51.51232]]}},{"type":"Feature","properties":{"Title":"C55","Direction":"OneWay","Flow":null,"Protection":null,"Ownership":null,"YearBuilt":null,"Borough":"Westminster","LengthInMetres":10,"stroke":"#9C27B0","stroke-width":2},"geometry":{"type":"LineString","coordinates":[[-0.1613821,51.51234],[-0.1613189,51.51237],[-0.1612691,51.51239]]}},{"type":"Feature","properties":{"Title":"C55","Direction":"TwoWay","Flow":null,"Protection":null,"Ownership":null,"YearBuilt":null,"Borough":"Westminster","LengthInMetres":694,"stroke":"#9C27B0","stroke-width":4},"geometry":{"type":"LineString","coordinates":[[-0.172285,51.51163],[-0.171128,51.51162],[-0.169979,51.51167],[-0.1693205,51.51173],[-0.1686164,51.51183],[-0.1677608,51.51196],[-0.1671063,51.51205],[-0.1664411,51.51213],[-0.1658108,51.51218],[-0.1653253,51.5122],[-0.1646734,51.51224],[-0.1644131,51.51226],[-0.1638711,51.5123],[-0.1634804,51.51231],[-0.1630919,51.51229],[-0.1623915,51.51224]]}},{"type":"Feature","properties":{"Title":"C56","Direction":"TwoWay","Flow":null,"Protection":null,"Ownership":null,"YearBuilt":null,"Borough":"Westminster","LengthInMetres":134,"stroke":"#9C27B0","stroke-width":4},"geometry":{"type":"LineString","coordinates":[[-0.1239667,51.50089],[-0.1220434,51.50085]]}},{"type":"Feature","properties":{"Title":"C56","Direction":"TwoWay","Flow":null,"Protection":null,"Ownership":null,"YearBuilt":null,"Borough":"Westminster","LengthInMetres":18,"stroke":"#9C27B0","stroke-width":4},"geometry":{"type":"LineString","coordinates":[[-0.1220434,51.50085],[-0.1217911,51.50085]]}},{"type":"Feature","properties":{"Title":"Cycleway Link (Vauxhall-Pimlico)","Direction":"OneWay","Flow":null,"Protection":null,"Ownership":null,"YearBuilt":null,"Borough":"Westminster","LengthInMetres":12,"stroke":"#9C27B0","stroke-width":2},"geometry":{"type":"LineString","coordinates":[[-0.1322754,51.49008],[-0.1321278,51.49002]]}},{"type":"Feature","properties":{"Title":"Cycleway LinkÂ (Vauxhall-Pimlico)","Direction":"OneWay","Flow":null,"Protection":null,"Ownership":null,"YearBuilt":null,"Borough":"Westminster","LengthInMetres":30,"stroke":"#9C27B0","stroke-width":2},"geometry":{"type":"LineString","coordinates":[[-0.1307499,51.48934],[-0.1311764,51.48937]]}},{"type":"Feature","properties":{"Title":"Cycleway LinkÂ (Vauxhall-Pimlico)","Direction":"TwoWay","Flow":null,"Protection":null,"Ownership":null,"YearBuilt":null,"Borough":"Westminster","LengthInMetres":446,"stroke":"#9C27B0","stroke-width":4},"geometry":{"type":"LineString","coordinates":[[-0.1321037,51.49009],[-0.1321091,51.49004],[-0.1321278,51.49002],[-0.1318864,51.4899],[-0.1314332,51.48968],[-0.1309745,51.48946],[-0.1307304,51.48933],[-0.1303683,51.48915],[-0.1299123,51.48894],[-0.1295342,51.48878],[-0.1292176,51.48866],[-0.1289575,51.48856],[-0.128582,51.4884],[-0.128185,51.48822],[-0.1273589,51.48785],[-0.1270372,51.4877]]}},{"type":"Feature","properties":{"Title":"Aberdeen Place","Direction":"TwoWay","Flow":null,"Protection":null,"Ownership":null,"YearBuilt":null,"Borough":"Westminster","LengthInMetres":79,"stroke":"#9C27B0","stroke-width":4},"geometry":{"type":"LineString","coordinates":[[-0.1760924,51.52504],[-0.1767683,51.52471],[-0.1770365,51.52466]]}},{"type":"Feature","properties":{"Title":"Hanover Street","Direction":"OneWay","Flow":null,"Protection":null,"Ownership":null,"YearBuilt":null,"Borough":"Westminster","LengthInMetres":123,"stroke":"#9C27B0","stroke-width":2},"geometry":{"type":"LineString","coordinates":[[-0.1433266,51.51369],[-0.1424361,51.51388],[-0.1416315,51.51402]]}},{"type":"Feature","properties":{"Title":"Boundary Road","Direction":"TwoWay","Flow":null,"Protection":null,"Ownership":null,"YearBuilt":null,"Borough":"Westminster","LengthInMetres":32,"stroke":"#9C27B0","stroke-width":4},"geometry":{"type":"LineString","coordinates":[[-0.1760799,51.53963],[-0.1756262,51.5396]]}},{"type":"Feature","properties":{"Title":"William Street","Direction":"TwoWay","Flow":null,"Protection":null,"Ownership":null,"YearBuilt":null,"Borough":"Westminster","LengthInMetres":102,"stroke":"#9C27B0","stroke-width":4},"geometry":{"type":"LineString","coordinates":[[-0.1584312,51.50183],[-0.158383,51.50206],[-0.1584688,51.50233],[-0.1585225,51.50274]]}},{"type":"Feature","properties":{"Title":"Stanhope Place","Direction":"TwoWay","Flow":null,"Protection":null,"Ownership":null,"YearBuilt":null,"Borough":"Westminster","LengthInMetres":99,"stroke":"#9C27B0","stroke-width":4},"geometry":{"type":"LineString","coordinates":[[-0.162733,51.5131],[-0.1627344,51.51301],[-0.1627384,51.51294],[-0.1627344,51.51291],[-0.162721,51.51287],[-0.1625898,51.51259],[-0.1625054,51.51242],[-0.1623915,51.51224]]}},{"type":"Feature","properties":{"Title":"Albion Street","Direction":"TwoWay","Flow":null,"Protection":null,"Ownership":null,"YearBuilt":null,"Borough":"Westminster","LengthInMetres":59,"stroke":"#9C27B0","stroke-width":4},"geometry":{"type":"LineString","coordinates":[[-0.1665547,51.51265],[-0.1664689,51.51231],[-0.1664206,51.51213]]}},{"type":"Feature","properties":{"Title":"LCN 38","Direction":"OneWay","Flow":null,"Protection":null,"Ownership":null,"YearBuilt":null,"Borough":"Westminster","LengthInMetres":41,"stroke":"#9C27B0","stroke-width":2},"geometry":{"type":"LineString","coordinates":[[-0.1460537,51.49727],[-0.1463487,51.49695]]}},{"type":"Feature","properties":{"Title":"LCN 38","Direction":"OneWay","Flow":null,"Protection":null,"Ownership":null,"YearBuilt":null,"Borough":"Westminster","LengthInMetres":22,"stroke":"#9C27B0","stroke-width":2},"geometry":{"type":"LineString","coordinates":[[-0.1472513,51.49598],[-0.1471065,51.49616]]}},{"type":"Feature","properties":{"Title":"LCN 38","Direction":"TwoWay","Flow":null,"Protection":null,"Ownership":null,"YearBuilt":null,"Borough":"Westminster","LengthInMetres":29,"stroke":"#9C27B0","stroke-width":4},"geometry":{"type":"LineString","coordinates":[[-0.1484296,51.49488],[-0.1486603,51.49466]]}},{"type":"Feature","properties":{"Title":"LCN 5","Direction":"TwoWay","Flow":null,"Protection":null,"Ownership":null,"YearBuilt":null,"Borough":"Westminster","LengthInMetres":29,"stroke":"#9C27B0","stroke-width":4},"geometry":{"type":"LineString","coordinates":[[-0.1503756,51.49107],[-0.1503971,51.49102],[-0.1503944,51.49098],[-0.1503756,51.49096],[-0.1503501,51.49094],[-0.1502878,51.49094],[-0.1502392,51.49093],[-0.1501691,51.49091]]}},{"type":"Feature","properties":{"Title":"Millbank","Direction":"OneWay","Flow":null,"Protection":null,"Ownership":null,"YearBuilt":null,"Borough":"Westminster","LengthInMetres":37,"stroke":"#9C27B0","stroke-width":2},"geometry":{"type":"LineString","coordinates":[[-0.1262306,51.49976],[-0.126234,51.49982],[-0.126229,51.50001],[-0.1262359,51.50005],[-0.1262535,51.50009]]}},{"type":"Feature","properties":{"Title":"Parliament Square","Direction":"OneWay","Flow":null,"Protection":null,"Ownership":null,"YearBuilt":null,"Borough":"Westminster","LengthInMetres":34,"stroke":"#9C27B0","stroke-width":2},"geometry":{"type":"LineString","coordinates":[[-0.1280961,51.50014],[-0.1278681,51.5002],[-0.1276589,51.50028]]}},{"type":"Feature","properties":{"Title":"Parliament Square","Direction":"OneWay","Flow":null,"Protection":null,"Ownership":null,"YearBuilt":null,"Borough":"Westminster","LengthInMetres":35,"stroke":"#9C27B0","stroke-width":2},"geometry":{"type":"LineString","coordinates":[[-0.1271453,51.50029],[-0.1272654,51.5003],[-0.1273304,51.50032],[-0.1273693,51.50033],[-0.1274095,51.50036],[-0.1274323,51.50039],[-0.1274551,51.50043],[-0.1274632,51.50048]]}},{"type":"Feature","properties":{"Title":"Petty France","Direction":"OneWay","Flow":null,"Protection":null,"Ownership":null,"YearBuilt":null,"Borough":"Westminster","LengthInMetres":182,"stroke":"#9C27B0","stroke-width":2},"geometry":{"type":"LineString","coordinates":[[-0.1356414,51.4996],[-0.1359418,51.49952],[-0.13632,51.49941],[-0.1366231,51.49934],[-0.1370281,51.49927],[-0.1374921,51.4992],[-0.1377844,51.49916],[-0.1381358,51.49912]]}},{"type":"Feature","properties":{"Title":"Moor Street","Direction":"TwoWay","Flow":null,"Protection":null,"Ownership":null,"YearBuilt":null,"Borough":"Westminster","LengthInMetres":23,"stroke":"#9C27B0","stroke-width":4},"geometry":{"type":"LineString","coordinates":[[-0.1296174,51.51347],[-0.1293841,51.51346],[-0.1292889,51.51344]]}},{"type":"Feature","properties":{"Title":"Hugh Street","Direction":"TwoWay","Flow":null,"Protection":null,"Ownership":null,"YearBuilt":null,"Borough":"Westminster","LengthInMetres":9,"stroke":"#9C27B0","stroke-width":4},"geometry":{"type":"LineString","coordinates":[[-0.1460996,51.49178],[-0.1460218,51.49185]]}},{"type":"Feature","properties":{"Title":"Wardour Street","Direction":"OneWay","Flow":null,"Protection":null,"Ownership":null,"YearBuilt":null,"Borough":"Westminster","LengthInMetres":21,"stroke":"#9C27B0","stroke-width":2},"geometry":{"type":"LineString","coordinates":[[-0.133339,51.51263],[-0.1331244,51.5125]]}},{"type":"Feature","properties":{"Title":"Storey's Gate","Direction":"OneWay","Flow":null,"Protection":null,"Ownership":null,"YearBuilt":null,"Borough":"Westminster","LengthInMetres":42,"stroke":"#9C27B0","stroke-width":2},"geometry":{"type":"LineString","coordinates":[[-0.129596,51.50092],[-0.1295852,51.5013]]}},{"type":"Feature","properties":{"Title":"Allitsen Rd/ Townshend Rd","Direction":"TwoWay","Flow":null,"Protection":null,"Ownership":null,"YearBuilt":null,"Borough":"Westminster","LengthInMetres":7,"stroke":"#9C27B0","stroke-width":4},"geometry":{"type":"LineString","coordinates":[[-0.165894,51.53544],[-0.165793,51.53542]]}},{"type":"Feature","properties":{"Title":"Carlton Vale","Direction":"TwoWay","Flow":null,"Protection":null,"Ownership":null,"YearBuilt":null,"Borough":"Westminster","LengthInMetres":18,"stroke":"#9C27B0","stroke-width":4},"geometry":{"type":"LineString","coordinates":[[-0.2016599,51.5326],[-0.2018002,51.5326],[-0.2019101,51.53262]]}},{"type":"Feature","properties":{"Title":"Carlton Vale","Direction":"OneWay","Flow":null,"Protection":null,"Ownership":null,"YearBuilt":null,"Borough":"Westminster","LengthInMetres":35,"stroke":"#9C27B0","stroke-width":2},"geometry":{"type":"LineString","coordinates":[[-0.2019101,51.53262],[-0.2021098,51.53266],[-0.202378,51.53273]]}},{"type":"Feature","properties":{"Title":"Ivor Place","Direction":"OneWay","Flow":null,"Protection":null,"Ownership":null,"YearBuilt":null,"Borough":"Westminster","LengthInMetres":9,"stroke":"#9C27B0","stroke-width":2},"geometry":{"type":"LineString","coordinates":[[-0.1596844,51.52468],[-0.1595663,51.52472]]}},{"type":"Feature","properties":{"Title":"Ivor Place","Direction":"OneWay","Flow":null,"Protection":null,"Ownership":null,"YearBuilt":null,"Borough":"Westminster","LengthInMetres":25,"stroke":"#9C27B0","stroke-width":2},"geometry":{"type":"LineString","coordinates":[[-0.1594242,51.52464],[-0.1595342,51.52464],[-0.1596254,51.52466],[-0.1597755,51.52463]]}},{"type":"Feature","properties":{"Title":"Baker Street/Park Road","Direction":"OneWay","Flow":null,"Protection":null,"Ownership":null,"YearBuilt":null,"Borough":"Westminster","LengthInMetres":6,"stroke":"#9C27B0","stroke-width":2},"geometry":{"type":"LineString","coordinates":[[-0.1586115,51.52433],[-0.1585793,51.52433],[-0.1585605,51.52436]]}},{"type":"Feature","properties":{"Title":"Baker Street","Direction":"OneWay","Flow":null,"Protection":null,"Ownership":null,"YearBuilt":null,"Borough":"Westminster","LengthInMetres":20,"stroke":"#9C27B0","stroke-width":2},"geometry":{"type":"LineString","coordinates":[[-0.1585122,51.52417],[-0.1585203,51.52421],[-0.1585391,51.52431],[-0.1585605,51.52435]]}},{"type":"Feature","properties":{"Title":"LCN5","Direction":"OneWay","Flow":null,"Protection":null,"Ownership":null,"YearBuilt":null,"Borough":"Westminster","LengthInMetres":49,"stroke":"#9C27B0","stroke-width":2},"geometry":{"type":"LineString","coordinates":[[-0.1501327,51.49048],[-0.1501332,51.49052],[-0.150121,51.4906],[-0.1500969,51.49076],[-0.1500976,51.49079],[-0.1501227,51.49083],[-0.1501479,51.49088],[-0.1501691,51.49091]]}},{"type":"Feature","properties":{"Title":"Marble Arch","Direction":"OneWay","Flow":null,"Protection":null,"Ownership":null,"YearBuilt":null,"Borough":"Westminster","LengthInMetres":8,"stroke":"#9C27B0","stroke-width":2},"geometry":{"type":"LineString","coordinates":[[-0.1583655,51.51266],[-0.1583198,51.51268],[-0.1582883,51.51269],[-0.1582688,51.5127]]}},{"type":"Feature","properties":{"Title":"Park Lane","Direction":"OneWay","Flow":null,"Protection":null,"Ownership":null,"YearBuilt":null,"Borough":"Westminster","LengthInMetres":8,"stroke":"#9C27B0","stroke-width":2},"geometry":{"type":"LineString","coordinates":[[-0.1586732,51.51245],[-0.1587324,51.51247],[-0.1587781,51.51248]]}},{"type":"Feature","properties":{"Title":"Marble Arch","Direction":"OneWay","Flow":null,"Protection":null,"Ownership":null,"YearBuilt":null,"Borough":"Westminster","LengthInMetres":6,"stroke":"#9C27B0","stroke-width":2},"geometry":{"type":"LineString","coordinates":[[-0.1620583,51.5131],[-0.1619741,51.51312]]}},{"type":"Feature","properties":{"Title":"Edgware Road","Direction":"OneWay","Flow":null,"Protection":null,"Ownership":null,"YearBuilt":null,"Borough":"Westminster","LengthInMetres":6,"stroke":"#9C27B0","stroke-width":2},"geometry":{"type":"LineString","coordinates":[[-0.1603056,51.51349],[-0.1602653,51.51348],[-0.1602314,51.51347]]}},{"type":"Feature","properties":{"Title":"Cleveland Square","Direction":"TwoWay","Flow":null,"Protection":null,"Ownership":null,"YearBuilt":null,"Borough":"Westminster","LengthInMetres":5,"stroke":"#9C27B0","stroke-width":4},"geometry":{"type":"LineString","coordinates":[[-0.1837145,51.51387],[-0.183653,51.51389]]}},{"type":"Feature","properties":{"Title":"Vigo Street","Direction":"TwoWay","Flow":null,"Protection":null,"Ownership":null,"YearBuilt":null,"Borough":"Westminster","LengthInMetres":49,"stroke":"#9C27B0","stroke-width":4},"geometry":{"type":"LineString","coordinates":[[-0.1396899,51.51015],[-0.1396309,51.51014],[-0.1395746,51.51015],[-0.1390194,51.51026]]}},{"type":"Feature","properties":{"Title":"Harrow Road Roundabout - City of Westminster","Direction":"OneWay","Flow":null,"Protection":null,"Ownership":null,"YearBuilt":null,"Borough":"Westminster","LengthInMetres":98,"stroke":"#9C27B0","stroke-width":2},"geometry":{"type":"LineString","coordinates":[[-0.1785303,51.51994],[-0.1785437,51.52],[-0.1785169,51.52006],[-0.1784686,51.52015],[-0.1784122,51.52019],[-0.1782084,51.52026],[-0.1779429,51.52025],[-0.1776344,51.52024],[-0.1774654,51.52023]]}},{"type":"Feature","properties":{"Title":"Harrow Road/Westway Crossing","Direction":"OneWay","Flow":null,"Protection":null,"Ownership":null,"YearBuilt":null,"Borough":"Westminster","LengthInMetres":54,"stroke":"#9C27B0","stroke-width":2},"geometry":{"type":"LineString","coordinates":[[-0.1847149,51.51986],[-0.1847632,51.51971],[-0.1847793,51.51956],[-0.184704,51.51938]]}}]}